stat_num,Region,stat_name,HUC_code,drain_area,t_scale,record,c_lines,district,state,county,lat_N,lat_dd,long_W,long_dd,datum,NC_area,BI,CCI,snow factor index
1010000,1,"ST. JOHN RIVER AT NINEMILE BRIDGE, ME",1010001,1341.0,D,E,0,ME,ME,3,464200N,46.7,0694259W,-69.71639,931.26,0,,,0.120586929
1010500,1,"ST. JOHN RIVER AT DICKEY, ME",1010001,2680.0,D,E,0,ME,ME,3,470644N,47.11222,0690525W,-69.09028,590.66,0,,,0.057540198
1011000,1,"ALLAGASH RIVER NEAR ALLAGASH, ME",1010002,1229.0,M,E,3,ME,ME,3,470414N,47.07056,0690451W,-69.08083,604.6,0,,,0.133671773
1011500,1,"ST. FRANCIS RIVER NEAR CONNORS, NEW BRUNSWICK",1010001,524.0,D,E,1,ME,NB,7,471225N,47.20694,0685725W,-68.95694,550.0,0,,,0.307828674
1013500,1,"FISH RIVER NEAR FORT KENT, ME",1010003,873.0,D,E,0,ME,ME,3,471414N,47.23722,0683456W,-68.58222,511.38,0,,,0.193217807
1014000,1,"ST. JOHN RIVER BELOW FISH R, AT FORT KENT, ME",1010001,5665.0,D,E,0,ME,ME,3,471527N,47.2575,0683535W,-68.59306,488.81,0,,C,0.027536238
1018000,1,"MEDUXNEKEAG RIVER NEAR HOULTON, ME",1010005,175.0,D,E,0,ME,ME,3,460617N,46.10472,0675200W,-67.86667,333.92,0,,,0.749585832
1021200,1,"DENNYS RIVER AT DENNYSVILLE, ME",1050002,92.9,D,E,0,ME,ME,29,445403N,44.90083,0671456W,-67.24889,54.78,0,,,0.950436808
1021500,1,"MACHIAS RIVER AT WHITNEYVILLE, ME",1050002,457.0,M,E,3,ME,ME,29,444323N,44.72306,0673115W,-67.52083,37.22,0,,,0.194498002
1022500,1,"NARRAGUAGUS RIVER AT CHERRYFIELD, ME",1050002,227.0,D,E,0,ME,ME,29,443629N,44.60806,0675610W,-67.93611,44.2,0,,,0.347740372
1023000,1,"WEST BRANCH UNION RIVER AT AMHERST, ME",1050002,148.0,D,E,0,ME,ME,9,445025N,44.84028,0682222W,-68.37278,160.0,0,,,0.728620409
1030500,1,"MATTAWAMKEAG RIVER NEAR MATTAWAMKEAG, ME",1020003,1418.0,D,E,0,ME,ME,19,453018N,45.505,0681807W,-68.30194,230.0,0,,,0.09366902
1031500,1,"PISCATAQUIS RIVER NEAR DOVER-FOXCROFT, ME",1020004,298.0,D,E,0,ME,ME,21,451031N,45.17528,0691855W,-69.31528,358.47,0,,C,0.456360554
1033500,1,"PLEASANT RIVER NEAR MILO, ME",1020004,324.0,D,E,0,ME,ME,21,451658N,45.28278,0690013W,-69.00361,302.0,0,,,0.401030851
1035000,1,"PASSADUMKEAG RIVER AT LOWELL, ME",1020005,299.0,D,E,0,ME,ME,19,451104N,45.18444,0682829W,-68.47472,151.3,0,,,0.419911517
1038000,1,"SHEEPSCOT RIVER AT NORTH WHITEFIELD, ME",1050003,145.0,D,E,0,ME,ME,15,441323N,44.22306,0693538W,-69.59389,101.05,0,,,0.689460854
1047000,1,"CARRABASSETT RIVER NEAR NORTH ANSON, ME",1030003,353.0,D,E,0,ME,ME,25,445209N,44.86917,0695720W,-69.95556,303.3,0,,,0.399499043
1048000,1,"SANDY RIVER NEAR MERCER, ME",1030003,514.0,D,E,0,ME,ME,25,444226N,44.70722,0695621W,-69.93917,197.1,0,,,0.273698211
1052500,1,"DIAMOND RIVER NEAR WENTWORTH LOCATION, NH",1040001,152.0,D,E,0,ME,NH,7,445240N,44.87778,0710325W,-71.05694,1259.48,0,,,1.182531947
1054200,1,"WILD RIVER AT GILEAD, ME",1040002,69.6,D,E,0,ME,ME,17,442327N,44.39083,0705847W,-70.97972,683.1,0,B,,2.023105396
1055000,1,"SWIFT RIVER NEAR ROXBURY, ME",1040002,96.9,D,E,0,ME,ME,17,443832N,44.64222,0703517W,-70.58806,615.67,0,,,1.587591962
1055500,1,"NEZINSCOT RIVER AT TURNER CENTER, ME",1040002,169.0,D,E,0,ME,ME,1,441610N,44.26944,0701349W,-70.23028,276.29,0,,,0.656918436
1057000,1,"LITTLE ANDROSCOGGIN RIVER NEAR SOUTH PARIS, ME",1040002,75.8,D,E,3,ME,ME,17,441813N,44.30361,0703224W,-70.54,447.0,3,,C,1.478221654
1060000,1,"ROYAL RIVER AT YARMOUTH, ME",1060001,141.0,D,E,2,ME,ME,5,434757N,43.79917,0701045W,-70.17917,10.0,0,,,0.605881337
1064500,1,"SACO RIVER NEAR CONWAY, NH",1060002,385.0,D,E,0,ME,NH,3,435927N,43.99083,0710529W,-71.09139,418.19,0,,,0.447734521
1073000,1,"OYSTER RIVER NEAR DURHAM, NH",1060003,12.1,D,E,0,NH,NH,17,430855N,43.14861,0705756W,-70.96556,70.0,0,,,6.579578669
1075000,1,"PEMIGEWASSET RIVER AT WOODSTOCK, NH",1070001,193.0,D,E,0,NH,NH,9,435834N,43.97611,0714048W,-71.68,615.0,0,,,0.635712949
1076000,1,"BAKER RIVER NEAR RUMNEY, NH",1070001,143.0,D,P,1,NH,NH,9,434746N,43.79611,0715042W,-71.845,495.0,0,,,0.84990627
1076500,1,"PEMIGEWASSET RIVER AT PLYMOUTH, NH",1070001,622.0,D,E,0,NH,NH,9,434533N,43.75917,0714110W,-71.68611,457.07,0,,C,0.209277878
1078000,1,"SMITH RIVER NEAR BRISTOL, NH",1070001,85.8,D,E,0,NH,NH,13,433404N,43.56778,0714454W,-71.74833,449.8,0,,,1.418536486
1086000,1,"WARNER RIVER AT DAVISVILLE, NH",1070003,146.0,D,E,0,NH,NH,13,431506N,43.25167,0714354W,-71.73167,380.0,0,,,0.795350677
1094000,1,"SOUHEGAN RIVER AT MERRIMACK, NH",1070002,171.0,D,E,0,NH,NH,11,425127N,42.8575,0713024W,-71.50667,160.58,0,,,0.600184139
1106000,1,"ADAMSVILLE BROOK AT ADAMSVILLE, RI",1090002,8.01,D,E,0,MA,RI,5,413330N,41.55833,0710747W,-71.12972,15.0,0,,,5.212409765
1111500,1,"BRANCH RIVER AT FORESTDALE, RI",1090003,91.2,D,P,3,RI,RI,7,415947N,41.99639,0713347W,-71.56306,180.0,0,,,0.748615877
1117500,1,"PAWCATUCK RIVER AT WOOD RIVER JUNCTION, RI",1090005,100.0,D,E,0,RI,RI,9,412642N,41.445,0714053W,-71.68139,43.86,0,,C,0.441784977
1117800,1,"WOOD RIVER NEAR ARCADIA, RI",1090005,35.2,D,E,0,RI,RI,9,413426N,41.57389,0714316W,-71.72111,118.2,0,,,1.2963073
1118000,1,"WOOD RIVER AT HOPE VALLEY, RI",1090005,72.4,D,P,3,RI,RI,9,412953N,41.49806,0714301W,-71.71694,61.11,0,,,0.552325841
1118500,1,"PAWCATUCK RIVER AT WESTERLY, RI",1090005,295.0,D,E,0,RI,RI,9,412301N,41.38361,0715001W,-71.83361,1.76,0,,,0.131599029
1119500,1,"WILLAMANTIC RIVER NEAR COVENTRY, CT",1100002,121.0,M,E,3,CT,CT,13,414502N,41.75056,0721558W,-72.26611,239.05,0,,,0.656376053
1121000,1,"MOUNT HOPE RIVER NEAR WARRENVILLE, CT",1100002,28.6,D,E,0,CT,CT,15,415035N,41.84306,0721010W,-72.16944,335.68,0,,C,2.776440298
1127500,1,"YANTIC R AT YANTIC, CT",1100003,89.3,D,E,0,CT,CT,11,413331N,41.55861,0720719W,-72.12194,94.46,0,,,0.679558351
1134500,1,"MOOSE RIVER AT VICTORY, VT",1080102,75.2,D,E,0,VT,VT,9,443042N,44.51167,0715013W,-71.83694,1103.99,0,,,2.38119175
1137500,1,"AMMONOOSUC RIVER AT BETHLEHEM JUNCTION, NH",1080101,87.6,D,E,0,NH,NH,9,441608N,44.26889,0713752W,-71.63111,1180.74,0,,,2.644928276
1142500,1,"AYERS BROOK AT RANDOLPH, VT",1080105,30.5,D,E,0,VT,VT,17,435604N,43.93444,0723930W,-72.65833,630.5,0,,,4.526932768
1144000,1,"WHITE RIVER AT WEST HARTFORD, VT",1080105,690.0,D,E,0,VT,VT,27,434251N,43.71417,0722507W,-72.41861,374.53,0,,,0.196881265
1145000,1,"MASCOMA RIVER AT WEST CANAAN, NH",1080104,80.5,D,E,0,NH,NH,9,433900N,43.65,0720450W,-72.08056,835.0,0,,,1.565411877
1153500,1,"WILLIAMS RIVER AT BROCKWAYS MILLS, VT",1080107,103.0,D,E,0,VT,VT,25,431231N,43.20861,0723105W,-72.51806,433.54,0,,,1.254324998
1156000,1,"WEST RIVER AT NEWFANE, VT",1080107,308.0,D,P,4,VT,VT,25,425943N,42.99528,0723813W,-72.63694,384.21,0,,,0.434524382
1162500,1,"PRIEST BROOK NEAR WINCHENDON, MA",1080202,19.4,M,P,5,MA,MA,27,424057N,42.6825,0720656W,-72.11556,849.67,0,,,5.975019989
1165500,1,"MOSS BROOK AT WENDELL DEPOT, MA",1080202,12.1,D,P,2,MA,MA,11,423610N,42.60278,0722136W,-72.36,508.9,0,,,8.471085896
1169000,1,"NORTH RIVER AT SHATTUCKVILLE, MA",1080203,89.0,D,P,4,MA,MA,11,423818N,42.63833,0724332W,-72.72556,458.36,0,,,1.095415755
1170100,1,"GREEN RIVER NEAR COLRAIN, MA",1080203,41.4,D,E,0,MA,MA,11,424212N,42.70333,0724016W,-72.67111,435.0,0,,,2.246683087
1176000,1,"QUABOAG RIVER AT WEST BRIMFIELD, MA",1080204,150.0,M,P,5,MA,MA,13,421056N,42.18222,0721551W,-72.26417,390.0,0,,,0.646502358
1180500,1,"MIDDLE B WESTFIELD RIVER AT GOSS HEIGHTS, MA",1080206,52.7,M,P,5,MA,MA,15,421531N,42.25861,0725223W,-72.87306,399.3,0,,,1.837194857
1181000,1,"WEST BRANCH WESTFIELD RIVER AT HUNTINGTON, MA",1080206,94.0,D,P,2,MA,MA,15,421414N,42.23722,0725346W,-72.89611,388.6,0,,,1.070246984
1193500,1,"SALMON RIVER NEAR EAST HAMPTON, CT",1080205,100.0,M,E,3,CT,CT,7,413253N,41.54806,0722659W,-72.44972,63.71,0,,C,0.647886912
1196500,1,"QUINNIPIAC RIVER AT WALLINGFORD, CT",1100004,115.0,M,E,3,CT,CT,9,412658N,41.44944,0725029W,-72.84139,19.24,0,,,0.399593739
1198000,1,"GREEN RIVER NEAR GREAT BARRINGTON, MA",1100005,51.0,D,E,0,MA,MA,3,421131N,42.19194,0732328W,-73.39111,690.0,0,,,2.012673217
1201500,1,"STILL R NR LANESVILLE, CT.",1100005,67.5,D,E,0,CT,CT,5,413112N,41.52,0732507W,-73.41861,213.05,0,,,0.909517064
1204000,1,"POMPERAUG RIVER AT SOUTHBURY, CT",1100005,75.1,D,E,0,CT,CT,9,412850N,41.48056,0731330W,-73.225,165.6,0,,C,0.831713854
4296000,1,"BLACK RIVER AT COVENTRY, VT",1110000,122.0,D,E,0,VT,VT,19,445208N,44.86889,0721614W,-72.27056,725.0,0,,,1.335346294
1305000,2,CARMANS RIVER AT YAPHANK NY,2030202,71.0,M,E,5,NY,NY,103,404949N,40.83028,0725424W,-72.90667,17.95,0,,,2.447546435
1321000,2,SACANDAGA RIVER NEAR HOPE NY,2020002,491.0,M,E,4,NY,NY,41,432110N,43.35278,0741615W,-74.27083,881.31,0,,,0.316879648
1329000,2,"BATTEN KILL AT ARLINGTON, VT",2020003,152.0,M,E,3,VT,VT,3,430438N,43.07722,0730926W,-73.15722,596.68,0,,,0.652286298
1329500,2,BATTEN KILL AT BATTENVILLE NY,2020003,394.0,D,P,3,NY,NY,115,430605N,43.10139,0732555W,-73.43194,369.09,0,,,0.240632612
1330500,2,KAYDEROSSERAS CREEK NR WEST MILTON NY,2020003,90.0,M,E,3,NY,NY,91,430218N,43.03833,0735435W,-73.90972,376.06,0,,,1.453207234
1332000,2,"NORTH BRANCH HOOSIC RIVER AT NORTH ADAMS, MA",2020003,40.9,M,E,3,MA,MA,3,424208N,42.70222,0730537W,-73.09361,820.46,0,,,2.222280189
1333000,2,"GREEN RIVER AT WILLIAMSTOWN, MA",2020003,42.6,M,E,4,MA,MA,3,424232N,42.70889,0731150W,-73.19722,615.0,0,,,2.050297617
1333500,2,LITTLE HOOSIC RIVER AT PETERSBURG NY,2020003,56.1,D,E,1,NY,NY,83,424550N,42.76389,0732016W,-73.33778,587.4,0,,,1.75355847
1334500,2,HOOSIC RIVER NEAR EAGLE BRIDGE NY,2020003,510.0,M,E,4,NY,NY,83,425619N,42.93861,0732239W,-73.3775,355.41,0,,,0.17757769
1348000,2,EAST CANADA CREEK AT EAST CREEK NY,2020004,289.0,M,E,6,NY,NY,43,430100N,43.01667,0744428W,-74.74111,335.7,0,,,0.365114893
1349000,2,OTSQUAGO CREEK AT FORT PLAIN NY,2020004,61.0,M,P,5,NY,NY,57,425546N,42.92944,0743735W,-74.62639,301.16,0,,,1.812868902
1350000,2,SCHOHARIE CREEK AT PRATTSVILLE NY,2020005,237.0,D,E,1,NY,NY,39,421910N,42.31944,0742613W,-74.43694,1134.98,0,,,0.459691061
1361000,2,KINDERHOOK CREEK AT ROSSMAN NY,2020006,329.0,M,P,6,NY,NY,21,421950N,42.33056,0734440W,-73.74444,24.78,0,,,0.315571298
1361500,2,CATSKILL CREEK AT OAK HILL NY,2020006,98.0,D,E,0,NY,NY,39,422416N,42.40444,0740907W,-74.15194,610.65,0,,,1.420880694
1365000,2,RONDOUT CREEK NEAR LOWES CORNERS NY,2020007,38.3,D,P,2,NY,NY,105,415200N,41.86667,0742912W,-74.48667,874.44,0,,,2.519215137
1368000,2,WALLKILL RIVER NEAR UNIONVILLE NY,2020007,140.0,D,E,2,NJ,NJ,37,411536N,41.26,0743256W,-74.54889,379.21,0,,,0.473971666
1369000,2,POCHUCK CREEK NEAR PINE ISLAND NY,2020007,98.0,D,E,0,NY,NY,71,411632N,41.27556,0742819W,-74.47194,382.39,0,,,0.699973772
1372500,2,WAPPINGER CREEK NEAR WAPPINGERS FALLS NY,2020008,181.0,D,P,2,NY,NY,27,413911N,41.65306,0735223W,-73.87306,114.37,0,,,0.408551633
1373500,2,FISHKILL CREEK AT BEACON NY,2020008,190.0,M,E,3,NY,NY,27,413040N,41.51111,0735655W,-73.94861,131.17,0,,,0.386436316
1379500,2,PASSAIC RIVER NEAR CHATHAM NJ,2030103,100.0,D,E,2,NJ,NJ,27,404331N,40.72528,0742323W,-74.38972,193.51,0,,,0.436370964
1384500,2,RINGWOOD CREEK NEAR WANAQUE NJ,2030103,19.1,D,P,2,NJ,NJ,31,410736N,41.12667,0741552W,-74.26444,292.67,0,,,3.308006479
1387500,2,RAMAPO RIVER NEAR MAHWAH NJ,2030103,120.0,D,P,2,NJ,NJ,3,410551N,41.0975,0740948W,-74.16333,253.1,0,,,0.50492521
1396500,2,SOUTH BRANCH RARITAN RIVER NEAR HIGH BRIDGE NJ,2030105,65.3,D,E,2,NJ,NJ,19,404040N,40.67778,0745246W,-74.87944,282.1,0,C,,0.910388882
1398000,2,NESHANIC RIVER AT REAVILLE NJ,2030105,25.7,D,E,0,NJ,NJ,19,402818N,40.47167,0744942W,-74.82833,109.46,0,,,1.87465901
1398500,2,NB RARITAN RIVER NEAR FAR HILLS NJ,2030105,26.2,D,P,1,NJ,NJ,35,404230N,40.70833,0743811W,-74.63639,224.49,0,,,2.065161732
1399500,2,LAMINGTON (BLACK) RIVER NEAR POTTERSVILLE NJ,2030105,32.8,D,P,2,NJ,NJ,27,404339N,40.7275,0744350W,-74.73056,284.14,0,,,1.919564937
1408500,2,TOMS RIVER NEAR TOMS RIVER NJ,2040301,123.0,D,P,3,NJ,NJ,29,395910N,39.98611,0741329W,-74.22472,8.1,0,,,0.278902868
1410000,2,OSWEGO RIVER AT HARRISVILLE NJ,2040301,72.5,D,P,1,NJ,NJ,5,393947N,39.66306,0743126W,-74.52389,4.62,0,,,0.591424122
1411000,2,GREAT EGG HARBOR RIVER AT FOLSOM NJ,2040302,57.1,D,E,0,NJ,NJ,1,393542N,39.595,0745106W,-74.85167,53.32,0,C,,0.527652028
1411500,2,MAURICE RIVER AT NORMA NJ,2040206,112.0,D,E,0,NJ,NJ,33,392942N,39.495,0750438W,-75.07722,46.94,0,,,0.253218549
1413500,2,EAST BR DELAWARE R AT MARGARETVILLE NY,2040102,163.0,D,E,0,NY,NY,25,420841N,42.14472,0743914W,-74.65389,1302.38,0,,,0.697469594
1414000,2,PLATTE KILL AT DUNRAVEN NY,2040102,35.0,M,E,3,NY,NY,25,420759N,42.13306,0744145W,-74.69583,1296.23,0,,,2.45682939
1418500,2,BEAVER KILL AT CRAIGIE CLAIR NY,2040102,81.9,D,E,0,NY,NY,105,415747N,41.96306,0745202W,-74.86722,1399.69,0,,,1.05208316
1419500,2,WILLOWEMOC CREEK NR LIVINGSTON MANOR NY,2040102,62.6,D,E,0,NY,NY,105,415412N,41.90333,0744847W,-74.81306,1435.85,0,,,1.415666166
1420500,2,BEAVER KILL AT COOKS FALLS NY,2040102,241.0,D,E,0,NY,NY,25,415647N,41.94639,0745848W,-74.98,1151.7,0,,,0.354764392
1422000,2,WEST BRANCH DELAWARE RIVER AT DELHI NY,2040101,142.0,D,E,0,NY,NY,25,421618N,42.27167,0745506W,-74.91833,1345.29,0,,,0.763044937
1422500,2,LITTLE DELAWARE RIVER NEAR DELHI NY,2040101,49.7,D,E,0,NY,NY,25,421508N,42.25222,0745407W,-74.90194,1385.35,0,,,1.892257525
1423000,2,WEST BRANCH DELAWARE RIVER AT WALTON NY,2040101,332.0,D,E,0,NY,NY,25,420958N,42.16611,0750825W,-75.14028,1190.3,0,,,0.303421981
1424500,2,TROUT CREEK AT CANNONSVILLE NY,2040101,49.5,D,E,0,NY,NY,25,420545N,42.09583,0751925W,-75.32361,1041.54,0,,,2.068643464
1426500,2,WEST BRANCH DELAWARE RIVER AT HALE EDDY NY,2040101,595.0,D,P,2,NY,NY,25,420011N,42.00306,0752302W,-75.38389,946.46,0,,,0.166850163
1427500,2,CALLICOON CREEK AT CALLICOON NY,2040101,110.0,D,E,3,NY,NY,105,414539N,41.76083,0750255W,-75.04861,759.84,0,,,0.89029236
1435000,2,NEVERSINK RIVER NEAR CLARYVILLE NY,2040104,66.6,D,E,0,NY,NY,105,415324N,41.89,0743525W,-74.59028,1522.37,0,,,1.448280977
1439500,2,"BUSH KILL AT SHOEMAKERS, PA.",2040104,117.0,D,E,0,PA,PA,89,410517N,41.08806,0750217W,-75.03806,421.13,0,,,0.580117805
1440000,2,FLAT BROOK NEAR FLATBROOKVILLE NJ,2040104,64.0,D,E,0,NJ,NJ,37,410624N,41.10667,0745709W,-74.9525,347.73,0,,,0.925852534
1440400,2,"BRODHEAD CREEK NEAR ANALOMINK, PA.",2040104,65.9,D,E,0,PA,PA,89,410505N,41.08472,0751254W,-75.215,586.5,0,,,1.015910773
1443500,2,PAULINS KILL AT BLAIRSTOWN NJ,2040105,126.0,D,E,0,NJ,NJ,41,405844N,40.97889,0745715W,-74.95417,335.86,0,,,0.517679495
1445000,2,PEQUEST RIVER AT HUNTSVILLE NJ,2040105,31.0,D,P,1,NJ,NJ,37,405852N,40.98111,0744636W,-74.77667,553.81,0,,,2.371684051
1445500,2,PEQUEST RIVER AT PEQUEST NJ,2040105,106.0,D,E,0,NJ,NJ,41,404950N,40.83056,0745843W,-74.97861,398.78,0,,,0.615815742
1447500,2,"LEHIGH RIVER AT STODDARTSVILLE, PA.",2040106,91.7,D,E,0,PA,PA,89,410749N,41.13028,0753733W,-75.62583,1463.81,0,,,0.956514017
1459500,2,"TOHICKON CREEK NEAR PIPERSVILLE, PA.",2040105,97.4,D,P,2,PA,PA,17,402601N,40.43361,0750701W,-75.11694,258.96,0,,,0.548016322
1464500,2,CROSSWICKS CREEK AT EXTONVILLE NJ,2040201,81.5,D,E,0,NJ,NJ,21,400815N,40.1375,0743602W,-74.60056,24.94,0,,,0.476300297
1467000,2,NORTH BRANCH RANCOCAS CREEK AT PEMBERTON NJ,2040202,118.0,D,P,1,NJ,NJ,5,395810N,39.96944,0744105W,-74.68472,31.19,0,,,0.324344396
1471000,2,"TULPEHOCKEN CREEK NEAR READING, PA.",2040203,211.0,D,P,2,PA,PA,11,402208N,40.36889,0755846W,-75.97944,216.6,0,,,0.278539255
1478500,2,WHITE CLAY C AB NEWARK DE,2040205,66.7,D,E,1,DE,DE,3,394250N,39.71389,0754535W,-75.75972,78.6,0,,,0.638661885
1487000,2,"NANTICOKE R NR BRIDGEVILLE, DE",2060008,75.4,D,P,1,DE,DE,5,384345N,38.72917,0753341W,-75.56139,13.64,0,,,0.521929626
1488500,2,MARSHYHOPE C NR ADAMSVILLE DE,2060008,43.9,D,P,1,DE,DE,1,385059N,38.84972,0754024W,-75.67333,28.21,0,,,0.891284457
1491000,2,"CHOPTANK R NR GREENSBORO, MD",2060005,113.0,D,P,3,MD,MD,11,385950N,38.99722,0754710W,-75.78611,3.51,0,,C,0.35419659
1495000,2,"BIG ELK C AT ELK MILLS, MD",2060002,52.6,M,E,6,MD,MD,15,393926N,39.65722,0754920W,-75.82222,68.69,0,,,0.82971181
1496200,2,"PRINCIPIO C NR PRINCIPIO FURNACE, MD",2060002,9.03,D,E,0,MD,MD,15,393734N,39.62611,0760227W,-76.04083,215.0,0,,,4.909557184
1498500,2,"CHARLOTTE CREEK AT W. DAVENPORT, N.Y.",2050101,167.0,D,E,0,NY,NY,25,422642N,42.445,0745750W,-74.96389,1170.69,0,,,0.673519525
1502000,2,BUTTERNUT CREEK AT MORRIS NY,2050101,59.7,D,E,0,NY,NY,77,423243N,42.54528,0751422W,-75.23944,1096.21,0,,,1.678804885
1503000,2,SUSQUEHANNA RIVER AT CONKLIN NY,2050101,2232.0,M,E,8,NY,NY,7,420207N,42.03528,0754812W,-75.80333,841.04,0,,C,0.046551576
1514000,2,OWEGO CREEK NEAR OWEGO NY,2050103,185.0,D,P,3,NY,NY,107,420745N,42.12917,0761615W,-76.27083,819.82,0,,,0.570941218
1518000,2,"TIOGA RIVER AT TIOGA, PA  [TIOGA]",2050104,282.0,D,P,3,PA,PA,117,415430N,41.90833,0770747W,-77.12972,1021.0,0,,,0.373117944
1520000,2,"COWANESQUE RIVER NR LAWRENCEVILLE, PA  [LWRNVL]",2050104,298.0,D,P,3,PA,PA,117,415948N,41.99667,0770825W,-77.14028,983.96,0,,,0.488406929
1520500,2,TIOGA RIVER AT LINDLEY NY,2050104,771.0,D,P,2,NY,NY,101,420143N,42.02861,0770757W,-77.1325,964.5,0,,,0.159531104
1528000,2,FIVEMILE CREEK NEAR KANONA NY,2050105,66.8,D,E,0,NY,NY,101,422318N,42.38833,0772129W,-77.35806,1170.3,0,,,2.053853713
1532000,2,"TOWANDA CREEK NEAR MONROETON, PA.         (MNROT",2050106,215.0,D,E,0,PA,PA,15,414225N,41.70694,0762906W,-76.485,765.53,0,,,0.500304573
1534000,2,"TUNKHANNOCK CREEK NEAR TUNKHANNOCK, PA.  [TUNKCR",2050106,383.0,D,E,0,PA,PA,131,413330N,41.55833,0755342W,-75.895,610.5,0,,,0.259797967
1538000,2,"WAPWALLOPEN CREEK NEAR WAPWALLOPEN, PA.",2050107,43.8,D,E,0,PA,PA,79,410333N,41.05917,0760538W,-76.09389,752.41,0,,,1.959031782
1539000,2,"FISHING CREEK NEAR BLOOMSBURG, PA.  [BLOOMS]",2050107,274.0,D,E,0,PA,PA,37,410441N,41.07806,0762553W,-76.43139,543.84,0,,,0.278252418
1541000,2,"WEST BRANCH SUSQUEHANNA RIVER AT BOWER, PA [BOWE",2050201,315.0,D,E,0,PA,PA,33,405349N,40.89694,0784038W,-78.67722,1207.14,0,,,0.270704944
1543500,2,"SINNEMAHONING CREEK AT SINNEMAHONING, PA  [SINNA",2050202,685.0,D,E,0,PA,PA,23,411902N,41.31722,0780612W,-78.10333,769.36,0,,,0.140153667
1545600,2,"YOUNG WOMANS CREEK NEAR RENOVO, PA.",2050203,46.2,D,E,0,PA,PA,35,412322N,41.38944,0774128W,-77.69111,780.0,0,B,,2.006680084
1547700,2,"MARSH CREEK AT BLANCHARD, PA.",2050204,44.1,D,E,0,PA,PA,27,410334N,41.05944,0773622W,-77.60611,586.16,0,,,1.930151783
1548500,2,"PINE CREEK AT CEDAR RUN, PA  [CEDRRN]",2050205,604.0,D,E,0,PA,PA,81,413118N,41.52167,0772652W,-77.44778,780.36,0,,,0.177606237
1549500,2,"BLOCKHOUSE CREEK NEAR ENGLISH CENTER, PA.",2050205,37.7,D,E,0,PA,PA,81,412825N,41.47361,0771352W,-77.23111,1041.85,0,,,2.185181842
1555000,2,"PENNS CREEK AT PENNS CREEK, PA.  [PENNSC]",2050301,301.0,D,E,0,PA,PA,119,405200N,40.86667,0770255W,-77.04861,506.72,0,,,0.280879151
1555500,2,"EAST MAHANTANGO CREEK NEAR DALMATIA, PA.",2050301,162.0,D,E,0,PA,PA,97,403640N,40.61111,0765444W,-76.91222,401.22,0,,,0.503041021
1556000,2,"FRANKSTOWN BR JUNIATA RIVER AT WILLIAMSBURG, PA.",2050302,291.0,M,E,3,PA,PA,13,402747N,40.46306,0781200W,-78.2,831.78,0,,,0.280721284
1558000,2,"LITTLE JUNIATA RIVER AT SPRUCE CREEK, PA.",2050302,220.0,D,E,0,PA,PA,61,403645N,40.6125,0780827W,-78.14083,751.15,0,,,0.307273373
1560000,2,"DUNNING CREEK AT BELDEN, PA.  [BELDEN]",2050303,172.0,D,E,0,PA,PA,9,400418N,40.07167,0782934W,-78.49278,1051.16,0,,,0.47954747
1562000,2,"RAYSTOWN BRANCH JUNIATA RIVER AT SAXTON, PA.  []",2050303,756.0,D,E,0,PA,PA,9,401257N,40.21583,0781556W,-78.26556,795.77,0,,,0.115852004
1564500,2,"AUGHWICK CREEK NEAR THREE SPRINGS, PA.",2050304,205.0,D,E,0,PA,PA,61,401245N,40.2125,0775532W,-77.92556,618.65,0,,,0.363205705
1567000,2,"JUNIATA RIVER AT NEWPORT, PA.  [NEWPRT]",2050304,3354.0,D,P,2,PA,PA,99,402842N,40.47833,0770746W,-77.12944,363.93,0,,,0.022415328
1568000,2,"SHERMAN CREEK AT SHERMANS DALE, PA.  [SHRMNS]",2050305,200.0,D,E,0,PA,PA,99,401924N,40.32333,0771009W,-77.16917,422.63,0,,,0.282427293
1580000,2,"DEER C AT ROCKS, MD",2050306,94.4,D,E,0,MD,MD,25,393749N,39.63028,0762413W,-76.40361,250.4,0,,,0.606352371
1582000,2,"LITTLE FALLS AT BLUE MOUNT, MD",2060003,52.9,D,E,0,MD,MD,5,393616N,39.60444,0763716W,-76.62111,305.0,0,,,1.301843658
1583500,2,"WESTERN RN AT WESTERN RUN, MD",2060003,59.8,D,E,0,MD,MD,5,393038N,39.51056,0764037W,-76.67694,262.78,0,,,1.092888313
1595000,2,"NB POTOMAC R AT STEYER, MD",2070002,73.0,D,E,0,MD,MD,23,391807N,39.30194,0791826W,-79.30722,2276.01,0,,,1.150661511
1599000,2,"GEORGES C AT FRANKLIN, MD",2070002,72.4,D,P,2,MD,MD,1,392938N,39.49389,0790242W,-79.045,958.96,0,,,1.731419605
1601500,2,"WILLS C NR CUMBERLAND, MD",2070002,247.0,D,E,0,MD,MD,1,394007N,39.66861,0784718W,-78.78833,640.89,0,,,0.385733719
1603500,2,"EVITTS C NR CENTERVILLE, PA",2070002,30.2,D,E,0,MD,PA,9,394723N,39.78972,0783848W,-78.64667,1027.59,0,,,3.074225022
1604500,2,"PATTERSON CREEK NEAR HEADSVILLE, WV",2070002,219.0,D,E,0,WV,WV,57,392635N,39.44306,0784920W,-78.82222,624.9,0,,,0.48110832
1608500,2,"SOUTH BRANCH POTOMAC RIVER NEAR SPRINGFIELD, WV",2070001,1471.0,D,E,0,WV,WV,27,392649N,39.44694,0783916W,-78.65444,562.02,0,,,0.088231262
1610000,2,"POTOMAC R AT PAW PAW, WV",2070003,3109.0,M,P,5,MD,MD,1,393213N,39.53694,0782728W,-78.45778,487.88,0,C,,0.03641721
1611500,2,"CACAPON RIVER NEAR GREAT CACAPON, WV",2070003,677.0,D,E,0,WV,WV,65,393443N,39.57861,0781834W,-78.30944,456.78,0,,,0.163747704
1613000,2,"POTOMAC R AT HANCOCK, MD",2070004,4073.0,D,E,4,MD,MD,43,394149N,39.69694,0781039W,-78.1775,383.68,0,,,0.026623911
1614000,2,"BACK CREEK NEAR JONES SPRINGS, WV",2070004,243.0,D,E,0,WV,WV,3,393043N,39.51194,0780215W,-78.0375,416.42,0,,,0.423595804
1614500,2,"CONOCOCHEAGUE C AT FAIRVIEW, MD",2070004,494.0,D,E,0,MD,MD,43,394257N,39.71583,0774928W,-77.82444,391.85,0,,,0.143043685
1617800,2,"MARSH RN AT GRIMES, MD",2070004,18.9,D,E,0,MD,MD,43,393053N,39.51472,0774638W,-77.77722,354.72,0,,,5.437856815
1631000,2,"S F SHENANDOAH RIVER AT FRONT ROYAL, VA",2070005,1642.0,D,E,7,VA,VA,187,385450N,38.91389,0781240W,-78.21111,469.38,0,,,0.058490281
1632000,2,"N F SHENANDOAH RIVER AT COOTES STORE, VA",2070006,210.0,D,E,0,VA,VA,165,383813N,38.63694,0785111W,-78.85306,1051.8,0,,,0.476954607
1634000,2,"N F SHENANDOAH RIVER NEAR STRASBURG, VA",2070006,768.0,D,E,7,VA,VA,187,385836N,38.97667,0782011W,-78.33639,494.03,0,,,0.135690704
1634500,2,"CEDAR CREEK NEAR WINCHESTER, VA",2070006,103.0,D,E,2,VA,VA,69,390452N,39.08111,0781947W,-78.32972,647.09,0,,,0.892683126
1637500,2,"CATOCTIN C NR MIDDLETOWN, MD",2070008,66.9,D,E,0,MD,MD,21,392535N,39.42639,0773325W,-77.55694,385.0,0,,,1.052430279
1639000,2,"MONOCACY R AT BRIDGEPORT, MD",2070009,173.0,D,E,0,MD,MD,21,394043N,39.67861,0771406W,-77.235,340.83,0,,,0.370888877
1639500,2,"BIG PIPE C AT BRUCEVILLE, MD",2070009,102.0,D,E,5,MD,MD,13,393645N,39.6125,0771410W,-77.23611,340.0,0,,,0.684455892
1643500,2,"BENNETT C AT PARK MILLS, MD",2070009,62.8,D,E,0,MD,MD,21,391740N,39.29444,0772430W,-77.40833,240.0,0,,,0.892477558
1644000,2,"GOOSE CREEK NEAR LEESBURG, VA",2070008,332.0,D,E,2,VA,VA,107,390110N,39.01944,0773440W,-77.57778,248.93,0,,,0.209493236
1645000,2,"SENECA C AT DAWSONVILLE, MD",2070008,101.0,D,P,2,MD,MD,31,390741N,39.12806,0772013W,-77.33694,214.02,0,,C,0.638159007
1646502,2,"POTOMAC R (ADJUSTED) NR WASH, DC",2070008,11560.0,D,E,4,MD,MD,31,385658N,38.94944,0770740W,-77.12778,37.95,0,,C,0.007821053
1661050,2,"ST CLEMENT C NR CLEMENTS, MD",2070011,18.5,D,E,0,MD,MD,37,382000N,38.33333,0764331W,-76.72528,8.0,0,,,2.52501569
1661500,2,"ST MARYS R AT GREAT MILLS, MD",2070011,24.0,D,E,0,MD,MD,37,381436N,38.24333,0763013W,-76.50361,10.0,0,,,1.820049103
1663500,2,"HAZEL RIVER AT RIXEYVILLE, VA",2080103,287.0,D,E,2,VA,VA,47,383530N,38.59167,0775755W,-77.96528,288.3,0,,,0.228731553
1664000,2,"RAPPAHANNOCK RIVER AT REMINGTON, VA",2080103,620.0,D,E,0,VA,VA,61,383150N,38.53056,0774850W,-77.81389,252.53,0,,,0.108059789
1666500,2,"ROBINSON RIVER NEAR LOCUST DALE, VA",2080103,179.0,D,E,2,VA,VA,113,381930N,38.325,0780545W,-78.09583,283.7,0,,,0.381369993
1667500,2,"RAPIDAN RIVER NEAR CULPEPER, VA",2080103,472.0,D,E,0,VA,VA,47,382101N,38.35028,0775831W,-77.97528,241.36,0,,C,0.142330692
1668000,2,"RAPPAHANNOCK RIVER NEAR FREDERICKSBURG, VA",2080104,1596.0,D,E,0,VA,VA,177,381920N,38.32222,0773105W,-77.51806,55.18,0,,,0.042076612
1669500,2,"DRAGON SWAMP NEAR CHURCH VIEW, VA",2080102,84.9,D,E,2,VA,VA,119,374105N,37.68472,0764337W,-76.72694,34.0,0,,,0.522664375
1674000,2,"MATTAPONI RIVER NEAR BOWLING GREEN, VA",2080105,257.0,D,E,2,VA,VA,33,380342N,38.06167,0772310W,-77.38611,85.14,0,,,0.231300504
2013000,2,"DUNLAP CREEK NEAR COVINGTON, VA",2080201,164.0,M,E,3,VA,VA,5,374810N,37.80278,0800250W,-80.04722,1294.7,0,,,0.524450559
2014000,2,"POTTS CREEK NEAR COVINGTON, VA",2080201,153.0,D,E,2,VA,VA,5,374344N,37.72889,0800233W,-80.0425,1273.93,0,,,0.470326631
2015700,2,"BULLPASTURE RIVER AT WILLIAMSVILLE, VA",2080201,110.0,D,E,2,VA,VA,17,381143N,38.19528,0793414W,-79.57056,1610.14,0,,,0.917257462
2016000,2,"COWPASTURE RIVER NEAR CLIFTON FORGE, VA",2080201,461.0,M,E,5,VA,VA,5,374730N,37.79167,0794535W,-79.75972,1006.93,0,,,0.209019963
2017500,2,"JOHNS CREEK AT NEW CASTLE, VA",2080201,104.0,D,E,2,VA,VA,45,373022N,37.50611,0800625W,-80.10694,1254.3,0,,,0.519553676
2018000,2,"CRAIG CREEK AT PARR, VA",2080201,329.0,D,E,2,VA,VA,23,373957N,37.66583,0795442W,-79.91167,992.5,0,,,0.197862215
2020500,2,"CALFPASTURE RIVER ABOVE MILL CREEK AT GOSHEN, VA",2080202,144.0,D,E,2,VA,VA,163,375916N,37.98778,0792938W,-79.49389,1384.84,0,,,0.705704993
2027800,2,"BUFFALO RIVER NEAR TYE RIVER, VA",2080203,147.0,D,E,2,VA,VA,125,373620N,37.60556,0785525W,-78.92361,444.39,0,,,0.37895961
2030000,2,"HARDWARE RIVER BL BRIERY RUN NR SCOTTSVILLE, VA",2080203,116.0,D,E,2,VA,VA,65,374845N,37.8125,0782720W,-78.45556,294.96,0,,,0.548481076
2030500,2,"SLATE RIVER NEAR ARVONIA, VA",2080203,226.0,D,E,0,VA,VA,29,374210N,37.70278,0782240W,-78.37778,238.78,0,,C,0.256647258
2035000,2,"JAMES RIVER AT CARTERSVILLE, VA",2080205,6257.0,M,P,6,VA,VA,75,374015N,37.67083,0780510W,-78.08611,163.9,0,,,0.011536381
2039500,2,"APPOMATTOX RIVER AT FARMVILLE, VA",2080207,303.0,M,E,5,VA,VA,49,371825N,37.30694,0782320W,-78.38889,281.93,0,,,0.217691948
2041000,2,"DEEP CREEK NEAR MANNBORO, VA",2080207,158.0,D,E,2,VA,VA,7,371659N,37.28306,0775212W,-77.87,177.2,0,,,0.375072016
4274000,2,W BR AUSABLE R NR LAKE PLACID NY,2010004,116.0,M,P,4,NY,NY,31,441840N,44.31111,0735500W,-73.91667,1620.76,0,,,1.216436711
4275000,2,E BR AUSABLE RIVER AT AU SABLE FORKS NY,2010004,198.0,M,E,4,NY,NY,31,442620N,44.43889,0734055W,-73.68194,545.37,0,,,0.753384438
4276500,2,BOUQUET RIVER AT WILLSBORO NY,2010004,275.0,M,P,5,NY,NY,31,442130N,44.35833,0732350W,-73.39722,150.88,0,,,0.665085323
4287000,2,"DOG RIVER AT NORTHFIELD FALLS, VT",2010003,76.1,D,E,0,VT,VT,23,441058N,44.18278,0723827W,-72.64083,603.0,0,,C,1.832178883
4293500,2,"MISSISQUOI RIVER NEAR EAST BERKSHIRE, VT",2010007,479.0,D,P,2,VT,VT,11,445730N,44.95833,0724155W,-72.69861,410.0,0,,,0.299799582
2044500,3,"NOTTOWAY RIVER NEAR RAWLINGS, VA",3010201,309.0,D,E,2,VA,VA,25,365900N,36.98333,0774800W,-77.8,184.88,0,,,0.18958326
2045500,3,"NOTTOWAY RIVER NEAR STONY CREEK, VA",3010201,579.0,D,E,2,VA,VA,183,365400N,36.9,0772400W,-77.4,58.42,0,,C,0.095891362
2046000,3,"STONY CREEK NEAR DINWIDDIE, VA",3010201,112.0,D,E,2,VA,VA,53,370401N,37.06694,0773610W,-77.60278,129.94,0,,,0.471159779
2047000,3,"NOTTOWAY RIVER NEAR SEBRELL, VA",3010201,1421.0,D,E,0,VA,VA,175,364613N,36.77028,0770959W,-77.16639,5.94,0,,,0.037252541
2047500,3,"BLACKWATER RIVER NEAR DENDRON, VA",3010202,294.0,D,E,2,VA,VA,181,370130N,37.025,0765230W,-76.875,30.99,0,,,0.128191664
2051500,3,"MEHERRIN RIVER NEAR LAWRENCEVILLE, VA",3010204,552.0,D,E,0,VA,VA,25,364300N,36.71667,0774955W,-77.83194,136.56,0,,,0.103309985
2053200,3,"POTECASI CREEK NEAR UNION, N. C.",3010204,225.0,D,E,2,NC,NC,91,362214N,36.37056,0770136W,-77.02667,3.53,0,,,0.140089751
2053800,3,"S F ROANOKE RIVER NEAR SHAWSVILLE, VA",3010101,110.0,D,E,2,VA,VA,121,370824N,37.14,0801600W,-80.26667,1361.87,0,,,0.584710814
2054500,3,"ROANOKE RIVER AT LAFAYETTE, VA",3010101,257.0,M,E,5,VA,VA,121,371411N,37.23639,0801234W,-80.20944,1174.47,0,,,0.238768603
2055000,3,"ROANOKE RIVER AT ROANOKE, VA",3010101,395.0,M,E,4,VA,VA,770,371530N,37.25833,0795620W,-79.93889,906.84,0,,,0.157887081
2058400,3,"PIGG RIVER NEAR SANDY LEVEL, VA",3010101,350.0,D,E,0,VA,VA,143,365645N,36.94583,0793130W,-79.525,617.0,0,,,0.132203353
2059500,3,"GOOSE CREEK NEAR HUDDLESTON, VA",3010101,188.0,D,E,2,VA,VA,19,371023N,37.17306,0793114W,-79.52056,592.91,0,,,0.313795642
2061500,3,"BIG OTTER RIVER NEAR EVINGTON, VA",3010101,320.0,D,E,2,VA,VA,31,371230N,37.20833,0791814W,-79.30389,544.02,0,,,0.176365212
2064000,3,"FALLING RIVER NEAR NARUNA, VA",3010102,173.0,M,E,5,VA,VA,31,370736N,37.12667,0785736W,-78.96,412.32,0,,,0.412255927
2070000,3,"NORTH MAYO RIVER NEAR SPENCER, VA",3010103,108.0,D,E,2,VA,VA,89,363405N,36.56806,0795915W,-79.9875,730.94,0,,,0.383502556
2070500,3,"MAYO RIVER NEAR PRICE, N. C.",3010103,260.0,M,E,3,NC,NC,157,363202N,36.53389,0795930W,-79.99167,689.95,0,,,0.173729735
2074500,3,"SANDY RIVER NEAR DANVILLE, VA",3010103,112.0,D,E,2,VA,VA,143,363710N,36.61944,0793016W,-79.50444,460.38,0,,,0.453245133
2083000,3,"FISHING CREEK NEAR ENFIELD, N. C.",3020102,526.0,M,E,6,NC,NC,65,360903N,36.15083,0774135W,-77.69306,76.26,0,,,0.059478159
2083500,3,"TAR RIVER AT TARBORO, N. C.",3020103,2183.0,M,E,5,NC,NC,65,355338N,35.89389,0773200W,-77.53333,10.37,0,,,0.012930555
2085500,3,"FLAT RIVER AT BAHAMA, N. C.",3020201,149.0,M,E,4,NC,NC,63,361057N,36.1825,0785244W,-78.87889,346.85,0,,,0.259380249
2091500,3,"CONTENTNEA CREEK AT HOOKERTON, N. C.",3020203,729.0,D,P,3,NC,NC,79,352540N,35.42778,0773454W,-77.58167,14.85,0,,C,0.026459971
2092500,3,"TRENT RIVER NEAR TRENTON, N.C.",3020204,168.0,D,E,0,NC,NC,103,350354N,35.065,0772724W,-77.45667,19.15,0,,,0.073091199
2093500,3,"HAW RIVER NEAR BENAJA, N. C.",3030002,168.0,D,E,0,NC,NC,157,361506N,36.25167,0793355W,-79.56528,629.0,0,,,0.262667131
2101000,3,"BEAR CREEK AT ROBBINS, N. C.",3030003,134.0,M,E,3,NC,NC,125,352603N,35.43417,0793539W,-79.59417,322.58,0,,,0.160596735
2102000,3,"DEEP RIVER AT MONCURE, N.C.",3030003,1434.0,M,E,4,NC,NC,105,353738N,35.62722,0790658W,-79.11611,185.06,0,,C,0.018717801
2103500,3,"LITTLE RIVER AT LINDEN, N. C.",3030004,460.0,M,E,4,NC,NC,85,351546N,35.26278,0784635W,-78.77639,73.1,0,,,0.032677276
2105500,3,CAPE FEAR R AT WILM O HUSKE LOCK NR TARHEEL N C,3030005,4852.0,D,P,3,NC,NC,17,345005N,34.83472,0784927W,-78.82417,28.97,0,,C,0.005240439
2107000,3,"SOUTH RIVER NEAR PARKERSBURG, N. C.",3030006,379.0,D,E,0,NC,NC,17,344845N,34.8125,0782726W,-78.45722,50.38,0,,,0.033884499
2110500,3,"WACCAMAW RIVER NEAR LONGS, SC",3040206,1110.0,D,E,0,SC,SC,51,335445N,33.9125,0784255W,-78.71528,5.28,0,,,0.009187785
2111000,3,"YADKIN RIVER AT PATTERSON, N. C.",3040101,28.8,D,E,0,NC,NC,27,355929N,35.99139,0813330W,-81.55833,1211.47,0,,,0.730043659
2111500,3,"REDDIES RIVER AT NORTH WILKESBORO, N. C.",3040101,89.2,M,E,3,NC,NC,193,361029N,36.17472,0811009W,-81.16917,978.62,0,,,0.510899079
2112120,3,"ROARING RIVER NEAR ROARING RIVER, N. C.",3040101,128.0,D,E,0,NC,NC,193,361459N,36.24972,0810239W,-81.04417,964.85,0,,,0.348265221
2115500,3,"FORBUSH CREEK NEAR YADKINVILLE, N. C.",3040101,21.7,M,E,3,NC,NC,197,360813N,36.13694,0803309W,-80.5525,728.0,0,,,1.549166313
2116500,3,YADKIN RIVER AT YADKIN COLLEGE N C,3040101,2280.0,D,P,2,NC,NC,57,355124N,35.85667,0802310W,-80.38611,638.65,0,,,0.018527741
2117500,3,"ROCKY CREEK AT TURNERSBURG, N.C.",3040102,102.0,M,E,3,NC,NC,97,355423N,35.90639,0804834W,-80.80944,724.1,0,,,0.41738661
2126000,3,"ROCKY RIVER NEAR NORWOOD, N. C.",3040105,1372.0,D,E,0,NC,NC,167,350854N,35.14833,0801033W,-80.17583,212.91,0,,,0.01752144
2127000,3,"BROWN CREEK NEAR POLKTON, N. C.",3040104,110.0,D,E,0,NC,NC,7,350210N,35.03611,0800842W,-80.145,216.0,0,,,0.221087505
2130900,3,"BLACK CREEK NR. MCBEE, SC",3040201,108.0,D,E,0,SC,SC,25,343050N,34.51389,0801100W,-80.18333,224.72,0,,,0.094965691
2132000,3,"LYNCHES RIVER AT EFFINGHAM, S. C.",3040202,1030.0,D,E,0,SC,SC,41,340305N,34.05139,0794515W,-79.75417,58.49,0,,C,0.012410074
2134500,3,"LUMBER RIVER AT BOARDMAN, N. C.",3040203,1228.0,D,E,0,NC,NC,155,342632N,34.44222,0785738W,-78.96056,72.05,0,,,0.013548843
2135000,3,"LITTLE PEE DEE R. AT GALIVANTS FERRY, S.C.",3040204,2790.0,M,E,4,SC,SC,51,340325N,34.05694,0791450W,-79.24722,23.95,0,,,0.005023037
2135300,3,"SCAPE ORE SWAMP NEAR BISHOPVILLE, S. C.",3040205,96.0,D,E,0,SC,SC,61,340902N,34.15056,0801818W,-80.305,164.53,0,B,,0.12538245
2136000,3,"BLACK RIVER AT KINGSTREE, S.C.",3040205,1252.0,D,E,0,SC,SC,89,333940N,33.66111,0795010W,-79.83611,25.66,0,,,0.011270752
2138500,3,LINVILLE RIVER NEAR NEBO N C,3050101,66.7,D,E,0,NC,NC,23,354741N,35.79472,0815325W,-81.89028,1203.87,0,,,0.849492896
2143500,3,INDIAN CREEK NEAR LABORATORY N C,3050102,69.2,D,E,0,NC,NC,109,352520N,35.42222,0811552W,-81.26444,736.0,0,,,0.296947784
2146900,3,"TWELVE MILE CREEK NEAR WAXHAW, N. C.",3050103,76.5,D,E,0,NC,NC,179,345708N,34.95222,0804521W,-80.75583,489.04,0,,,0.25454608
2147500,3,"ROCKY CREEK AT GREAT FALLS, S. C.",3050103,194.0,D,E,1,SC,SC,23,343345N,34.5625,0805500W,-80.91667,299.0,0,,,0.104315924
2149000,3,"COVE CREEK NEAR LAKE LURE, N.C.",3050105,79.0,D,E,0,NC,NC,161,352524N,35.42333,0820642W,-82.11167,815.4,0,,,0.299051949
2152100,3,"FIRST BROAD RIVER NEAR CASAR, N. C.",3050105,60.5,D,E,0,NC,NC,45,352935N,35.49306,0814056W,-81.68222,890.0,0,,,0.470955542
2154500,3,"NORTH PACOLET RIVER AT FINGERVILLE, S. C.",3050105,116.0,M,E,4,SC,SC,83,350715N,35.12083,0815910W,-81.98611,715.56,0,,,0.162651938
2156500,3,"BROAD RIVER NEAR CARLISLE, S. C.",3050106,2790.0,M,E,4,SC,SC,87,343546N,34.59611,0812520W,-81.42222,290.79,0,,,0.006593516
2157000,3,"NORTH TYGER RIVER NEAR FAIRMONT, S. C.",3050107,44.4,D,E,0,SC,SC,83,345545N,34.92917,0820240W,-82.04444,680.0,0,,,0.265427215
2164000,3,"REEDY RIVER NEAR GREENVILLE, S. C.",3050109,48.6,D,E,1,SC,SC,45,344800N,34.8,0822155W,-82.36528,800.0,0,,,0.163184787
2165000,3,"REEDY RIVER NEAR WARE SHOALS,S.C.",3050109,236.0,M,P,4,SC,SC,59,342640N,34.44444,0821035W,-82.17639,453.86,0,,,0.048404428
2173000,3,"SOUTH FORK EDISTO RIVER NEAR DENMARK, S.C.",3050204,720.0,D,E,0,SC,SC,75,332335N,33.39306,0810800W,-81.13333,155.68,0,,,0.010711429
2173500,3,"NORTH FORK EDISTO RIVER AT ORANGEBURG,S.C.",3050203,683.0,D,E,1,SC,SC,75,332900N,33.48333,0805225W,-80.87361,149.02,0,,C,0.009189286
2174000,3,"EDISTO RIVER NEAR BRANCHVILLE, S. C.",3050205,1720.0,D,E,0,SC,SC,75,331035N,33.17639,0804805W,-80.80139,80.02,0,,,0.003638047
2175500,3,"SALKEHATCHIE RIVER NEAR MILEY, S.C.",3050207,341.0,D,E,0,SC,SC,49,325920N,32.98889,0810310W,-81.05278,64.35,0,,,0.014547251
2176500,3,COOSAWHATCHIE RIVER NR HAMPTON S.C.,3050208,203.0,D,E,4,SC,SC,49,325010N,32.83611,0810755W,-81.13194,50.3,0,,,0.027380299
2177000,3,"CHATTOOGA RIVER NEAR CLAYTON, GA.",3060102,207.0,D,E,0,GA,SC,73,344850N,34.81389,0831822W,-83.30611,1165.6,0,,,0.125680607
2178400,3,"TALLULAH RIVER NEAR CLAYTON, GA.",3060102,56.5,D,E,0,GA,GA,241,345325N,34.89028,0833150W,-83.53056,1868.93,0,B,,0.429265704
2185200,3,"LITTLE RIVER NEAR WALHALLA, S. C.",3060101,72.0,D,E,0,SC,SC,73,345011N,34.83639,0825848W,-82.98,807.63,0,,,0.190892589
2188500,3,"BEAVERDAM CREEK AT DEWY ROSE, GA",3060103,38.4,D,E,0,GA,GA,105,341052N,34.18111,0825638W,-82.94389,581.07,0,,,0.38259576
2191200,3,"HUDSON RIVER AT HOMER, GA.",3060104,60.9,D,E,0,GA,GA,11,342015N,34.3375,0832917W,-83.48806,694.61,0,,,0.072578679
2192000,3,"BROAD RIVER NEAR BELL, GA.",3060104,1430.0,D,P,2,GA,GA,105,335827N,33.97417,0824612W,-82.77,357.16,0,,,0.007449176
2193500,3,"LITTLE RIVER NEAR WASHINGTON, GA.",3060105,291.0,D,E,0,GA,GA,317,333646N,33.61278,0824433W,-82.7425,353.88,0,,,0.049281483
2196000,3,"STEVENS CREEK NEAR MODOC, SC",3060107,545.0,D,E,1,SC,SC,37,334345N,33.72917,0821055W,-82.18194,197.34,0,,,0.029010838
2197300,3,"UPPER THREE RUNS NEAR NEW ELLENTON, S. C.",3060106,87.0,D,E,0,SC,SC,3,332222N,33.37278,0813743W,-81.62861,165.0,0,B,,0.092406121
2197600,3,"BRUSHY CREEK NEAR WRENS, GA.",3060108,28.0,D,E,0,GA,GA,163,331037N,33.17694,0821821W,-82.30583,282.56,0,,,0.261675824
2197830,3,"BRIER CREEK NEAR WAYNESBORO, GA.",3060108,473.0,D,E,0,GA,GA,33,330705N,33.11806,0815750W,-81.96389,173.78,0,,,0.025379056
2198000,3,"BRIER CREEK AT MILLHAVEN, GA.",3060108,646.0,D,E,0,GA,GA,251,325600N,32.93333,0813905W,-81.65139,95.88,0,,,0.0176728
2202000,3,"OGEECHEE RIVER AT SCARBORO, GA.",3060202,1940.0,D,E,0,GA,GA,165,324238N,32.71056,0815246W,-81.87944,111.81,0,,,0.004561716
2202500,3,"OGEECHEE RIVER NEAR EDEN, GA.",3060202,2650.0,D,E,0,GA,GA,103,321129N,32.19139,0812458W,-81.41611,19.64,0,,,0.00299233
2203000,3,"CANOOCHEE RIVER NEAR CLAXTON, GA.",3060203,555.0,D,E,0,GA,GA,109,321105N,32.18472,0815320W,-81.88889,80.5,0,,,0.005529947
2206500,3,"YELLOW RIVER NEAR SNELLVILLE, GA.",3070103,134.0,D,P,2,GA,GA,135,335111N,33.85306,0840445W,-84.07917,806.14,0,,,0.128775893
2212600,3,"FALLING CREEK NEAR JULIETTE, GA.",3070103,72.2,D,E,0,GA,GA,169,330559N,33.09972,0834325W,-83.72361,366.52,0,B,,0.053182316
2213500,3,"TOBESOFKEE CREEK NEAR MACON, GA.",3070103,182.0,D,P,2,GA,GA,21,324832N,32.80889,0834530W,-83.75833,309.98,0,,,0.034964627
2217500,3,"MIDDLE OCONEE RIVER NEAR ATHENS, GA.",3070101,398.0,M,P,6,GA,GA,59,335648N,33.94667,0832522W,-83.42278,555.66,0,,,0.010372175
2218500,3,"OCONEE RIVER NEAR GREENSBORO, GA.",3070101,1090.0,M,P,5,GA,GA,133,333452N,33.58111,0831622W,-83.27278,409.82,0,,,0.004631347
2219500,3,"APALACHEE RIVER NEAR BUCKHEAD, GA.",3070101,436.0,D,P,2,GA,GA,211,333631N,33.60861,0832058W,-83.34944,424.07,0,,,0.007314463
2221000,3,"MURDER CREEK NEAR MONTICELLO, GA.",3070101,24.0,D,E,0,GA,GA,159,332456N,33.41556,0833943W,-83.66194,498.21,0,,,0.162916913
2224000,3,"ROCKY CREEK NEAR DUDLEY, GA.",3070102,62.9,D,E,0,GA,GA,175,322938N,32.49389,0830849W,-83.14694,262.0,0,,,0.118409506
2225500,3,"OHOOPEE RIVER NEAR REIDSVILLE, GA.",3070107,1110.0,D,P,2,GA,GA,267,320442N,32.07833,0821039W,-82.1775,73.8,0,,,0.003272281
2226000,3,"ALTAMAHA RIVER AT DOCTORTOWN, GA.",3070106,13600.0,D,E,0,GA,GA,305,313916N,31.65444,0814941W,-81.82806,24.48,0,,C,0.000506433
2226500,3,"SATILLA RIVER NEAR WAYCROSS, GA.",3070201,1200.0,D,E,0,GA,GA,299,311417N,31.23806,0821929W,-82.32472,66.43,0,,,0.00230077
2227500,3,"LITTLE SATILLA RIVER NEAR OFFERMAN, GA.",3070202,646.0,D,E,0,GA,GA,229,312704N,31.45111,0820317W,-82.05472,58.01,0,,,0.002405611
2228000,3,"SATILLA RIVER AT ATKINSON, GA.",3070201,2790.0,D,P,2,GA,GA,25,311316N,31.22111,0815203W,-81.8675,14.79,0,,,0.000671609
2231000,3,"ST. MARYS RIVER NR MACCLENNY, FLA.",3070204,700.0,D,E,0,FL,FL,3,302131N,30.35861,0820454W,-82.08167,40.0,0,,,0.001003806
2232500,3,"ST. JOHNS RIVER NR CHRISTMAS, FLA.",3080101,1539.0,D,E,0,FL,FL,95,283234N,28.54278,0805637W,-80.94361,1.62,0,,C,0.0
2236000,3,"ST. JOHNS RIVER NR DELAND, FLA.",3080101,3066.0,D,E,0,FL,FL,69,290029N,29.00806,0812258W,-81.38278,0.0,0,,,0.0
2240000,3,"OKLAWAHA RIVER NR CONNER, FLA.",3080102,1196.0,D,E,0,FL,FL,83,291250N,29.21389,0815910W,-81.98611,31.79,0,,,0.0
2246000,3,"NORTH FORK BLACK CREEK NR MIDDLEBURG, FLA.",3080103,177.0,D,E,0,FL,FL,19,300647N,30.11306,0815424W,-81.90667,0.62,0,,,0.0017275
2248000,3,"SPRUCE CREEK NR SAMSULA, FLA.",3080201,33.4,D,E,0,FL,FL,127,290301N,29.05028,0810249W,-81.04694,6.25,0,,,0.0
2256500,3,"FISHEATING CREEK AT PALMDALE, FLA.",3090103,311.0,D,E,0,FL,FL,43,265556N,26.93222,0811854W,-81.315,27.19,0,,C,0.0
2273000,3,"KISSIMMEE R AT S-65E NR OKEECHOBEE, FLA.",3090101,2886.0,D,P,2,FL,FL,93,271332N,27.22556,0805746W,-80.96278,0.0,0,,,0.0
2296750,3,"PEACE RIVER AT ARCADIA, FLA.",3100101,1367.0,D,E,0,FL,FL,27,271319N,27.22194,0815234W,-81.87611,6.0,0,,C,0.0
2298830,3,"MYAKKA RIVER NR SARASOTA, FLA.",3100102,229.0,D,E,0,FL,FL,115,271425N,27.24028,0821850W,-82.31389,7.92,0,,,0.0
2301500,3,"ALAFIA RIVER AT LITHIA, FLA.",3100204,335.0,D,E,0,FL,FL,57,275219N,27.87194,0821241W,-82.21139,7.0,0,,,0.0
2303000,3,"HILLSBOROUGH RIVER NR ZEPHYRHILLS, FLA.",3100205,220.0,D,E,0,FL,FL,57,280859N,28.14972,0821357W,-82.2325,33.28,0,,,0.0
2313000,3,"WITHLACOOCHEE RIVER NR HOLDER, FLA.",3100208,1825.0,D,E,0,FL,FL,83,285919N,28.98861,0822059W,-82.34972,27.52,0,,,0.0
2314500,3,"SUWANNEE RIVER AT FARGO, GA.",3110201,1260.0,D,E,0,GA,GA,65,304050N,30.68056,0823338W,-82.56056,91.9,0,,,0.001361813
2316000,3,"ALAPAHA RIVER NEAR ALAPAHA, GA.",3110202,663.0,D,E,0,GA,GA,19,312303N,31.38417,0831133W,-83.1925,208.34,0,,,0.009879531
2317500,3,"ALAPAHA RIVER AT STATENVILLE, GA.",3110202,1400.0,D,P,2,GA,GA,101,304214N,30.70389,0830200W,-83.03333,76.77,0,,C,0.003262728
2320500,3,"SUWANNEE RIVER AT BRANFORD, FLA.",3110205,7880.0,D,E,0,FL,FL,121,295720N,29.95556,0825540W,-82.92778,4.81,0,,C,0.000246804
2321500,3,"SANTA FE RIVER AT WORTHINGTON SPRINGS, FLA.",3110206,575.0,D,E,0,FL,FL,1,295518N,29.92167,0822535W,-82.42639,42.74,0,,,0.000640649
2322500,3,"SANTA FE RIVER NEAR FORT WHITE, FLA.",3110206,1017.0,D,E,0,FL,FL,41,295055N,29.84861,0824255W,-82.71528,20.86,0,,,0.000159612
2324000,3,"STEINHATCHEE RIVER NEAR CROSS CITY, FLA.",3110102,350.0,D,E,0,FL,FL,123,294711N,29.78639,0831918W,-83.32167,7.84,0,,,0.000451155
2326000,3,"ECONFINA RIVER NEAR PERRY, FLA.",3110102,198.0,D,E,0,FL,FL,123,301014N,30.17056,0834926W,-83.82389,14.35,0,,,0.00140542
2327100,3,"SOPCHOPPY R NR SOPCHOPPY, FL",3120003,102.0,D,E,0,FL,FL,129,300745N,30.12917,0842940W,-84.49444,10.0,0,B,,0.007824576
2327500,3,"OCHLOCKONEE RIVER NEAR THOMASVILLE, GA.",3120002,550.0,D,E,0,GA,GA,125,305232N,30.87556,0840244W,-84.04556,133.6,0,,,0.004138194
2328000,3,"TIRED CREEK NEAR CAIRO, GA.",3120002,60.0,D,E,0,GA,GA,131,305154N,30.865,0841546W,-84.26278,159.01,0,,,0.012878437
2329000,3,"OCHLOCKONEE RIVER NR HAVANA, FLA.",3120003,1140.0,D,E,0,FL,FL,73,303314N,30.55389,0842303W,-84.38417,59.36,0,,,0.00151027
2331000,3,"CHATTAHOOCHEE RIVER NEAR LEAF, GA.",3130001,150.0,D,E,0,GA,GA,137,343437N,34.57694,0833809W,-83.63583,1219.47,0,,,0.089309386
2331600,3,"CHATTAHOOCHEE RIVER NEAR CORNELIA, GA.",3130001,315.0,M,E,3,GA,GA,137,343227N,34.54083,0833714W,-83.62056,1128.53,0,,,0.040834159
2333500,3,"CHESTATEE RIVER AT ST RT 52 NEAR DAHLONEGA, GA.",3130001,153.0,D,E,0,GA,GA,187,343141N,34.52806,0835623W,-83.93972,1128.6,0,,,0.078627806
2335700,3,"BIG CREEK NEAR ALPHARETTA, GA.",3130001,72.0,D,E,0,GA,GA,121,340302N,34.05056,0841610W,-84.26944,960.8,0,,,0.231448178
2337000,3,"SWEETWATER CREEK NEAR AUSTELL, GA.",3130002,246.0,D,P,2,GA,GA,97,334622N,33.77278,0843653W,-84.61472,857.01,0,,,0.069872826
2337500,3,"SNAKE CREEK NEAR WHITESBURG, GA.",3130002,35.5,D,E,0,GA,GA,45,333146N,33.52944,0845542W,-84.92833,832.75,0,,,0.215129146
2340500,3,"MOUNTAIN OAK CREEK NEAR HAMILTON, GA.",3130002,61.7,D,E,0,GA,GA,145,324428N,32.74111,0850408W,-85.06889,550.0,0,,,0.123890958
2341800,3,"UPATOI CREEK NEAR COLUMBUS, GA.",3130003,342.0,D,E,0,GA,GA,53,322448N,32.41333,0844912W,-84.82,230.0,0,,,0.0117982
2342500,3,UCHEE CREEK NEAR FORT MITCHELL AL,3130003,322.0,D,E,0,AL,AL,113,321900N,32.31667,0850054W,-85.015,201.76,0,,,0.022418267
2347500,3,"FLINT RIVER NEAR CULLODEN, GA.",3130005,1850.0,D,P,2,GA,GA,293,324317N,32.72139,0841357W,-84.2325,334.54,0,,C,0.003995011
2349000,3,"WHITEWATER CR BELOW RAMBULETTE CR NR BUTLER, GA.",3130005,93.4,D,E,0,GA,GA,269,322800N,32.46667,0841558W,-84.26611,365.85,0,,,0.03250457
2349500,3,"FLINT RIVER AT MONTEZUMA, GA.",3130006,2900.0,D,P,2,GA,GA,193,321753N,32.29806,0840238W,-84.04389,255.83,0,,,0.002190351
2349900,3,"TURKEY CREEK AT BYROMVILLE,GA.",3130006,45.0,D,E,0,GA,GA,93,321144N,32.19556,0835403W,-83.90083,286.0,0,,,0.089547634
2350600,3,"KINCHAFOONEE CREEK AT PRESTON, GA.",3130007,197.0,D,E,0,GA,GA,307,320309N,32.0525,0843254W,-84.54833,337.7,0,,,0.028056116
2353500,3,"ICHAWAYNOCHAWAY CREEK AT MILFORD, GA.",3130009,620.0,D,P,4,GA,GA,7,312258N,31.38278,0843252W,-84.54778,150.3,0,,,0.006234209
2357000,3,"SPRING CREEK NEAR IRON CITY, GA.",3130010,485.0,D,P,2,GA,GA,87,310223N,31.03972,0844418W,-84.73833,85.7,0,,,0.003166011
2358000,3,APALACHICOLA RIVER AT CHATTAHOOCHEE FLA,3130011,17200.0,D,E,0,FL,FL,63,304203N,30.70083,0845133W,-84.85917,40.58,0,,C,0.0003281
2359000,3,"CHIPOLA RIVER NR ALTHA, FLA.",3130012,781.0,D,E,0,FL,FL,13,303202N,30.53389,0850955W,-85.16528,19.95,0,,,0.001857815
2361000,3,CHOCTAWHATCHEE RIVER NEAR NEWTON AL,3140201,686.0,D,E,0,AL,AL,45,312030N,31.34167,0853643W,-85.61194,138.56,0,,,0.007069169
2366500,3,"CHOCTAWHATCHEE RIVER NR BRUCE, FLA.",3140203,4384.0,D,E,0,FL,FL,131,302703N,30.45083,0855354W,-85.89833,0.0,0,,,0.000892287
2368000,3,"YELLOW RIVER AT MILLIGAN, FLA.",3140103,624.0,D,E,0,FL,FL,91,304510N,30.75278,0863745W,-86.62917,45.0,0,,,0.006827384
2369000,3,"SHOAL RIVER NR CRESTVIEW, FLA.",3140103,474.0,D,E,0,FL,FL,91,304150N,30.69722,0863415W,-86.57083,47.21,0,,C,0.004567506
2369800,3,BLACKWATER RIVER NEAR BRADLEY AL,3140104,87.7,D,E,0,AL,AL,53,310139N,31.0275,0864236W,-86.71,121.87,0,B,,0.063073367
2371500,3,CONECUH RIVER AT BRANTLEY AL,3140301,500.0,D,E,0,AL,AL,41,313424N,31.57333,0861506W,-86.25167,226.2,0,,C,0.019910913
2374500,3,MURDER CREEK NEAR EVERGREEN AL,3140304,176.0,D,E,0,AL,AL,35,312506N,31.41833,0865912W,-86.98667,178.29,0,,,0.026062903
2375500,3,"ESCAMBIA RIVER NEAR CENTURY, FL",3140305,3817.0,D,E,0,FL,FL,113,305754N,30.965,0871403W,-87.23417,28.34,0,,,0.001587214
2376500,3,"PERDIDO RIVER AT BARRINEAU PARK, FL",3140106,394.0,D,E,0,FL,FL,33,304125N,30.69028,0872625W,-87.44028,25.77,0,,,0.007265982
2379500,3,"CARTECAY RIVER NEAR ELLIJAY, GA.",3150102,134.0,D,E,0,GA,GA,123,344053N,34.68139,0842720W,-84.45556,1255.39,0,,,0.208546943
2380500,3,"COOSAWATTEE RIVER NEAR ELLIJAY, GA.",3150102,236.0,D,E,0,GA,GA,123,344018N,34.67167,0843031W,-84.50861,1216.04,0,,,0.11470667
2383500,3,"COOSAWATTEE RIVER NEAR PINE CHAPEL, GA.",3150102,831.0,D,P,2,GA,GA,129,343351N,34.56417,0844959W,-84.83306,616.16,0,,,0.024263455
2387500,3,"OOSTANAULA RIVER AT RESACA, GA.",3150103,1602.0,D,P,2,GA,GA,129,343442N,34.57833,0845629W,-84.94139,604.14,0,,,0.011443885
2389000,3,"ETOWAH RIVER NEAR DAWSONVILLE, GA.",3150104,107.0,D,E,0,GA,GA,85,342257N,34.3825,0840321W,-84.05583,1049.8,0,,,0.086374344
2392000,3,"ETOWAH RIVER AT CANTON, GA.",3150104,613.0,D,P,2,GA,GA,57,341423N,34.23972,0842947W,-84.49639,844.55,0,,C,0.024905493
2392500,3,"LITTLE RIVER NEAR ROSWELL, GA.",3150104,60.0,D,E,0,GA,GA,121,340709N,34.11917,0842318W,-84.38833,897.8,0,,,0.298324648
2397500,3,"CEDAR CREEK NEAR CEDARTOWN, GA.",3150105,115.0,D,E,0,GA,GA,233,340338N,34.06056,0851841W,-85.31139,724.72,0,,,0.066907286
2398000,3,"CHATTOOGA RIVER AT SUMMERVILLE, GA",3150105,192.0,D,E,0,GA,GA,55,342803N,34.4675,0852019W,-85.33861,613.47,0,,,0.086986737
2414500,3,TALLAPOOSA RIVER AT WADLEY AL,3150109,1675.0,D,P,1,AL,AL,111,330700N,33.11667,0853339W,-85.56083,599.87,0,,,0.008406375
2430000,3,"MACKEYS CREEK NR DENNIS, MS",3160101,66.9,D,P,4,MS,MS,141,343134N,34.52611,0881922W,-88.32278,333.47,0,,,0.16688282
2431000,3,"TOMBIGBEE RIVER NR FULTON, MS",3160101,612.0,D,P,1,MS,MS,57,341553N,34.26472,0882642W,-88.445,242.93,0,,,0.014081294
2433000,3,"BULL MOUNTAIN CREEK NR SMITHVILLE, MS",3160101,336.0,D,P,1,MS,MS,57,340518N,34.08833,0882326W,-88.39056,234.81,0,,,0.030841783
2434000,3,"TOWN CREEK AT TUPELO, MS",3160102,111.0,D,P,2,MS,MS,81,341739N,34.29417,0884232W,-88.70889,243.84,0,,,0.077508024
2436500,3,"TOWN CREEK NR NETTLETON, MS",3160102,620.0,D,P,2,MS,MS,95,340332N,34.05889,0883740W,-88.62778,194.01,0,,,0.01373726
2437000,3,"TOMBIGBEE RIVER NR AMORY, MS",3160101,1928.0,D,P,3,MS,MS,95,335907N,33.98528,0883303W,-88.55083,178.34,0,,,0.004315686
2439400,3,"BUTTAHATCHEE RIVER NR ABERDEEN, MS",3160103,798.0,D,E,0,MS,MS,95,334724N,33.79,0881853W,-88.31472,220.77,0,,,0.020261832
2440000,3,"CHUQUATONCHEE CREEK NR EGYPT, MS",3160104,167.0,D,E,0,MS,MS,17,335024N,33.84,0884540W,-88.76111,221.07,0,,,0.074261837
2440500,3,"CHUQUATONCHEE CREEK NR WEST POINT, MS",3160104,505.0,D,E,0,MS,MS,25,333625N,33.60694,0884230W,-88.70833,170.1,0,,,0.014785669
2441000,3,"TIBBEE CREEK NR TIBBEE, MS",3160104,926.0,D,P,3,MS,MS,25,333217N,33.53806,0883800W,-88.63333,154.07,0,,,0.008978839
2441500,3,"TOMBIGBEE RIVER AT COLUMBUS, MS",3160101,4463.0,D,P,3,MS,MS,87,332921N,33.48917,0882557W,-88.4325,128.91,0,,,0.002512891
2448000,3,"NOXUBEE RIVER AT MACON, MS",3160108,768.0,D,E,0,MS,MS,103,330608N,33.10222,0883340W,-88.56111,142.38,0,,,0.013201797
2450000,3,MULBERRY FORK NEAR GARDEN CITY AL,3160109,365.0,D,E,0,AL,AL,9,335942N,33.995,0864456W,-86.74889,380.54,0,,,0.017311239
2450250,3,SIPSEY FORK NEAR GRAYSON AL,3160110,92.1,D,E,0,AL,AL,133,341707N,34.28528,0872356W,-87.39889,540.0,0,B,,0.095277617
2456500,3,LOCUST FORK AT SAYRE AL,3160111,885.0,D,E,0,AL,AL,73,334235N,33.70972,0865900W,-86.98333,258.64,0,,,0.005679768
2467000,3,TOMBIGBEE RIVER AT DEMOPOLIS L&D NEAR COATOPA AL,3160201,15385.0,D,E,0,AL,AL,91,323115N,32.52083,0875239W,-87.8775,56.0,0,,C,0.000625181
2467500,3,SUCARNOOCHEE RIVER AT LIVINGSTON AL,3160202,607.0,D,E,0,AL,AL,119,323425N,32.57361,0881136W,-88.19333,90.04,0,,,0.010166939
2472500,3,"BOUIE CREEK NR HATTIESBURG, MS",3170004,304.0,D,E,0,MS,MS,35,312532N,31.42556,0892453W,-89.41472,160.04,0,,,0.019803687
2474500,3,"TALLAHALA CREEK NR RUNNELSTOWN, MS",3170005,612.0,D,E,2,MS,MS,111,311957N,31.3325,0890646W,-89.11278,104.58,0,,,0.012841647
2475500,3,"CHUNKY RIVER NR CHUNKY, MS",3170001,369.0,D,E,0,MS,MS,75,321935N,32.32639,0885435W,-88.90972,269.0,0,,,0.029076054
2479000,3,"PASCAGOULA RIVER AT MERRILL, MS",3170006,6590.0,D,E,0,MS,MS,39,305840N,30.97778,0884335W,-88.72639,26.25,0,,C,0.001054562
2479155,3,"CYPRESS CREEK NR JANICE, MS",3170007,52.6,D,E,0,MS,MS,111,310130N,31.025,0890100W,-89.01667,110.0,0,B,,0.099878126
2479300,3,"RED CREEK AT VESTRY, MS",3170007,441.0,D,E,0,MS,MS,59,304410N,30.73611,0884650W,-88.78056,20.1,0,,,0.007909019
2484500,3,"YOCKANOOKANY RIVER NR OFAHOMA, MS",3180001,469.0,D,P,2,MS,MS,79,324220N,32.70556,0894020W,-89.67222,306.15,0,,,0.022387302
2487500,3,"STRONG RIVER AT D`LO, MS",3180002,425.0,D,P,2,MS,MS,127,315840N,31.97778,0895353W,-89.89806,257.99,0,,,0.019089868
2488500,3,"PEARL RIVER NR MONTICELLO, MS",3180003,4993.0,D,E,0,MS,MS,77,313312N,31.55333,0900516W,-90.08778,158.66,0,,,0.001643186
2489500,3,"PEARL RIVER NEAR BOGALUSA, LA",3180004,6573.0,D,E,0,LA,LA,117,304735N,30.79306,0894915W,-89.82083,55.0,0,,C,0.001039292
2490500,3,"BOGUE CHITTO NR TYLERTOWN, MS",3180005,492.0,D,E,0,MS,MS,113,311037N,31.17694,0901647W,-90.27972,227.4,0,,,0.011562314
2492000,3,"BOGUE CHITTO NEAR BUSH, LA",3180005,1213.0,D,E,0,LA,LA,103,303745N,30.62917,0895350W,-89.89722,44.25,0,,,0.003683604
4010500,4,PIGEON RIVER AT MIDDLE FALLS NR GRAND PORTAGE MN,4010101,600.0,D,E,1,MN,MN,31,480044N,48.01222,0893658W,-89.61611,787.58,0,,,0.35279547
4014500,4,"BAPTISM RIVER NEAR BEAVER BAY, MN",4010101,140.0,D,E,1,MN,MN,75,472007N,47.33528,0911206W,-91.20167,613.65,0,,,0.939441131
4025500,4,"BOIS BRULE RIVER AT BRULE, WI",4010301,120.0,D,E,1,WI,WI,31,463216N,46.53778,0913543W,-91.59528,948.49,0,,,0.902120527
4027000,4,"BAD RIVER NEAR ODANAH, WI",4010302,597.0,D,E,1,WI,WI,3,462915N,46.4875,0904145W,-90.69583,668.3,0,,,0.323936294
4033000,4,"MIDDLE BR ONTONAGON RIVER NR PAULDING, MICH.   .",4020102,164.0,D,E,1,MI,MI,131,462125N,46.35694,0890438W,-89.07722,1485.66,0,,,1.159749543
4040500,4,"STURGEON RIVER NEAR SIDNAW, MICH.",4020104,171.0,D,E,1,MI,MI,13,463503N,46.58417,0883433W,-88.57583,1214.4,0,,C,1.10535672
4045500,4,"TAHQUAMENON RIVER NEAR PARADISE, MI",4020202,790.0,D,E,0,MI,MI,95,463430N,46.575,0851610W,-85.26944,697.0,0,,,0.246605556
4046000,4,"BLACK RIVER NR GARNET, MICH.",4060107,28.0,D,P,2,MI,MI,97,460705N,46.11806,0852155W,-85.36528,629.7,0,,,6.887620797
4056500,4,"MANISTIQUE RIVER NR MANISTIQUE, MICH.          .",4060106,1100.0,D,E,1,MI,MI,153,460150N,46.03056,0860940W,-86.16111,608.0,0,,,0.15976328
4059500,4,"FORD RIVER NR HYDE, MICH.",4030109,450.0,D,E,1,MI,MI,41,454520N,45.75556,0871205W,-87.20139,681.77,0,,,0.469772463
4063700,4,"POPPLE RIVER NEAR FENCE, WI",4030108,139.0,D,E,1,WI,WI,37,454549N,45.76361,0882747W,-88.46306,1406.16,0,B,,1.330782371
4069500,4,"PESHTIGO RIVER AT PESHTIGO, WI",4030105,1080.0,D,E,1,WI,WI,75,450249N,45.04694,0874440W,-87.74444,584.64,0,,,0.143921528
4071000,4,"OCONTO RIVER NEAR GILLETT, WI",4030104,705.0,D,E,1,WI,WI,83,445153N,44.86472,0881800W,-88.3,732.87,0,,C,0.229960476
4073500,4,"FOX RIVER AT BERLIN, WI",4030201,1340.0,D,E,1,WI,WI,47,435714N,43.95389,0885708W,-88.95222,744.52,0,,,0.080518816
4078500,4,"EMBARRASS RIVER NEAR EMBARRASS, WI",4030202,384.0,D,E,1,WI,WI,115,444329N,44.72472,0884410W,-88.73611,803.95,0,,,0.428405048
4079000,4,"WOLF RIVER AT NEW LONDON, WI",4030202,2260.0,D,E,1,WI,WI,135,442332N,44.39222,0884425W,-88.74028,747.94,0,,,0.071275374
4080000,4,"LITTLE WOLF RIVER AT ROYALTON, WI",4030202,507.0,D,E,1,WI,WI,87,442445N,44.4125,0885155W,-88.86528,774.0,0,,,0.272992573
4081000,4,"WAUPACA RIVER NEAR WAUPACA, WI",4030202,265.0,D,E,1,WI,WI,135,441950N,44.33056,0885945W,-88.99583,780.0,0,,,0.431261456
4085200,4,"KEWAUNEE RIVER NEAR KEWAUNEE, WI",4030102,127.0,D,E,1,WI,WI,61,442730N,44.45833,0873323W,-87.55639,579.64,0,,,1.167092361
4086000,4,"SHEBOYGAN RIVER AT SHEBOYGAN, WI",4030101,418.0,D,E,1,WI,WI,117,434425N,43.74028,0874535W,-87.75972,584.0,0,,,0.414581617
4087000,4,"MILWAUKEE RIVER AT MILWAUKEE, WI",4040003,696.0,D,E,1,WI,WI,79,430600N,43.1,0875432W,-87.90889,607.23,0,,,0.246492244
4093000,4,"DEEP RIVER AT LAKE GEORGE OUTLET AT HOBART, IND.",4040001,124.0,D,P,1,IN,IN,89,413210N,41.53611,0871525W,-87.25694,588.17,0,,,0.848696284
4094000,4,"LITTLE CALUMET RIVER AT PORTER, IND.",4040001,66.2,D,P,1,IN,IN,127,413718N,41.62167,0870513W,-87.08694,603.48,0,,,1.45718859
4100500,4,"ELKHART RIVER AT GOSHEN, IND.",4050001,594.0,D,E,0,IN,IN,39,413536N,41.59333,0855055W,-85.84861,769.43,0,,,0.174255996
4105000,4,"BATTLE CREEK AT BATTLE CREEK, MICH.            .",4050003,241.0,D,E,2,MI,MI,25,421955N,42.33194,0850915W,-85.15417,823.24,0,,,0.514725526
4121500,4,"MUSKEGON RIVER AT EVART, MICH.                 .",4060102,1450.0,D,E,1,MI,MI,133,435357N,43.89917,0851519W,-85.25528,977.72,0,,C,0.144519527
4128000,4,"STURGEON RIVER NEAR WOLVERINE, MICH.           .",4070004,198.0,D,E,1,MI,MI,31,451756N,45.29889,0843640W,-84.61111,740.0,0,,,1.339420522
4135500,4,"AU SABLE RIVER AT GRAYLING, MICH.              .",4070007,110.0,M,E,4,MI,MI,39,443935N,44.65972,0844245W,-84.7125,1123.49,0,,,3.029085958
4142000,4,"RIFLE RIVER NEAR STERLING, MICH.",4080101,320.0,D,P,4,MI,MI,11,440421N,44.0725,0840112W,-84.02,649.48,0,,,0.439101905
4173500,4,"MILL CREEK NEAR DEXTER, MICH.                  .",4090005,128.0,D,E,2,MI,MI,161,421800N,42.3,0835355W,-83.89861,850.0,0,,,1.123580238
4183500,4,MAUMEE R AT ANTWERP OH,4100005,2129.0,D,E,0,OH,OH,125,411156N,41.19889,0844440W,-84.74444,694.9,0,,,0.04466921
4184500,4,BEAN C AT POWERS OH,4100006,206.0,D,E,0,OH,OH,51,414039N,41.6775,0841356W,-84.23222,688.26,0,,,0.516180542
4189000,4,BLANCHARD R NR FINDLAY OH,4100008,346.0,M,P,4,OH,OH,63,410321N,41.05583,0834117W,-83.68806,754.55,0,,,0.264272827
4191500,4,AUGLAIZE R NR DEFIANCE OH,4100007,2310.0,M,E,4,OH,OH,39,411415N,41.2375,0842357W,-84.39917,659.7,0,,,0.04330455
4196500,4,SANDUSKY R NR UPPER SANDUSKY OH,4100011,298.0,D,E,0,OH,OH,175,405102N,40.85056,0831523W,-83.25639,792.25,0,,,0.323063748
4197000,4,SANDUSKY R NR MEXICO OH,4100011,774.0,D,E,0,OH,OH,147,410239N,41.04417,0831142W,-83.195,733.1,0,,,0.130925972
4198000,4,SANDUSKY R NR FREMONT OH,4100011,1251.0,D,P,1,OH,OH,143,411828N,41.30778,0830932W,-83.15889,626.3,0,,,0.079190449
4199500,4,VERMILION R NR VERMILION OH,4100012,262.0,D,E,0,OH,OH,93,412255N,41.38194,0821901W,-82.31694,595.14,0,,,0.352580059
4201500,4,ROCKY R NR BEREA OH,4110001,267.0,M,E,3,OH,OH,35,412424N,41.40667,0815314W,-81.88722,649.9,0,,,0.391145731
4212000,4,GRAND R NR MADISON OH,4110004,581.0,D,E,3,OH,OH,85,414426N,41.74056,0810248W,-81.04667,673.51,0,,,0.236298274
4212500,4,ASHTABULA R NR ASHTABULA OH,4110003,121.0,D,E,0,OH,OH,7,415120N,41.85556,0804544W,-80.76222,612.5,0,,,1.174788081
4213000,4,CONNEAUT C AT CONNEAUT OH,4120101,175.0,D,E,3,OH,OH,7,415537N,41.92694,0803615W,-80.60417,610.3,0,,,0.695697043
4214500,4,BUFFALO CREEK AT GARDENVILLE NY,4120103,142.0,D,E,0,NY,NY,29,425117N,42.85472,0784519W,-78.75528,603.65,0,,,1.138060732
4215500,4,CAZENOVIA CREEK AT EBENEZER NY,4120103,135.0,D,E,0,NY,NY,29,424947N,42.82972,0784631W,-78.77528,604.86,0,,,1.104778366
4217500,4,TONAWANDA CREEK NEAR ALABAMA NY,4120104,231.0,D,E,0,NY,NY,37,430528N,43.09111,0782715W,-78.45417,605.93,0,,,0.740085102
4221000,4,GENESEE RIVER AT WELLSVILLE NY,4130002,288.0,D,E,3,NY,NY,3,420720N,42.12222,0775727W,-77.9575,1470.0,0,,,0.445774167
4221500,4,"GENESEE RIVER AT SCIO, N. Y.",4130002,308.0,D,E,3,NY,NY,3,420950N,42.16389,0775850W,-77.98056,1438.83,0,,,0.453515767
4230500,4,OATKA CREEK AT GARBUTT NY,4130003,200.0,D,E,0,NY,NY,55,430036N,43.01,0774730W,-77.79167,560.86,0,,,0.856022401
4234000,4,FALL CREEK NEAR ITHACA NY,4140201,126.0,M,E,3,NY,NY,109,422712N,42.45333,0762823W,-76.47306,795.13,0,,,0.899576056
4243500,4,ONEIDA CREEK AT ONEIDA NY,4140202,113.0,M,E,3,NY,NY,65,430551N,43.0975,0753822W,-75.63944,409.33,0,,,1.073875248
4256000,4,INDEPENDENCE RIVER AT DONNATTSBURG NY,4150101,88.7,D,E,1,NY,NY,49,434450N,43.74722,0752005W,-75.33472,972.84,0,,,1.866369431
4262500,4,WEST BRANCH OSWEGATCHIE R NR HARRISVILLE NY,4150302,244.0,M,E,3,NY,NY,89,441108N,44.18556,0751952W,-75.33111,738.51,0,,C,0.579771084
4265000,4,GRASS RIVER AT PYRITES NY,4150304,333.0,M,E,3,NY,NY,89,443128N,44.52444,0751148W,-75.19667,350.61,0,,,0.393625683
4269000,4,ST. REGIS RIVER AT BRASHER CENTER NY,4150306,612.0,M,E,7,NY,NY,89,445149N,44.86361,0744645W,-74.77917,217.23,0,,,0.200963931
3010500,5,"ALLEGHENY RIVER AT ELDRED, PA.",5010001,550.0,D,E,0,PA,PA,83,415748N,41.96333,0782311W,-78.38639,1416.53,0,,,0.211119949
3011020,5,ALLEGHENY RIVER AT SALAMANCA NY,5010001,1608.0,D,E,0,NY,NY,9,420923N,42.15639,0784256W,-78.71556,1358.0,0,,,0.076030588
3011800,5,"KINZUA CREEK NEAR GUFFEY, PA.",5010001,46.4,D,E,0,PA,PA,83,414559N,41.76639,0784308W,-78.71889,1540.0,0,,,2.59564433
3015500,5,"BROKENSTRAW CREEK AT YOUNGSVILLE, PA.",5010001,321.0,D,E,0,PA,PA,123,415109N,41.8525,0791903W,-79.3175,1186.92,0,,,0.446483705
3020500,5,"OIL CREEK AT ROUSEVILLE, PA.",5010003,300.0,D,E,0,PA,PA,121,412854N,41.48167,0794144W,-79.69556,1028.32,0,,C,0.400505339
3024000,5,"FRENCH CREEK AT UTICA, PA.",5010004,1028.0,D,P,2,PA,PA,121,412615N,41.4375,0795722W,-79.95611,1019.44,0,,,0.135818861
3028000,5,"WEST BRANCH CLARION RIVER AT WILCOX, PA.",5010005,63.0,D,E,0,PA,PA,47,413431N,41.57528,0784133W,-78.6925,1502.02,0,,,1.548051276
3032500,5,"REDBANK CREEK AT ST. CHARLES, PA.",5010006,528.0,D,E,0,PA,PA,5,405940N,40.99444,0792340W,-79.39444,973.14,0,,,0.151803868
3034500,5,"LITTLE MAHONING CREEK AT MCCORMICK, PA.",5010006,87.4,D,E,0,PA,PA,63,405010N,40.83611,0790637W,-79.11028,1164.88,0,,,1.060447742
3042000,5,"BLACKLICK CREEK AT JOSEPHINE, PA.",5010007,192.0,M,E,3,PA,PA,63,402824N,40.47333,0791101W,-79.18361,975.82,0,,,0.339982839
3049000,5,"BUFFALO CREEK NEAR FREEPORT, PA.",5010009,137.0,D,E,0,PA,PA,19,404257N,40.71583,0794159W,-79.69972,792.0,0,,,0.464663209
3051000,5,"TYGART VALLEY RIVER AT BELINGTON, WV",5020001,408.0,D,E,0,WV,WV,1,390145N,39.02917,0795610W,-79.93611,1679.49,0,,,0.224367331
3069500,5,"CHEAT RIVER NEAR PARSONS, WV",5020004,718.0,D,E,2,WV,WV,93,390720N,39.12222,0794050W,-79.68056,1589.66,0,,,0.128185268
3074500,5,"REDSTONE CREEK AT WALTERSBURG, PA.",5020005,73.7,M,E,3,PA,PA,51,395848N,39.98,0794552W,-79.76444,883.28,0,,,1.064831272
3075500,5,"YOUGHIOGHENY R NR OAKLAND, MD",5020006,134.0,D,E,0,MD,MD,23,392519N,39.42194,0792532W,-79.42556,2353.61,0,,,0.617863216
3078000,5,"CASSELMAN R AT GRANTSVILLE, MD",5020006,62.5,D,E,0,MD,MD,23,394208N,39.70222,0790812W,-79.13667,2088.97,0,,,1.464513904
3079000,5,"CASSELMAN RIVER AT MARKLETON, PA.",5020006,382.0,M,E,3,PA,PA,111,395135N,39.85972,0791340W,-79.22778,1655.29,0,,C,0.256954932
3080000,5,"LAUREL HILL CREEK AT URSINA, PA.",5020006,121.0,D,E,0,PA,PA,111,394913N,39.82028,0791918W,-79.32167,1335.26,0,,,0.686221661
3089500,5,MILL C NR BERLIN CENTER OH,5030103,19.1,D,E,0,OH,OH,99,410001N,41.00028,0805807W,-80.96861,1032.9,0,,,5.881770885
3092500,5,W B MAHONING R NR NEWTON FALLS OH,5030103,96.3,D,E,0,OH,OH,133,411018N,41.17167,0810116W,-81.02111,912.2,0,,,1.160779837
3102500,5,"LITTLE SHENANGO RIVER AT GREENVILLE, PA.",5030102,104.0,D,E,0,PA,PA,85,412519N,41.42194,0802235W,-80.37639,953.46,0,,,1.268573495
3106000,5,"CONNOQUENESSING CREEK NR ZELIENOPLE, PA.",5030105,356.0,M,E,3,PA,PA,7,404901N,40.81694,0801433W,-80.2425,852.31,0,,C,0.220665334
3109500,5,L BEAVER C NR EAST LIVERPOOL OH,5030101,496.0,D,E,4,OH,OH,29,404033N,40.67583,0803227W,-80.54083,702.77,0,,C,0.174894762
3114500,5,"MIDDLE ISLAND CREEK AT LITTLE, WV",5030201,458.0,D,E,2,WV,WV,95,392830N,39.475,0805950W,-80.99722,631.32,0,,,0.131423583
3116000,5,TUSCARAWAS R AT CLINTON OH,5040001,174.0,D,E,0,OH,OH,153,405540N,40.92778,0813758W,-81.63278,933.28,0,,,0.592859962
3118500,5,NIMISHILLEN C AT NORTH INDUSTRY OH,5040001,175.0,M,E,4,OH,OH,151,404403N,40.73417,0812108W,-81.35222,970.77,0,,,0.52804194
3132000,5,CLEAR F AT BUTLER OH,5040002,136.0,D,E,0,OH,OH,139,403537N,40.59361,0822520W,-82.42222,1057.2,0,,,0.57716188
3136000,5,MOHICAN R AT GREER OH,5040002,948.0,D,E,0,OH,OH,83,403053N,40.51472,0821144W,-82.19556,872.91,0,,,0.098478142
3137000,5,KOKOSING R AT MILLWOOD OH,5040003,455.0,D,E,0,OH,OH,83,402351N,40.3975,0821709W,-82.28583,865.0,0,,,0.170221125
3144000,5,WAKATOMIKA C NR FRAZEYSBURG OH,5040004,140.0,D,E,3,OH,OH,119,400757N,40.1325,0820853W,-82.14806,748.12,0,,,0.516700497
3159500,5,HOCKING R AT ATHENS OH,5030204,943.0,D,E,0,OH,OH,9,391944N,39.32889,0820516W,-82.08778,611.26,0,,,0.072185051
3161000,5,"SOUTH FORK NEW RIVER NEAR JEFFERSON, N. C.",5050001,205.0,D,E,0,NC,NC,9,362335N,36.39306,0812426W,-81.40722,2657.04,0,,,0.287045332
3164000,5,"NEW RIVER NEAR GALAX, VA",5050001,1131.0,M,E,3,VA,VA,640,363850N,36.64722,0805845W,-80.97917,2208.04,0,,,0.054083897
3167000,5,"REED CREEK AT GRAHAMS FORGE, VA",5050001,247.0,M,E,3,VA,VA,197,365622N,36.93944,0805313W,-80.88694,1924.65,0,,,0.274640587
3167500,5,"BIG REED ISLAND CREEK NEAR ALLISONIA, VA",5050001,278.0,D,E,0,VA,VA,155,365320N,36.88889,0804340W,-80.72778,1902.74,0,,,0.232212279
3170000,5,"LITTLE RIVER AT GRAYSONTON, VA",5050001,300.0,D,E,0,VA,VA,155,370215N,37.0375,0803325W,-80.55694,1816.04,0,,,0.215995568
3173000,5,"WALKER CREEK AT BANE, VA",5050002,305.0,D,E,0,VA,VA,71,371605N,37.26806,0804235W,-80.70972,1665.92,0,,,0.241970613
3175500,5,"WOLF CREEK NEAR NARROWS, VA",5050002,223.0,D,E,0,VA,VA,71,371820N,37.30556,0805100W,-80.85,1583.83,0,,,0.340740574
3179000,5,"BLUESTONE RIVER NEAR PIPESTEM, WV",5050002,394.0,D,E,0,WV,WV,89,373238N,37.54389,0810038W,-81.01056,1527.35,0,,,0.193363553
3180500,5,"GREENBRIER RIVER AT DURBIN, WV",5050003,133.0,D,E,0,WV,WV,75,383237N,38.54361,0795000W,-79.83333,2699.71,0,,,0.818884366
3182500,5,"GREENBRIER RIVER AT BUCKEYE, WV",5050003,540.0,D,E,0,WV,WV,75,381109N,38.18583,0800751W,-80.13083,2085.89,0,,,0.230926605
3183500,5,"GREENBRIER RIVER AT ALDERSON, WV",5050003,1364.0,D,E,2,WV,WV,63,374327N,37.72417,0803830W,-80.64167,1529.42,0,,C,0.075405225
3186500,5,"WILLIAMS RIVER AT DYER, WV",5050005,128.0,D,E,2,WV,WV,101,382244N,38.37889,0802903W,-80.48417,2193.46,0,,,0.576626899
3187500,5,"CRANBERRY RIVER NEAR RICHWOOD, WV",5050005,80.4,D,E,0,WV,WV,67,381743N,38.29528,0803136W,-80.52667,0.0,0,,,0.672101631
3193000,5,"KANAWHA RIVER AT KANAWHA FALLS, WV",5050006,8371.0,M,E,5,WV,WV,19,380817N,38.13806,0811252W,-81.21444,621.2,0,,C,0.008152214
3198500,5,"BIG COAL RIVER AT ASHFORD, WV",5050009,391.0,D,E,2,WV,WV,5,381047N,38.17972,0814242W,-81.71167,622.46,0,,,0.150509984
3202000,5,RACCOON C AT ADAMSVILLE OH,5090101,585.0,D,E,0,OH,OH,53,385225N,38.87361,0822122W,-82.35611,570.04,0,,,0.096386629
3204500,5,"MUD RIVER NEAR MILTON, WV",5070102,256.0,D,E,0,WV,WV,11,382315N,38.3875,0820646W,-82.11278,572.64,0,,,0.18349621
3217000,5,"TYGARTS CREEK NEAR GREENUP, KY.",5090103,242.0,D,E,0,KY,KY,89,383351N,38.56417,0825708W,-82.95222,547.14,0,,,0.166606914
3219500,5,SCIOTO R NR PROSPECT OH,5060001,567.0,D,E,0,OH,OH,41,402510N,40.41944,0831150W,-83.19722,886.9,0,,,0.153368742
3230500,5,BIG DARBY C AT DARBYVILLE OH,5060001,534.0,D,E,0,OH,OH,129,394202N,39.70056,0830637W,-83.11028,713.69,0,,,0.120173232
3234500,5,SCIOTO R AT HIGBY OH,5060002,5131.0,M,E,6,OH,OH,141,391244N,39.21222,0825150W,-82.86389,567.28,0,,C,0.013818751
3237500,5,OHIO BRUSH C NR WEST UNION OH,5090201,387.0,D,E,0,OH,OH,1,384813N,38.80361,0832516W,-83.42111,510.6,0,,,0.105566973
3248500,5,"LICKING R NR SALYERSVILLE, KY.",5100101,140.0,D,E,0,KY,KY,153,374503N,37.75083,0830504W,-83.08444,823.8,0,,,0.199452625
3252500,5,SF LICKING R AT CYNTHIANA KY,5100102,621.0,M,E,5,KY,KY,97,382327N,38.39083,0841811W,-84.30306,688.52,0,,,0.069503024
3253500,5,"LICKING RIVER AT CATAWBA, KY.",5100101,3300.0,D,P,2,KY,KY,191,384237N,38.71028,0841839W,-84.31083,500.01,0,,C,0.01104249
3262000,5,LORAMIE C AT LOCKINGTON OH,5080001,257.0,M,E,6,OH,OH,149,401235N,40.20972,0841432W,-84.24222,800.03,0,,,0.324440953
3265000,5,STILLWATER R AT PLEASANT HILL OH,5080001,503.0,D,E,0,OH,OH,109,400328N,40.05778,0842122W,-84.35611,846.73,0,,,0.130958912
3266000,5,STILLWATER R AT ENGLEWOOD OH,5080001,650.0,M,E,3,OH,OH,113,395210N,39.86944,0841657W,-84.2825,699.97,0,,,0.098811527
3269500,5,MAD R NR SPRINGFIELD OH,5080001,490.0,D,P,5,OH,OH,23,395523N,39.92306,0835213W,-83.87028,881.42,0,,,0.142808214
3272000,5,TWIN C NR GERMANTOWN OH,5080002,275.0,M,E,6,OH,OH,113,393810N,39.63611,0842348W,-84.39667,700.24,0,,,0.223431905
3274000,5,G MIAMI R AT HAMILTON OH,5080002,3630.0,M,P,6,OH,OH,17,392328N,39.39111,0843420W,-84.57222,499.98,0,,,0.018776581
3275000,5,"WHITEWATER RIVER NEAR ALPINE, IN",5080003,522.0,D,E,0,IN,IN,41,393446N,39.57944,0850929W,-85.15806,750.19,0,,,0.100819486
3281500,5,"SOUTH FORK KENTUCKY RIVER AT BOONEVILLE,KENTUCKY",5100203,722.0,D,E,0,KY,KY,189,372845N,37.47917,0834038W,-83.67722,642.49,0,,,0.062839529
3285000,5,DIX RIVER NEAR DANVILLE KY,5100205,318.0,D,E,0,KY,KY,79,373831N,37.64194,0843939W,-84.66083,750.1,0,,,0.104762663
3294000,5,"SILVER CREEK NEAR SELLERSBURG, IND",5140101,189.0,D,E,1,IN,IN,19,382215N,38.37083,0854335W,-85.72639,429.78,0,,,0.139422282
3298000,5,"FLOYDS FORK AT FISHERVILLE, KY",5140102,138.0,D,E,0,KY,KY,111,381118N,38.18833,0852737W,-85.46028,542.6,0,,,0.232615563
3301500,5,ROLLING FORK NR BOSTON KY,5140103,1299.0,D,E,0,KY,KY,179,374602N,37.76722,0854214W,-85.70389,400.42,0,,,0.024440033
3307000,5,"RUSSELL CREEK NEAR COLUMBIA, KY.",5110001,188.0,D,E,0,KY,KY,1,370709N,37.11917,0852338W,-85.39389,610.96,8,,,0.147673373
3308500,5,"GREEN RIVER AT MUNFORDVILLE, KY.",5110001,1673.0,D,P,2,KY,KY,99,371605N,37.26806,0855310W,-85.88611,451.7,11,,C,0.016208778
3310300,5,"NOLIN RIVER AT WHITE MILLS, KY.",5110001,357.0,D,E,0,KY,KY,93,373303N,37.55083,0860243W,-86.04528,583.08,34,,,0.093532192
3320500,5,"POND RIVER NR APEX, KY.",5110006,194.0,D,E,0,KY,KY,177,370720N,37.12222,0871910W,-87.31944,384.53,0,,,0.11893478
3324000,5,"LITTLE RIVER NEAR HUNTINGTON, IND",5120101,263.0,D,E,0,IN,IN,69,405414N,40.90389,0852422W,-85.40611,728.1,0,,,0.336869264
3324300,5,"SALAMONIE RIVER NEAR WARREN, IND.",5120102,425.0,D,E,0,IN,IN,69,404245N,40.7125,0852713W,-85.45361,784.65,0,,,0.176535
3326500,5,"MISSISSINEWA RIVER AT MARION, IND.",5120103,682.0,D,P,1,IN,IN,53,403434N,40.57611,0853934W,-85.65944,774.56,0,,C,0.100234283
3327520,5,"PIPE CREEK NEAR BUNKER HILL, IND.",5120101,159.0,D,E,0,IN,IN,103,404006N,40.66833,0860544W,-86.09556,736.0,0,,,0.446174442
3328500,5,"EEL RIVER NEAR LOGANSPORT, IN",5120104,789.0,D,E,0,IN,IN,17,404655N,40.78194,0861550W,-86.26389,621.5,0,,,0.101691358
3334500,5,"SOUTH FORK WILDCAT CREEK NEAR LAFAYETTE, IND.",5120107,243.0,D,E,0,IN,IN,157,402504N,40.41778,0864605W,-86.76806,566.6,0,,,0.210230361
3335500,5,WABASH RIVER AT LAFAYETTE IND,5120108,7267.0,D,P,1,IN,IN,157,402519N,40.42194,0865349W,-86.89694,504.14,0,,,0.010755465
3339500,5,"SUGAR CREEK AT CRAWFORDSVILLE, IND.",5120110,509.0,D,E,0,IN,IN,107,400256N,40.04889,0865358W,-86.89944,657.77,0,,,0.105003022
3340800,5,BIG RACCOON CREEK NEAR FINCASTLE IND,5120108,139.0,D,E,0,IN,IN,133,394845N,39.8125,0865714W,-86.95389,686.03,0,,,0.421026129
3343400,5,"EMBARRAS RIVER NEAR CAMARGO, IL",5120112,186.0,D,E,0,IL,IL,41,394730N,39.79167,0881110W,-88.18611,622.3,0,,,0.378627765
3345500,5,"EMBARRAS RIVER AT STE. MARIE, IL",5120112,1516.0,D,E,0,IL,IL,79,385610N,38.93611,0880110W,-88.01944,445.75,0,,,0.043871176
3346000,5,"NORTH FORK EMBARRAS RIVER NEAR OBLONG, IL",5120112,318.0,D,E,0,IL,IL,33,390037N,39.01028,0875647W,-87.94639,456.19,0,,,0.209064919
3347500,5,"BUCK CREEK NEAR MUNCIE, IND",5120201,35.5,D,E,0,IN,IN,35,400805N,40.13472,0852225W,-85.37361,944.67,0,,,1.544805238
3351500,5,"FALL CREEK NEAR FORTVILLE, IND.",5120201,169.0,D,E,0,IN,IN,57,395715N,39.95417,0855205W,-85.86806,787.43,0,,,0.355312526
3360500,5,"WHITE RIVER AT NEWBERRY, IND.",5120202,4688.0,D,E,0,IN,IN,55,385539N,38.9275,0870041W,-87.01139,465.59,0,,,0.011329316
3361650,5,"SUGAR CREEK AT NEW PALESTINE, IND.",5120204,93.9,D,E,0,IN,IN,59,394251N,39.71417,0855308W,-85.88556,786.0,0,,,0.610867648
3362000,5,YOUNGS CREEK NEAR EDINBURGH IND,5120204,107.0,D,P,1,IN,IN,81,392508N,39.41889,0860018W,-86.005,670.2,0,,,0.546255791
3362500,5,"SUGAR CREEK NEAR EDINBURGH, IN",5120204,474.0,D,P,1,IN,IN,81,392139N,39.36083,0855951W,-85.9975,646.23,0,,,0.115717804
3363500,5,"FLATROCK RIVER AT ST. PAUL, IND.",5120205,303.0,D,E,0,IN,IN,145,392503N,39.4175,0853803W,-85.63417,764.84,0,,,0.160916607
3364000,5,"EAST FORK WHITE RIVER AT COLUMBUS, IND.",5120205,1707.0,D,E,0,IN,IN,5,391200N,39.2,0855532W,-85.92556,603.12,0,,,0.030424017
3373500,5,"EAST FORK WHITE RIVER AT SHOALS, IND.",5120208,4927.0,D,P,1,IN,IN,101,384002N,38.66722,0864731W,-86.79194,442.25,0,,C,0.008684543
3374000,5,WHITE RIVER AT PETERSBURG IND,5120202,11125.0,D,E,0,IN,IN,125,383039N,38.51083,0871722W,-87.28944,400.0,0,,,0.004178801
3374455,5,"PATOKA RIVER NEAR HARDINSBURG, IND",5120209,12.8,D,E,2,IN,IN,117,382641N,38.44472,0862314W,-86.38722,606.89,0,,,1.189622235
3377500,5,"WABASH RIVER AT MT. CARMEL, ILL.",5120113,28635.0,D,E,0,IN,IL,185,382407N,38.40194,0874510W,-87.75278,369.46,0,,C,0.002073415
3379500,5,"LITTLE WABASH RIVER BELOW CLAY CITY, IL",5120114,1131.0,D,E,0,IL,IL,25,383805N,38.63472,0881750W,-88.29722,392.29,0,,,0.059530924
3380500,5,"SKILLET FORK AT WAYNE CITY, IL",5120115,464.0,D,E,3,IL,IL,191,382125N,38.35694,0883500W,-88.58333,383.15,0,,C,0.123329212
3381500,5,"LITTLE WABASH RIVER AT CARMI, IL",5120114,3102.0,D,E,5,IL,IL,193,380340N,38.06111,0880935W,-88.15972,339.91,0,,,0.01982722
3416000,5,"WOLF RIVER NEAR BYRDSTOWN, TENN.",5130105,106.0,D,E,0,TN,TN,137,363337N,36.56028,0850423W,-85.07306,707.54,0,,,0.226319445
3434500,5,"HARPETH RIVER NEAR KINGSTON SPRINGS, TENN.",5130204,681.0,D,E,0,TN,TN,21,360719N,36.12194,0870556W,-87.09889,448.04,2,,C,0.041428927
3436000,5,"SULPHUR FORK RED RIVER NEAR ADAMS, TENN",5130206,186.0,D,E,0,TN,TN,147,363055N,36.51528,0870332W,-87.05889,424.36,11,,,0.162867269
3438000,5,"LITTLE R NR CADIZ,KY.",5130205,244.0,D,E,0,KY,KY,221,364640N,36.77778,0874318W,-87.72167,391.45,0,,,0.104440114
3612000,5,"CACHE RIVER AT FORMAN, IL",5140206,244.0,D,E,0,IL,IL,87,372011N,37.33639,0885526W,-88.92389,318.47,0,,,0.147591822
3448000,6,FRENCH BROAD RIVER AT BENT CREEK N C,6010105,676.0,M,E,3,NC,NC,21,353007N,35.50194,0823533W,-82.5925,1995.91,0,,,0.04310957
3451500,6,"FRENCH BROAD RIVER AT ASHEVILLE, N. C.",6010105,945.0,M,E,7,NC,NC,21,353633N,35.60917,0823443W,-82.57861,1950.28,0,,C,0.033213585
3453000,6,IVY CREEK NEAR MARSHALL N C,6010105,158.0,D,E,0,NC,NC,115,354610N,35.76944,0823717W,-82.62139,1700.41,0,,,0.353629199
3454000,6,"BIG LAUREL CREEK NEAR STACKHOUSE, N. C.",6010105,126.0,D,E,0,NC,NC,115,355512N,35.92,0824542W,-82.76167,1595.68,0,,,0.251288497
3455500,6,W FK PIGEON R AB LAKE LOGAN NEAR HAZELWOOD N C,6010106,27.6,D,E,0,NC,NC,87,352346N,35.39611,0825617W,-82.93806,2976.0,0,,,1.679257305
3456500,6,"EAST FORK PIGEON RIVER NEAR CANTON, N.C.",6010106,51.5,D,E,0,NC,NC,87,352742N,35.46167,0825213W,-82.87028,2674.34,0,,,0.989165177
3459000,6,"JONATHAN CREEK NEAR COVE CREEK, N. C.",6010106,65.3,M,E,4,NC,NC,87,353721N,35.6225,0830025W,-83.00694,2383.89,0,,,1.092989273
3460000,6,CATALOOCHEE CREEK NEAR CATALOOCHEE N C,6010106,49.2,D,E,0,NC,NC,87,354002N,35.66722,0830422W,-83.07278,2456.88,0,B,,1.552119078
3463300,6,"SOUTH TOE RIVER NEAR CELO, N. C.",6010108,43.3,D,E,0,NC,NC,199,354953N,35.83139,0821104W,-82.18444,2658.0,0,,,1.183394855
3465500,6,"NOLICHUCKY RIVER AT EMBREEVILLE, TENN.",6010108,805.0,D,E,0,TN,TN,179,361035N,36.17639,0822727W,-82.4575,1519.3,0,,,0.074864002
3473000,6,"S F HOLSTON RIVER NEAR DAMASCUS, VA",6010102,301.0,M,E,4,VA,VA,191,363906N,36.65167,0815039W,-81.84417,1792.3,0,,,0.194052453
3479000,6,"WATAUGA RIVER NEAR SUGAR GROVE, N. C.",6010103,92.1,D,E,0,NC,NC,189,361418N,36.23833,0814922W,-81.82278,2607.84,0,,,0.73708036
3488000,6,"N F HOLSTON RIVER NEAR SALTVILLE, VA",6010101,222.0,D,E,0,VA,VA,173,365348N,36.89667,0814447W,-81.74639,1703.53,0,,C,0.301823195
3497300,6,"LITTLE RIVER ABOVE TOWNSEND, TENN.",6010201,106.0,D,E,0,TN,TN,9,353952N,35.66444,0834241W,-83.71139,1106.92,0,B,,0.306578224
3500000,6,LITTLE TENNESSEE RIVER NEAR PRENTISS N C,6010202,140.0,D,E,0,NC,NC,113,350859N,35.14972,0832247W,-83.37972,2008.39,0,,,0.193102039
3500240,6,CARTOOGECHAYE CREEK NEAR FRANKLIN N C,6010202,57.1,D,E,0,NC,NC,113,350931N,35.15861,0832340W,-83.39444,2017.18,0,,,0.539750906
3501000,6,"CULLASAJA RIVER AT CULLASAJA, N. C.",6010202,86.5,M,E,4,NC,NC,113,350959N,35.16639,0831925W,-83.32361,2023.37,0,,,0.482983355
3504000,6,"NANTAHALA RIVER NEAR RAINBOW SPRINGS, N. C.",6010202,51.9,M,E,4,NC,NC,113,350737N,35.12694,0833709W,-83.61917,3072.97,0,,,0.69531176
3509000,6,"SCOTT CREEK ABOVE SYLVA, N. C.",6010203,50.7,D,E,0,NC,NC,99,352302N,35.38389,0831251W,-83.21417,2056.42,0,,,0.89109829
3512000,6,"OCONALUFTEE RIVER AT BIRDTOWN, N. C.",6010203,184.0,D,E,0,NC,NC,173,352741N,35.46139,0832113W,-83.35361,1843.3,0,,,0.331595873
3518500,6,"TELLICO RIVER AT TELLICO PLAINS, TENN.",6010204,118.0,D,P,1,TN,TN,123,352142N,35.36167,0841644W,-84.27889,846.64,0,,,0.141417046
3524000,6,"CLINCH RIVER AT CLEVELAND, VA",6010205,528.0,M,E,4,VA,VA,167,365641N,36.94472,0820918W,-82.155,1500.24,0,,,0.121674631
3528000,6,"CLINCH RIVER ABOVE TAZEWELL, TN",6010205,1474.0,D,E,0,TN,TN,25,362530N,36.425,0832354W,-83.39833,1060.7,0,,,0.031814714
3532000,6,POWELL RIVER NEAR ARTHUR TN,6010206,685.0,D,P,1,TN,TN,25,363230N,36.54167,0833749W,-83.63028,1043.84,0,,,0.055034665
3540500,6,"EMORY RIVER AT OAKDALE, TENN.",6010208,764.0,D,E,0,TN,TN,129,355859N,35.98306,0843329W,-84.55806,761.38,0,,C,0.031077764
3545000,6,"HIWASSEE RIVER AT PRESLEY, GA.",6020002,45.5,D,E,0,GA,GA,281,345417N,34.90472,0834301W,-83.71694,1932.69,0,,,0.474439268
3550000,6,"VALLEY RIVER AT TOMOTLA, N. C.",6020002,104.0,D,E,0,NC,NC,39,350820N,35.13889,0835850W,-83.98056,1556.46,0,,,0.183988883
3550500,6,"NOTTELY RIVER NEAR BLAIRSVILLE, GA.",6020002,74.8,D,E,0,GA,GA,291,345028N,34.84111,0835610W,-83.93611,1812.47,0,,,0.394794986
3558000,6,"TOCCOA RIVER NEAR DIAL, GA.",6020003,177.0,D,E,0,GA,GA,111,344724N,34.79,0841424W,-84.24,1782.08,0,,,0.171189896
3560000,6,"FIGHTINGTOWN CREEK AT MCCAYSVILLE, GA.",6020003,70.9,D,E,0,GA,GA,111,345853N,34.98139,0842312W,-84.38667,1449.75,0,,,0.282626657
3568500,6,"CHATTANOOGA CREEK NEAR FLINTSTONE, GA",6020001,50.6,D,E,0,GA,GA,295,345820N,34.97222,0851940W,-85.32778,649.18,0,,,0.365735124
3571000,6,"SEQUATCHIE RIVER NEAR WHITWELL, TN",6020004,402.0,D,E,0,TN,TN,115,351222N,35.20611,0852948W,-85.49667,632.73,4,,,0.039069302
3574500,6,PAINT ROCK RIVER NEAR WOODVILLE AL,6030002,320.0,D,E,0,AL,AL,71,343727N,34.62417,0861823W,-86.30639,570.95,0,,C,0.048733349
3575000,6,FLINT RIVER NEAR CHASE AL,6030002,342.0,D,E,0,AL,AL,89,344922N,34.82278,0862859W,-86.48306,640.37,0,,,0.041978794
3586500,6,BIG NANCE CREEK AT COURTLAND AL,6030005,166.0,D,E,0,AL,AL,79,344012N,34.67,0871902W,-87.31722,537.6,0,,,0.026988984
3592500,6,"BEAR CREEK AT BISHOP,AL.",6030006,667.0,D,E,0,AL,AL,33,343921N,34.65583,0880721W,-88.1225,419.91,0,,,0.019547668
3603000,6,"DUCK RIVER ABOVE HURRICANE MILLS, TENN.",6040003,2557.0,D,P,1,TN,TN,85,355548N,35.93,0874435W,-87.74306,370.53,0,,,0.0071653
3604000,6,"BUFFALO RIVER NEAR FLAT WOODS, TN",6040004,447.0,D,E,0,TN,TN,135,352945N,35.49583,0874958W,-87.83278,513.58,0,B,,0.036609187
3604500,6,"BUFFALO RIVER NEAR LOBELVILLE, TENN.",6040004,707.0,D,E,0,TN,TN,135,354846N,35.81278,0874751W,-87.7975,403.02,0,,C,0.024506813
5244000,7,"CROW WING RIVER AT NIMROD, MN",7010106,1010.0,D,P,3,MN,MN,159,463825N,46.64028,0945244W,-94.87889,1313.27,0,,,0.241472736
5275000,7,"ELK RIVER NEAR BIG LAKE, MN",7010203,615.0,D,P,3,MN,MN,141,452002N,45.33389,0934000W,-93.66667,899.6,0,,,0.406003848
5280000,7,"CROW RIVER AT ROCKFORD, MN",7010204,2520.0,D,E,1,MN,MN,53,450512N,45.08667,0934402W,-93.73389,893.08,0,,C,0.118200816
5286000,7,"RUM RIVER NEAR ST. FRANCIS, MN",7010207,1360.0,D,E,1,MN,MN,3,451940N,45.32778,0932220W,-93.37222,860.74,0,,,0.176686584
5290000,7,"LITTLE MINNESOTA RIVER NEAR PEEVER, SD",7020001,447.0,D,E,1,MN,SD,109,453605N,45.60139,0965218W,-96.87167,1002.2,0,,,1.71363788
5291000,7,"WHETSTONE RIVER NEAR BIG STONE CITY, SD",7020001,389.0,D,E,1,MN,SD,51,451732N,45.29222,0962914W,-96.48722,996.96,0,,,1.560817689
5293000,7,"YELLOW BANK RIVER NEAR ODESSA, MN",7020001,398.0,D,E,1,MN,MN,73,451335N,45.22639,0962112W,-96.35333,953.34,0,,,1.355700563
5300000,7,"LAC QUI PARLE RIVER NEAR LAC QUI PARLE, MN",7020003,983.0,D,E,1,MN,MN,73,445942N,44.995,0955509W,-95.91917,951.98,0,,,0.625327369
5304500,7,"CHIPPEWA RIVER NEAR MILAN, MN",7020005,1870.0,D,E,1,MN,MN,23,450639N,45.11083,0954757W,-95.79917,959.69,0,,,0.28363028
5313500,7,"YELLOW MEDICINE RIVER NEAR GRANITE FALLS, MN",7020004,653.0,D,E,1,MN,MN,173,444318N,44.72167,0953107W,-95.51861,960.64,0,,,0.66424721
5316500,7,"REDWOOD RIVER NEAR REDWOOD FALLS, MN",7020006,629.0,D,E,1,MN,MN,127,443125N,44.52361,0951020W,-95.17222,972.33,0,,,0.640270844
5317000,7,"COTTONWOOD RIVER NEAR NEW ULM, MN",7020008,1280.0,D,E,1,MN,MN,15,441729N,44.29139,0942624W,-94.44,796.83,0,,,0.272923205
5320500,7,"LE SUEUR RIVER NEAR RAPIDAN, MN",7020011,1110.0,D,E,1,MN,MN,13,440640N,44.11111,0940228W,-94.04111,775.76,0,,,0.203363206
5333500,7,"ST. CROIX RIVER NEAR DANBURY, WI",7030001,1580.0,D,E,1,WI,WI,13,460428N,46.07444,0921450W,-92.24722,882.21,0,,,0.105744811
5336700,7,"KETTLE RIVER BELOW SANDSTONE, MN",7030003,863.0,D,E,1,MN,MN,115,460620N,46.10556,0925150W,-92.86389,931.5,0,,,0.16895341
5338500,7,"SNAKE RIVER NEAR PINE CITY, MN",7030004,958.0,D,E,4,MN,MN,115,455030N,45.84167,0925600W,-92.93333,919.0,0,,,0.208678977
5340500,7,"ST. CROIX RIVER AT ST. CROIX FALLS, WI",7030005,6240.0,D,E,1,WI,WI,95,452425N,45.40694,0923849W,-92.64694,689.94,0,,,0.028412069
5353800,7,"STRAIGHT RIVER NEAR FARIBAULT, MN",7040002,442.0,D,E,1,MN,MN,131,441529N,44.25806,0931351W,-93.23083,1034.58,0,,,0.331549241
5362000,7,"JUMP RIVER AT SHELDON, WI",7050004,576.0,D,E,1,WI,WI,107,451829N,45.30806,0905723W,-90.95639,1092.75,0,,C,0.252243134
5368000,7,"HAY RIVER AT WHEELER, WI",7050007,418.0,D,E,1,WI,WI,33,450252N,45.04778,0915439W,-91.91083,889.3,0,,,0.361601983
5374000,7,"ZUMBRO RIVER AT ZUMBRO FALLS, MN",7040004,1130.0,M,E,4,MN,MN,157,441712N,44.28667,0922556W,-92.43222,811.26,0,,,0.176585584
5376000,7,"NORTH FORK WHITEWATER RIVER NEAR ELBA, MN",7040003,101.0,D,E,4,MN,MN,169,440530N,44.09167,0920357W,-92.06583,769.6,0,B,,2.000419413
5379500,7,"TREMPEALEAU RIVER AT DODGE, WI",7040005,643.0,D,E,1,WI,WI,121,440755N,44.13194,0913314W,-91.55389,661.42,0,,,0.24818143
5381000,7,"BLACK RIVER AT NEILLSVILLE, WI",7040007,749.0,D,E,1,WI,WI,19,443334N,44.55944,0903652W,-90.61444,962.34,0,,,0.192938884
5383000,7,"LA CROSSE RIVER NEAR WEST SALEM, WI",7040006,398.0,D,E,1,WI,WI,63,435405N,43.90139,0910705W,-91.11806,668.0,0,,,0.355583077
5384000,7,"ROOT RIVER NEAR LANESBORO, MN",7040008,615.0,D,E,1,MN,MN,45,434458N,43.74944,0915843W,-91.97861,791.32,0,,,0.274870077
5385000,7,"ROOT RIVER NEAR HOUSTON, MN",7040008,1270.0,D,E,1,MN,MN,55,434607N,43.76861,0913411W,-91.56972,667.0,0,,,0.142536102
5387500,7,"UPPER IOWA RIVER AT DECORAH, IA",7060002,511.0,D,E,0,IA,IA,191,431819N,43.30528,0914748W,-91.79667,850.0,0,,,0.28238647
5393500,7,"SPIRIT RIVER AT SPIRIT FALLS, WI",7070001,81.6,D,E,1,WI,WI,69,452658N,45.44944,0895847W,-89.97972,1461.63,0,,,1.71398049
5394500,7,"PRAIRIE RIVER NEAR MERRILL, WI",7070002,184.0,D,E,1,WI,WI,69,451409N,45.23583,0893859W,-89.64972,1297.22,0,,,0.754874153
5397500,7,"EAU CLAIRE RIVER AT KELLY, WI",7070002,375.0,D,E,1,WI,WI,73,445506N,44.91833,0893300W,-89.55,1177.88,0,,,0.565184567
5399500,7,"BIG EAU PLEINE RIVER NEAR STRATFORD, WI",7070002,224.0,D,E,1,WI,WI,73,444919N,44.82194,0900446W,-90.07944,1154.24,0,,,0.651561311
5405000,7,"BARABOO RIVER NEAR BARABOO, WI",7070004,609.0,D,E,1,WI,WI,111,432851N,43.48083,0893809W,-89.63583,788.21,0,,,0.248553024
5408000,7,"KICKAPOO RIVER AT LA FARGE, WI",7070006,266.0,D,E,1,WI,WI,123,433427N,43.57417,0903835W,-90.64306,781.54,0,,,0.553386572
5410490,7,"KICKAPOO RIVER AT STEUBEN, WI",7070006,687.0,D,E,5,WI,WI,23,431058N,43.18278,0905130W,-90.85833,657.0,0,,,0.192641519
5412500,7,"TURKEY RIVER AT GARBER, IA",7060003,1545.0,D,P,2,IA,IA,43,424424N,42.74,0911542W,-91.26167,634.46,0,,,0.08843341
5413500,7,"GRANT RIVER AT BURTON, WI",7060003,269.0,D,E,1,WI,WI,43,424313N,42.72028,0904909W,-90.81917,606.43,0,,,0.527019107
5414000,7,"PLATTE RIVER NEAR ROCKVILLE, WI",7060003,142.0,D,E,1,WI,WI,43,424352N,42.73111,0903825W,-90.64028,642.5,0,,,0.882835449
5415000,7,"GALENA RIVER AT BUNCOMBE, WI",7060005,125.0,D,E,1,WI,WI,65,423049N,42.51361,0902240W,-90.37778,682.31,0,,,1.07101951
5418500,7,"MAQUOKETA RIVER NEAR MAQUOKETA, IA",7060006,1553.0,D,E,5,IA,IA,97,420505N,42.08472,0903804W,-90.63444,625.96,0,,,0.084769125
5419000,7,"APPLE RIVER NEAR HANOVER, IL",7060005,247.0,M,E,3,IL,IL,85,421505N,42.25139,0901710W,-90.28611,591.0,0,,,0.459290417
5420500,7,"MISSISSIPPI RIVER AT CLINTON, IA",7080101,85600.0,D,E,9,IA,IA,45,414653N,41.78139,0901504W,-90.25111,562.68,0,,,0.002142768
5421000,7,"WAPSIPINICON RIVER AT INDEPENDENCE, IA",7080102,1048.0,D,E,2,IA,IA,19,422749N,42.46361,0915342W,-91.895,882.85,0,,,0.140706972
5422000,7,"WAPSIPINICON RIVER NEAR DE WITT, IA",7080103,2330.0,D,E,0,IA,IA,45,414601N,41.76694,0903205W,-90.53472,598.81,0,,,0.052651991
5426000,7,"CRAWFISH RIVER AT MILFORD, WI",7090002,762.0,D,E,1,WI,WI,55,430600N,43.1,0885058W,-88.84944,779.4,0,,,0.230930579
5430500,7,"ROCK RIVER AT AFTON, WI",7090001,3340.0,D,E,1,WI,WI,105,423633N,42.60917,0890414W,-89.07056,742.36,0,,,0.050611839
5431486,7,"TURTLE CREEK AT CARVERS ROCK ROAD NR CLINTON, WI",7090001,199.0,D,E,4,WI,WI,105,423550N,42.59722,0884945W,-88.82917,823.0,1,,,0.692209616
5432500,7,"PECATONICA RIVER AT DARLINGTON, WI",7090003,273.0,D,E,1,WI,WI,65,424040N,42.67778,0900707W,-90.11861,802.42,0,,,0.478636004
5433000,7,"EAST BR PECATONICA R NR BLANCHARDVILLE, WI",7090003,221.0,D,E,1,WI,WI,65,424710N,42.78611,0895140W,-89.86111,796.8,0,,,0.628778505
5434500,7,"PECATONICA RIVER AT MARTINTOWN, WI",7090003,1034.0,D,E,1,WI,WI,45,423034N,42.50944,0894758W,-89.79944,757.83,0,,,0.11904614
5435500,7,"PECATONICA RIVER AT FREEPORT, IL",7090003,1326.0,D,E,0,IL,IL,177,421813N,42.30361,0893657W,-89.61583,743.18,0,,C,0.091620313
5436500,7,"SUGAR RIVER NEAR BRODHEAD, WI",7090004,523.0,D,E,1,WI,WI,45,423642N,42.61167,0892353W,-89.39806,768.14,0,,,0.237250204
5438500,7,"KISHWAUKEE RIVER AT BELVIDERE, IL",7090006,538.0,D,E,0,IL,IL,7,421522N,42.25611,0885150W,-88.86389,738.34,0,,,0.246252278
5440000,7,"KISHWAUKEE RIVER NEAR PERRYVILLE, IL",7090006,1099.0,D,E,0,IL,IL,201,421145N,42.19583,0885955W,-88.99861,692.13,0,,,0.120809564
5440500,7,"KILLBUCK CREEK NEAR MONROE CENTER, IL",7090006,117.0,D,E,0,IL,IL,141,420555N,42.09861,0890310W,-89.05278,734.27,0,,,1.475244342
5444000,7,"ELKHORN CREEK NEAR PENROSE, IL",7090005,146.0,D,E,0,IL,IL,195,415410N,41.90278,0894140W,-89.69444,657.85,0,,,0.863857868
5446500,7,"ROCK RIVER NEAR JOSLIN, IL",7090005,9549.0,M,E,3,IL,IL,161,413335N,41.55972,0901055W,-90.18194,564.06,0,,C,0.014080894
5447500,7,"GREEN RIVER NEAR GENESEO, IL",7090007,1003.0,D,E,0,IL,IL,73,412920N,41.48889,0900930W,-90.15833,580.66,0,,,0.128954366
5451500,7,"IOWA RIVER AT MARSHALLTOWN, IA",7080208,1564.0,D,E,3,IA,IA,127,420357N,42.06583,0925427W,-92.9075,853.1,0,,,0.092482373
5455500,7,"ENGLISH RIVER AT KALONA, IA",7080209,573.0,D,E,0,IA,IA,183,412759N,41.46639,0914256W,-91.71556,633.45,0,,,0.192239628
5457000,7,"CEDAR RIVER NEAR AUSTIN, MN",7080201,425.0,D,E,1,MN,MN,99,433811N,43.63639,0925826W,-92.97389,1162.1,0,,,0.420516846
5457700,7,"CEDAR RIVER AT CHARLES CITY, IA",7080201,1054.0,D,E,2,IA,IA,67,430345N,43.0625,0924023W,-92.67306,973.02,0,,,0.120868952
5458000,7,"LITTLE CEDAR RIVER NEAR IONIA, IA",7080201,306.0,D,E,0,IA,IA,37,430205N,43.03472,0923005W,-92.50139,973.35,0,,,0.506163548
5458500,7,"CEDAR RIVER AT JANESVILLE, IA",7080201,1661.0,D,E,5,IA,IA,17,423854N,42.64833,0922754W,-92.465,868.26,0,,,0.101233222
5459500,7,"WINNEBAGO RIVER AT MASON CITY, IA",7080203,526.0,D,E,3,IA,IA,33,430954N,43.165,0931133W,-93.1925,1069.59,0,,,0.346171538
5462000,7,"SHELL ROCK RIVER AT SHELL ROCK, IA",7080202,1746.0,D,E,2,IA,IA,23,423910N,42.65278,0923545W,-92.59583,885.34,0,,,0.089288051
5464000,7,"CEDAR RIVER AT WATERLOO, IA",7080205,5146.0,D,E,5,IA,IA,13,422944N,42.49556,0922003W,-92.33417,824.14,0,,,0.027907376
5464500,7,"CEDAR RIVER AT CEDAR RAPIDS, IA",7080205,6510.0,D,E,7,IA,IA,113,415814N,41.97056,0914001W,-91.66694,700.47,0,,C,0.023837652
5466000,7,"EDWARDS RIVER NEAR ORION, IL",7080104,155.0,D,E,0,IL,IL,73,411620N,41.27222,0902240W,-90.37778,653.96,0,,,0.716553498
5470000,7,"SOUTH SKUNK RIVER NEAR AMES, IA",7080105,315.0,D,E,3,IA,IA,169,420405N,42.06806,0933702W,-93.61722,893.61,0,,,0.436950476
5470500,7,"SQUAW CREEK AT AMES, IA",7080105,204.0,D,E,3,IA,IA,169,420121N,42.0225,0933745W,-93.62917,881.0,0,,,0.502872839
5472500,7,"NORTH SKUNK RIVER NEAR SIGOURNEY, IA",7080106,730.0,D,E,0,IA,IA,107,411803N,41.30083,0921216W,-92.20444,651.53,0,,,0.159215289
5474000,7,"SKUNK RIVER AT AUGUSTA, IA",7080107,4303.0,D,E,6,IA,IA,57,404513N,40.75361,0911640W,-91.27778,521.24,0,,,0.027853558
5474500,7,"MISSISSIPPI RIVER AT KEOKUK, IOWA",7080104,119000.0,D,E,12,IA,IA,111,402337N,40.39361,0912227W,-91.37417,477.41,0,,C,0.001497296
5476000,7,"DES MOINES RIVER AT JACKSON, MN",7100001,1220.0,D,E,1,MN,MN,63,433710N,43.61944,0945910W,-94.98611,1287.75,0,,,0.260869048
5476500,7,"DES MOINES RIVER AT ESTHERVILLE, IA",7100002,1372.0,D,E,3,IA,IA,63,432351N,43.3975,0945038W,-94.84389,1247.55,0,,,0.215931678
5479000,7,"EAST FORK DES MOINES RIVER AT DAKOTA CITY, IA",7100003,1308.0,D,E,0,IA,IA,91,424326N,42.72389,0941130W,-94.19167,1038.71,0,,,0.140374484
5480500,7,"DES MOINES RIVER AT FORT DODGE, IA",7100004,4190.0,D,E,7,IA,IA,187,423022N,42.50611,0941204W,-94.20111,969.38,0,,C,0.04921412
5481000,7,"BOONE RIVER NEAR WEBSTER CITY, IA",7100005,844.0,D,E,0,IA,IA,79,422601N,42.43361,0934812W,-93.80333,989.57,0,,,0.181070044
5481300,7,"DES MOINES RIVER NEAR STRATFORD, IA",7100004,5452.0,D,E,7,IA,IA,187,421504N,42.25111,0935952W,-93.99778,894.0,0,,,0.039009149
5482500,7,"NORTH RACCOON RIVER NEAR JEFFERSON, IA",7100006,1619.0,D,E,0,IA,IA,73,415917N,41.98806,0942236W,-94.37667,967.09,0,,,0.0990835
5484000,7,"SOUTH RACCOON RIVER AT REDFIELD, IA",7100007,994.0,D,E,3,IA,IA,49,413522N,41.58944,0940933W,-94.15917,876.43,0,,,0.153472834
5484500,7,"RACCOON RIVER AT VAN METER, IA",7100006,3441.0,D,E,6,IA,IA,49,413202N,41.53389,0935659W,-93.94972,841.16,0,,,0.050278618
5486490,7,"MIDDLE RIVER NEAR INDIANOLA, IA",7100008,503.0,D,E,0,IA,IA,181,412527N,41.42417,0933509W,-93.58583,776.15,0,,,0.235046197
5489000,7,"CEDAR CREEK NEAR BUSSEY, IA",7100009,374.0,D,E,0,IA,IA,125,411309N,41.21917,0925438W,-92.91056,682.15,0,,,0.333684824
5490500,7,"DES MOINES RIVER AT KEOSAUQUA, IA",7080107,14038.0,D,P,8,IA,IA,177,404340N,40.72778,0915734W,-91.95944,547.36,0,,,0.013988762
5495000,7,"FOX RIVER AT WAYLAND, MO.",7100009,400.0,D,E,0,MO,MO,45,402333N,40.3925,0913550W,-91.59722,501.52,0,,,0.262308635
5497000,7,"NORTH FABIUS RIVER AT MONTICELLO, MO",7110002,452.0,D,E,0,MO,MO,111,400630N,40.10833,0914251W,-91.71417,540.73,0,,,0.222260951
5498000,7,"MIDDLE FABIUS RIVER NEAR MONTICELLO, MO.",7110002,393.0,D,E,0,MO,MO,111,400537N,40.09361,0914408W,-91.73556,540.46,0,,,0.233515957
5500000,7,"SOUTH FABIUS RIVER NEAR TAYLOR, MO",7110003,620.0,D,E,0,MO,MO,127,395349N,39.89694,0913449W,-91.58028,482.91,0,,,0.14492716
5501000,7,"NORTH RIVER AT PALMYRA, MO",7110004,373.0,D,E,0,MO,MO,127,394906N,39.81833,0913113W,-91.52028,464.81,0,,,0.210220088
5506500,7,"MIDDLE FORK SALT RIVER AT PARIS, MO.",7110006,356.0,D,E,0,MO,MO,137,392901N,39.48361,0920049W,-92.01361,630.0,0,,,0.223859596
5514500,7,"CUIVRE RIVER NEAR TROY, MO",7110008,903.0,D,E,0,MO,MO,113,390059N,39.01639,0905900W,-90.98333,450.27,0,,,0.087848966
5519000,7,"SINGLETON DITCH AT SCHNEIDER, IND.",7120001,123.0,D,E,0,IN,IN,89,411244N,41.21222,0872644W,-87.44556,623.67,0,,,0.960240894
5520500,7,"KANKAKEE RIVER AT MOMENCE, IL",7120001,2294.0,D,E,0,IL,IL,91,410936N,41.16,0874007W,-87.66861,609.18,0,,,0.0543815
5521000,7,"IROQUOIS RIVER AT ROSEBUD, IND.",7120002,35.6,D,E,0,IN,IN,73,410200N,41.03333,0871049W,-87.18028,661.47,0,,,3.406094367
5525000,7,"IROQUOIS RIVER AT IROQUOIS, IL",7120002,686.0,D,E,0,IL,IL,75,404925N,40.82361,0873455W,-87.58194,614.34,0,,,0.1537587
5526000,7,"IROQUOIS RIVER NEAR CHEBANSE, IL",7120002,2091.0,D,E,0,IL,IL,91,410032N,41.00889,0874927W,-87.82417,595.99,0,,,0.044570931
5527500,7,"KANKAKEE RIVER NEAR WILMINGTON, IL",7120001,5150.0,M,E,4,IL,IL,197,412048N,41.34667,0881111W,-88.18639,510.86,0,,,0.021511638
5542000,7,"MAZON RIVER NEAR COAL CITY, IL",7120005,455.0,D,E,0,IL,IL,63,411710N,41.28611,0882135W,-88.35972,527.41,0,,,0.217166896
5546500,7,"FOX RIVER AT WILMOT, WI",7120006,868.0,D,E,1,WI,WI,59,423040N,42.51111,0881045W,-88.17917,735.22,0,,,0.171850781
5555300,7,"VERMILION RIVER NEAR LEONORE, IL",7130002,1251.0,D,E,5,IL,IL,99,411230N,41.20833,0885551W,-88.93083,520.58,0,,C,0.066138978
5555500,7,"VERMILION RIVER AT LOWELL, IL",7130002,1278.0,D,E,3,IL,IL,99,411519N,41.25528,0890044W,-89.01222,500.61,0,,C,0.097476903
5556500,7,"BIG BUREAU CREEK AT PRINCETON, IL",7130001,196.0,D,E,0,IL,IL,11,412155N,41.36528,0892955W,-89.49861,555.39,0,,,0.640620265
5559500,7,"CROW CREEK NEAR WASHBURN, IL",7130001,115.0,D,E,0,IL,IL,123,405715N,40.95417,0891830W,-89.30833,557.7,0,,,1.12846395
5567500,7,"MACKINAW RIVER NEAR CONGERVILLE, IL",7130004,767.0,D,E,0,IL,IL,203,403725N,40.62361,0891430W,-89.24167,607.01,0,,,0.123074192
5569500,7,"SPOON RIVER AT LONDON MILLS, IL",7130005,1072.0,D,E,0,IL,IL,57,404232N,40.70889,0901653W,-90.28139,508.97,0,,,0.10299821
5570000,7,"SPOON RIVER AT SEVILLE, IL",7130005,1636.0,D,E,0,IL,IL,57,402908N,40.48556,0902034W,-90.34278,467.04,0,,,0.067000178
5571000,7,"SANGAMON RIVER AT MAHOMET, IL",7130006,362.0,D,E,0,IL,IL,19,401130N,40.19167,0882400W,-88.4,664.98,0,,,0.246995329
5572000,7,"SANGAMON RIVER AT MONTICELLO, IL",7130006,550.0,D,E,0,IL,IL,147,400151N,40.03083,0883520W,-88.58889,625.89,0,,C,0.161824166
5580500,7,"KICKAPOO CREEK NEAR LINCOLN, IL",7130009,306.0,D,E,0,IL,IL,107,401130N,40.19167,0892140W,-89.36111,557.08,0,,,0.328667325
5585000,7,"LA MOINE RIVER AT RIPLEY, IL",7130010,1293.0,D,E,0,IL,IL,9,400131N,40.02528,0903755W,-90.63194,431.1,0,,,0.08480864
5592500,7,"KASKASKIA RIVER AT VANDALIA, IL",7140202,1940.0,D,P,1,IL,IL,51,385735N,38.95972,0890520W,-89.08889,453.3,0,,,0.039836371
5593000,7,"KASKASKIA RIVER AT CARLYLE, IL",7140202,2719.0,D,P,1,IL,IL,27,383642N,38.61167,0892122W,-89.35611,402.92,0,,,0.028277207
5595000,7,"KASKASKIA RIVER AT NEW ATHENS, IL",7140204,5181.0,D,P,1,IL,IL,163,381945N,38.32917,0895245W,-89.87917,359.5,0,,,0.014351525
5596000,7,"BIG MUDDY RIVER NEAR BENTON, IL",7140106,502.0,D,E,1,IL,IL,55,375940N,37.99444,0885830W,-88.975,365.51,0,,,0.120039761
5597000,7,"BIG MUDDY RIVER AT PLUMFIELD, IL",7140106,794.0,D,P,1,IL,IL,55,375405N,37.90139,0890050W,-89.01389,353.24,0,,,0.078370294
7013000,7,"MERAMEC RIVER NEAR STEELVILLE, MO",7140102,781.0,D,E,0,MO,MO,55,375958N,37.99944,0912139W,-91.36083,681.68,0,,,0.070105352
7016500,7,"BOURBEUSE RIVER AT UNION, MO",7140103,808.0,D,E,0,MO,MO,71,382645N,38.44583,0905930W,-90.99167,488.58,0,,,0.082261501
7018100,7,"BIG RIVER NEAR RICHWOODS, MO",7140104,735.0,D,E,0,MO,MO,99,380934N,38.15944,0904222W,-90.70611,523.0,0,,,0.064679369
7018500,7,BIG RIVER AT BYRNESVILLE,7140104,917.0,D,E,0,MO,MO,99,382145N,38.3625,0903905W,-90.65139,433.69,0,,,0.054758387
7019000,7,"MERAMEC RIVER NEAR EUREKA, MO",7140102,3788.0,D,E,0,MO,MO,189,383020N,38.50556,0903530W,-90.59167,404.18,0,,,0.015317294
7021000,7,"CASTOR RIVER AT ZALMA, MO",7140107,423.0,D,E,0,MO,MO,17,370848N,37.14667,0900432W,-90.07556,350.38,0,,,0.10571706
7029500,8,"HATCHIE RIVER AT BOLIVAR, TN",8010208,1480.0,D,E,0,TN,TN,69,351631N,35.27528,0885836W,-88.97667,323.49,0,,,0.011625448
7077380,8,"CACHE RIVER AT EGYPT, ARK",8020302,701.0,D,E,0,AR,AR,31,355128N,35.85778,0905600W,-90.93333,222.99,0,,,0.036476689
7268000,8,"LITTLE TALLAHATCHIE RIVER AT ETTA, MS",8030201,526.0,D,E,0,MS,MS,145,342900N,34.48333,0891330W,-89.225,273.48,0,,,0.019620538
7289500,8,"BIG BLACK RIVER AT PICKENS, MS",8060201,1493.0,D,E,0,MS,MS,51,325250N,32.88056,0895758W,-89.96611,196.26,0,,,0.010104463
7290000,8,"BIG BLACK RIVER NR BOVINA, MS",8060202,2812.0,D,E,0,MS,MS,49,322051N,32.3475,0904148W,-90.69667,84.93,0,,C,0.004121383
7290650,8,"BAYOU PIERRE NR WILLOWS, MS",8060203,654.0,D,E,0,MS,MS,21,320055N,32.01528,0905300W,-90.88333,82.32,0,,,0.010854406
7291000,8,"HOMOCHITTO RIVER AT EDDICETON, MS",8060205,181.0,D,E,0,MS,MS,37,313010N,31.50278,0904635W,-90.77639,212.22,0,,,0.037582746
7361500,8,"ANTOINE RIVER AT ANTOINE, ARKANSAS",8040103,178.0,D,E,0,AR,AR,109,340220N,34.03889,0932505W,-93.41806,229.33,0,,,0.093278756
7363300,8,"HURRICANE CR NR SHERIDAN, ARK",8040203,204.0,D,E,0,AR,AR,53,341910N,34.31944,0922040W,-92.34444,200.0,0,,,0.084224543
7363500,8,"SALINE RIVER NEAR RYE, ARK.",8040204,2102.0,D,E,0,AR,AR,11,334203N,33.70083,0920133W,-92.02583,97.06,0,,C,0.00794807
7365800,8,CORNIE BAYOU NEAR THREE CREEKS,8040206,180.0,D,E,0,AR,AR,139,330221N,33.03917,0925615W,-92.9375,-99.0,0,,,0.084533404
7366200,8,"LITTLE CORNEY BAYOU NEAR LILLIE, LA",8040206,208.0,D,E,0,LA,LA,111,325545N,32.92917,0923758W,-92.63278,91.48,0,,,0.066803337
7369500,8,"TENSAS RIVER AT TENDAL, LA",8050003,309.0,M,P,7,LA,LA,65,322555N,32.43194,0912200W,-91.36667,50.07,0,,,0.046890653
7373000,8,"BIG CREEK AT POLLOCK, LA.",8040304,51.0,D,E,0,LA,LA,43,313210N,31.53611,0922430W,-92.40833,80.0,0,B,,0.149475264
7375500,8,"TANGIPAHOA RIVER AT ROBERT,LA",8070205,646.0,D,E,0,LA,LA,105,303023N,30.50639,0902142W,-90.36167,6.87,0,,,0.005887859
7378500,8,"AMITE RIVER NEAR DENHAM SPRINGS, LA.",8070202,1280.0,D,E,0,LA,LA,32,302750N,30.46389,0905925W,-90.99028,0.0,0,,C,0.00388096
8010000,8,"BAYOU DES CANNES NEAR EUNICE, LA",8080201,131.0,M,P,3,LA,LA,97,302900N,30.48333,0922925W,-92.49028,14.84,0,,,0.019260542
8013000,8,"CALCASIEU RIVER NEAR GLENMORA, LA",8080203,499.0,D,E,0,LA,LA,79,305945N,30.99583,0924025W,-92.67361,110.77,0,,,0.013283885
8013500,8,"CALCASIEU RIVER NEAR OBERLIN, LA.",8080203,753.0,D,E,0,LA,LA,3,303825N,30.64028,0924850W,-92.81389,39.43,0,,C,0.008003825
8015500,8,"CALCASIEU RIVER NR KINDER, LA",8080203,1700.0,D,E,0,LA,LA,3,303010N,30.50278,0925455W,-92.91528,11.95,0,,,0.003149712
5051600,9,"WILD RICE RIVER NR RUTLAND, ND",9020105,546.0,D,P,1,ND,ND,81,460120N,46.02222,0973040W,-97.51111,1197.73,46,,,9.460504966
5053000,9,"WILD RICE RIVER NR ABERCROMBIE, ND",9020105,2080.0,D,E,1,ND,ND,77,462805N,46.46806,0964700W,-96.78333,907.94,28,,,1.048589039
5054500,9,"SHEYENNE RIVER ABOVE HARVEY, ND",9020202,424.0,D,E,0,ND,ND,103,474210N,47.70278,0995655W,-99.94861,1547.3,64,,,10.08114458
5056000,9,"SHEYENNE RIVER NR WARWICK, ND",9020203,2070.0,D,E,0,ND,ND,27,474820N,47.80556,0984257W,-98.71583,1370.0,63,,,1.493110529
5056100,9,"MAUVAIS COULEE NR CANDO, ND",9020201,387.0,D,P,1,ND,ND,95,482653N,48.44806,0990608W,-99.10222,1445.0,3,,,4.886212561
5056200,9,"EDMORE COULEE NR EDMORE, ND",9020201,382.0,D,P,1,ND,ND,71,482014N,48.33722,0983933W,-98.65917,1400.0,26,,,5.894541282
5057000,9,"SHEYENNE RIVER NR COOPERSTOWN, ND",9020203,6470.0,D,P,2,ND,ND,39,472558N,47.43278,0980138W,-98.02722,1271.76,80,,,0.79896068
5057200,9,"BALDHILL CREEK NR DAZEY, ND",9020203,691.0,D,E,0,ND,ND,3,471345N,47.22917,0980728W,-98.12444,1330.0,49,,,5.077888258
5059600,9,"MAPLE RIVER NR HOPE, ND",9020205,20.2,D,P,1,ND,ND,91,471930N,47.325,0974725W,-97.79028,1296.62,14,,,28.41112155
5059700,9,"MAPLE RIVER NR ENDERLIN, ND",9020205,843.0,D,E,0,ND,ND,73,463718N,46.62167,0973425W,-97.57361,1056.72,6,,,1.868847716
5060500,9,"RUSH RIVER AT AMENIA, ND",9020204,116.0,D,E,0,ND,ND,17,470100N,47.01667,0971250W,-97.21389,943.0,0,,,7.705501119
5062000,9,"BUFFALO RIVER NEAR DILWORTH, MN",9020106,1040.0,D,E,1,MN,MN,27,465740N,46.96111,0963940W,-96.66111,878.31,0,,C,0.651768041
5062500,9,"WILD RICE RIVER AT TWIN VALLEY, MN",9020108,888.0,D,E,1,MN,MN,107,471600N,47.26667,0961440W,-96.24444,1008.16,0,,,0.657012462
5064900,9,"BEAVER CREEK NR FINLEY, ND",9020109,160.0,D,P,2,ND,ND,91,473540N,47.59444,0974218W,-97.705,1170.08,0,B,,10.78974587
5066500,9,"GOOSE RIVER AT HILLSBORO, ND",9020109,1203.0,D,P,2,ND,ND,97,472434N,47.40944,0970339W,-97.06083,879.52,9,,,1.119730283
5069000,9,"SAND HILL RIVER AT CLIMAX, MN",9020301,426.0,D,E,1,MN,MN,119,473643N,47.61194,0964852W,-96.81444,820.1,0,,,1.446645561
5078000,9,"CLEARWATER RIVER AT PLUMMER, MN",9020305,512.0,D,P,4,MN,MN,125,475524N,47.92333,0960246W,-96.04611,1098.57,0,,,0.612079457
5078500,9,"CLEARWATER RIVER AT RED LAKE FALLS, MN",9020305,1370.0,D,P,4,MN,MN,125,475315N,47.8875,0961625W,-96.27361,948.94,0,,,0.359500846
5083600,9,"MIDDLE BRANCH FOREST RIVER NR WHITMAN, ND",9020308,47.7,D,E,0,ND,ND,99,481450N,48.24722,0980700W,-98.11667,1510.0,19,,,32.79553023
5084000,9,"FOREST RIVER NR FORDVILLE, ND",9020308,456.0,D,E,0,ND,ND,99,481150N,48.19722,0974349W,-97.73028,1035.0,26,,,2.521872788
5098700,9,"HIDDEN ISLAND COULEE NR HANSBORO, ND",9020313,38.0,D,E,0,ND,ND,95,485710N,48.95278,0992535W,-99.42639,1615.0,0,,,28.5284292
5098800,9,"CYPRESS CREEK NR SARLES, ND",9020313,71.0,D,E,0,ND,ND,19,485635N,48.94306,0985705W,-98.95139,1545.0,0,,,15.16234836
5099100,9,"SNOWFLAKE CREEK NEAR SNOWFLAKE, MANITOBA",9020313,348.0,D,E,2,ND,MB,19,490117N,49.02139,0983613W,-98.60361,1222.63,0,,,5.59865992
5107500,9,"ROSEAU RIVER AT ROSS, MN",9020314,1220.0,D,E,1,MN,MN,135,485437N,48.91028,0955518W,-95.92167,1018.61,0,,,0.389815065
5112000,9,"ROSEAU RIVER BELOW STATE DITCH 51 NR CARIBOU, MN",9020314,1570.0,D,E,1,MN,MN,69,485854N,48.98167,0962746W,-96.46278,1002.31,0,,,0.35241553
5113800,9,"SHORT C BEL INTNL BDRY NR ROCHE PERCEE, SASK.",9010001,480.0,D,E,2,ND,SK,13,490142N,49.02833,1025100W,-102.85,1769.0,0,,,6.544447718
5120500,9,"WINTERING RIVER NR KARLSRUHE, ND",9010003,705.0,D,E,0,ND,ND,49,481014N,48.17056,1003220W,-100.53889,1480.0,60,,,6.787703988
5123400,9,"WILLOW CREEK NR WILLOW CITY, ND",9010004,1160.0,D,E,0,ND,ND,49,483520N,48.58889,1002630W,-100.44167,1430.0,37,,,2.301008547
5123900,9,"BOUNDARY CREEK NR LANDA, ND",9010003,230.0,D,P,1,ND,ND,9,484846N,48.81278,1005146W,-100.86278,1420.03,26,,,6.707538673
5124480,9,"KAWISHIWI RIVER NEAR ELY, MN",9030001,253.0,D,E,1,MN,MN,75,475522N,47.92278,0913206W,-91.535,1450.0,0,B,,0.759820287
5130500,9,"STURGEON RIVER NEAR CHISHOLM, MN",9030005,187.0,D,E,1,MN,MN,137,474025N,47.67361,0925400W,-92.9,1305.7,0,,,1.143069968
5131500,9,"LITTLE FORK RIVER AT LITTLEFORK, MN",9030005,1730.0,D,E,1,MN,MN,71,482345N,48.39583,0933257W,-93.54917,1083.59,0,,,0.134686661
5132000,9,"BIG FORK RIVER AT BIG FALLS, MN",9030006,1460.0,M,E,4,MN,MN,71,481145N,48.19583,0934825W,-93.80694,1144.71,0,,,0.18559959
5134200,9,"RAPID RIVER NEAR BAUDETTE, MN",9030007,543.0,D,E,1,MN,MN,77,483210N,48.53611,0943345W,-94.5625,1093.92,0,,,0.318076459
6019500,10,RUBY RIVER ABOVE RESERVOIR NEAR ALDER MT,10020003,538.0,D,E,0,MT,MT,57,451031N,45.17528,1120852W,-112.14778,5440.2,0,,,1.535186716
6037500,10,"MADISON RIVER NEAR WEST YELLOWSTONE, MT.",10020007,420.0,D,E,0,MT,MT,31,443925N,44.65694,1110403W,-111.0675,6650.0,0,,,1.638717117
6043500,10,GALLATIN RIVER NEAR GALLATIN GATEWAY MT,10020008,825.0,D,E,0,MT,MT,31,452951N,45.4975,1112512W,-111.42,5167.67,0,,,0.733881998
6061500,10,"PRICKLY PEAR CREEK NEAR CLANCY, MT.",10030101,192.0,D,E,0,MT,MT,43,463109N,46.51917,1115645W,-111.94583,4067.1,0,,,5.256338226
6077000,10,SHEEP CREEK NEAR WHITE SULPHUR SPRINGS MT,10030103,42.8,D,E,0,MT,MT,59,464605N,46.76806,1104833W,-110.80917,5820.0,0,,,18.35701919
6078500,10,NORTH FORK SUN RIVER NEAR AUGUSTA MT,10030104,258.0,D,E,0,MT,MT,99,473827N,47.64083,1125134W,-112.85944,4785.72,0,,,2.001752732
6090500,10,"BELT CREEK NEAR MONARCH, MT.",10030105,368.0,D,E,0,MT,MT,13,471227N,47.2075,1105533W,-110.92583,3962.25,0,,,2.152693433
6131000,10,"BIG DRY CREEK NEAR VAN NORMAN, MT.",10040105,2554.0,D,E,0,MT,MT,33,472058N,47.34944,1062126W,-106.35722,2330.0,0,,,1.292731542
6169500,10,"ROCK CREEK BELOW HORSE CREEK, NEAR INT BOUNDARY",10050015,328.0,D,E,0,MT,MT,105,485810N,48.96944,1065020W,-106.83889,2530.0,0,B,,3.743946333
6177500,10,REDWATER RIVER AT CIRCLE MT,10060002,547.0,D,E,0,MT,MT,55,472451N,47.41417,1053430W,-105.575,2394.32,0,,,4.447377788
6186500,10,"YELLOWSTONE RIVER AT YELLOWSTONE LK OUTLET, YNP",10070001,1006.0,D,E,0,MT,WY,39,443403N,44.5675,1102248W,-110.38,7729.58,0,,,0.645667328
6188000,10,"LAMAR RIVER NR TOWER FALLS RANGER STATION, YNP",10070001,660.0,D,E,0,MT,WY,29,445540N,44.92778,1102335W,-110.39306,6000.0,0,,,0.865836764
6191000,10,GARDNER RIVER NEAR MAMMOTH YNP,10070001,202.0,D,E,0,MT,MT,67,445933N,44.9925,1104126W,-110.69056,5623.97,0,,,2.732769025
6191500,10,"YELLOWSTONE RIVER AT CORWIN SPRINGS, MT.",10070002,2623.0,D,E,0,MT,MT,67,450643N,45.11194,1104737W,-110.79361,5079.09,0,,C,0.230600256
6192500,10,"YELLOWSTONE RIVER NEAR LIVINGSTON, MT.",10070002,3551.0,D,E,0,MT,MT,67,453550N,45.59722,1103355W,-110.56528,4542.49,0,,,0.174243988
6207500,10,CLARKS FORK YELLOWSTONE RIVER NEAR BELFRY MT,10070006,1154.0,D,E,0,MT,MT,9,450037N,45.01028,1090353W,-109.06472,3986.24,0,,,0.502881209
6209500,10,"ROCK CREEK NEAR RED LODGE, MT.",10070006,124.0,D,E,0,MT,MT,9,450715N,45.12083,1091745W,-109.29583,6100.52,0,,,2.858642315
6214500,10,YELLOWSTONE RIVER AT BILLINGS MT,10070007,11795.0,D,E,1,MT,MT,111,454748N,45.79667,1082812W,-108.47,3081.36,0,,C,0.056516148
6218500,10,"WIND RIVER NEAR DUBOIS, WYO.",10080001,232.0,D,E,0,WY,WY,13,433443N,43.57861,1094533W,-109.75917,7188.71,0,,,3.954257888
6221400,10,"DINWOODY CREEK ABOVE LAKES, NEAR BURRIS, WYO.",10080001,88.2,D,E,0,WY,WY,13,432044N,43.34556,1092434W,-109.40944,6500.0,0,,,5.410313306
6222700,10,CROW C NR TIPPERARY WYO,10080001,30.2,D,E,0,WY,WY,13,433437N,43.57694,1091542W,-109.26167,8600.0,0,,,24.375549
6224000,10,BULL LAKE C AB BULL LAKE WYO,10080001,187.0,D,E,0,WY,WY,13,431037N,43.17694,1091208W,-109.20222,5874.0,0,,,2.221342925
6233000,10,"LITTLE POPO AGIE RIVER NEAR LANDER, WYO.",10080003,125.0,D,P,2,WY,WY,13,424300N,42.71667,1083834W,-108.64278,5436.49,0,,,6.725269289
6265800,10,"GOOSEBERRY CREEK AT DICKIE, WYO.",10080007,95.0,D,E,0,WY,WY,17,440000N,44.0,1084525W,-108.75694,5750.0,0,,,12.66632559
6270000,10,"NOWOOD R NR TENSLEEP, WY",10080008,803.0,D,E,0,WY,WY,43,440048N,44.01333,1072539W,-107.4275,4420.0,0,,,2.063987236
6271000,10,"TENSLEEP CREEK NEAR TENSLEEP, WYO.",10080008,247.0,D,P,2,WY,WY,43,440328N,44.05778,1072314W,-107.38722,4667.59,0,,,2.938639826
6273000,10,"MEDICINE LODGE CREEK NEAR HYATTVILLE, WYO.",10080008,86.8,D,E,0,WY,WY,3,441737N,44.29361,1073223W,-107.53972,4780.0,0,,,13.25139698
6280300,10,"SOUTH FORK SHOSHONE RIVER NEAR VALLEY, WYO.",10080013,297.0,D,E,0,WY,WY,29,441230N,44.20833,1093315W,-109.55417,6200.0,0,,,1.614412888
6288200,10,"BEAUVAIS CREEK NEAR ST. XAVIER, MT.",10080015,100.0,D,E,2,MT,MT,3,452840N,45.47778,1080033W,-108.00917,3350.0,0,B,,7.286562682
6289000,10,LITTLE BIGHORN RIVER AT STATE LINE NEAR WYOLA MT,10080016,193.0,D,E,0,MT,MT,3,450025N,45.00694,1073652W,-107.61444,4350.0,0,,,3.374710951
6297000,10,"SOUTH TONGUE RIVER NEAR DAYTON, WYOMING",10090101,85.0,D,P,2,WY,WY,33,444702N,44.78389,1072810W,-107.46944,7621.78,0,,,7.813782399
6298000,10,TONGUE RIVER NR DAYTON WYO,10090101,204.0,D,E,4,WY,WY,33,445058N,44.84944,1071814W,-107.30389,4060.0,0,,C,3.207701449
6299500,10,"WOLF CREEK AT WOLF,WYO.",10090101,37.8,D,P,2,WY,WY,33,444621N,44.7725,1071401W,-107.23361,4525.0,0,,,17.10847124
6318500,10,"CLEAR CREEK NEAR BUFFALO, WYO.",10090206,120.0,D,P,2,WY,WY,19,441958N,44.33278,1064636W,-106.77667,5184.83,0,,,8.12394089
6331000,10,"LITTLE MUDDY RIVER BL COW CREEK NR WILLISTON, ND",10110102,875.0,D,P,1,ND,ND,105,481704N,48.28444,1033421W,-103.5725,1863.18,11,,,2.150015771
6332515,10,"BEAR DEN CREEK NR MANDAREE, ND",10110101,74.0,D,E,0,ND,ND,53,474714N,47.78722,1024605W,-102.76806,1947.58,0,B,,8.531868511
6334500,10,LITTLE MISSOURI R AT CAMP CROOK SD,10110201,1970.0,D,E,0,SD,SD,63,453249N,45.54694,1035823W,-103.97306,3108.98,0,,,0.852442733
6335500,10,"LITTLE MISSOURI RIVER AT MARMARTH, ND",10110203,4640.0,D,E,0,ND,ND,87,461744N,46.29556,1035506W,-103.91833,2686.32,0,,,0.295644769
6337000,10,"LITTLE MISSOURI RIVER NR WATFORD CITY, ND",10110205,8310.0,D,E,0,ND,ND,53,473525N,47.59028,1031505W,-103.25139,1929.03,0,,,0.147933638
6339100,10,"KNIFE RIVER AT MANNING, ND",10130201,205.0,D,E,0,ND,ND,25,471410N,47.23611,1024610W,-102.76944,2156.55,0,,,3.042618083
6339500,10,"KNIFE RIVER NR GOLDEN VALLEY, ND",10130201,1230.0,D,P,2,ND,ND,57,470940N,47.16111,1020339W,-102.06083,1847.13,0,,,0.727338833
6340500,10,"KNIFE RIVER AT HAZEN, ND",10130201,2240.0,D,P,3,ND,ND,57,471707N,47.28528,1013718W,-101.62167,1712.35,0,,,0.379158956
6344600,10,"GREEN RIVER NR NEW HRADEC, ND",10130202,152.0,D,E,0,ND,ND,7,470140N,47.02778,1030310W,-103.05278,2510.0,0,,,3.922273908
6349500,10,"APPLE CREEK NR MENOKEN, ND",10130103,1680.0,D,E,0,ND,ND,15,464740N,46.79444,1003925W,-100.65694,1638.61,30,,,2.306853091
6350000,10,"CANNONBALL RIVER AT REGENT, ND",10130204,580.0,D,E,0,ND,ND,41,462536N,46.42667,1023305W,-102.55139,2422.9,0,,,1.553816471
6352000,10,"CEDAR CREEK NR HAYNES, ND",10130205,553.0,D,E,0,ND,ND,1,460915N,46.15417,1022825W,-102.47361,2472.9,0,,,1.972367028
6353000,10,"CEDAR CREEK NR RALEIGH, ND",10130205,1750.0,D,E,0,ND,ND,85,460500N,46.08333,1012000W,-101.33333,1881.23,0,,,0.672268675
6354000,10,"CANNONBALL RIVER AT BREIEN, ND",10130206,4100.0,D,E,0,ND,ND,85,462233N,46.37583,1005603W,-100.93417,1673.54,0,,C,0.274416133
6354500,10,"BEAVER CREEK AT LINTON, ND",10130104,717.0,D,E,0,ND,ND,29,461527N,46.2575,1001358W,-100.23278,1690.55,14,,,1.794766778
6356500,10,SOUTH FORK GRAND R NEAR CASH SD,10130302,1350.0,D,E,0,SD,SD,105,453856N,45.64889,1023827W,-102.64083,2422.0,0,,,1.55574183
6359500,10,MOREAU R NEAR FAITH SD,10130306,2660.0,D,E,0,SD,SD,105,451152N,45.19778,1020922W,-102.15611,2238.68,0,,,0.67398951
6395000,10,CHEYENNE R AT EDGEMONT SD,10120106,7143.0,D,E,0,SD,SD,47,431820N,43.30556,1034914W,-103.82056,3414.0,0,,,1.393884362
6409000,10,CASTLE CR ABOVE DEERFIELD RES NEAR HILL CITY SD,10120110,79.2,D,E,0,SD,SD,103,440049N,44.01361,1034948W,-103.83,5920.0,0,B,,34.25642643
6425500,10,ELK CR NEAR ELM SPRINGS SD,10120111,540.0,D,E,0,SD,SD,93,441454N,44.24833,1023010W,-102.50278,2304.49,0,,,5.486292108
6426500,10,"BELLE FOURCHE RIVER BELOW MOORCROFT, WYO.",10120201,1643.0,D,E,5,WY,WY,11,441744N,44.29556,1045835W,-104.97639,4119.2,0,,,5.286402391
6431500,10,SPEARFISH CR AT SPEARFISH SD,10120203,168.0,D,E,0,SD,SD,81,442857N,44.4825,1035140W,-103.86111,3640.0,0,,,7.457030818
6441500,10,BAD R NEAR FORT PIERRE SD,10140102,3107.0,D,E,0,SD,SD,117,441936N,44.32667,1002302W,-100.38389,1427.0,88,,C,0.48116441
6446000,10,WHITE R NEAR OGLALA SD,10140201,2200.0,D,E,0,SD,SD,113,431517N,43.25472,1024929W,-102.82472,2853.54,0,,,2.167767066
6449500,10,LITTLE WHITE R NEAR ROSEBUD SD,10140203,1020.0,D,E,0,SD,SD,121,431932N,43.32556,1005300W,-100.88333,2294.99,25,,,0.847214595
6452000,10,WHITE R NEAR OACOMA SD,10140204,10200.0,D,E,0,SD,SD,85,434454N,43.74833,0993322W,-99.55611,1377.29,0,,,0.17734189
6454500,10,"NIOBRARA RIVER ABOVE BOX BUTTE RESERVOIR, NE",10150002,1400.0,D,E,0,NE,NE,45,422735N,42.45972,1031015W,-103.17083,4012.47,0,,C,4.151769358
6464500,10,KEYA PAHA R AT WEWELA SD,10150006,1070.0,D,E,0,SD,SD,123,430144N,43.02889,0994649W,-99.78028,2049.78,0,,,1.252138289
6466500,10,"BAZILE CREEK NEAR NIOBRARA, NE",10170101,440.0,D,E,0,NE,NE,107,424526N,42.75722,0975650W,-97.94722,1210.81,0,,,0.792090367
6467600,10,"JAMES RIVER NR MANFRED, ND",10160001,253.0,D,E,0,ND,ND,103,473840N,47.64444,0994940W,-99.82778,1605.73,78,,,20.43700808
6468170,10,"JAMES RIVER NR GRACE CITY, ND",10160001,1060.0,D,E,0,ND,ND,31,473329N,47.55806,0985145W,-98.8625,1457.6,61,,,2.606885453
6471200,10,MAPLE R AT ND-SD STATE LINE,10160004,716.0,D,E,0,SD,ND,21,455620N,45.93889,0982708W,-98.45222,1365.0,33,,,4.070966357
6476500,10,SAND CR NEAR ALPENA SD,10160006,261.0,D,E,0,SD,SD,73,440915N,44.15417,0982606W,-98.435,1315.0,0,,,7.841413892
6478500,10,JAMES R NEAR SCOTLAND SD,10160011,20653.0,D,E,0,SD,SD,67,431109N,43.18583,0973807W,-97.63528,1168.0,20,,,0.171463971
6478540,10,LITTLE VERMILLION R NEAR SALEM SD,10170102,78.6,D,E,0,SD,SD,87,434739N,43.79417,0972202W,-97.36722,1510.0,0,B,,16.50834474
6478690,10,WEST FORK VERMILLION R NEAR PARKER SD,10170102,377.0,D,E,0,SD,SD,125,432455N,43.41528,0971218W,-97.205,1340.0,0,,,2.205821025
6479000,10,VERMILLION R NEAR WAKONDA SD,10170102,2170.0,D,E,0,SD,SD,27,425927N,42.99083,0965749W,-96.96361,1150.0,23,,,0.613871874
6480000,10,BIG SIOUX RIVER NEAR BROOKINGS SD,10170203,3898.0,D,E,0,SD,SD,101,441048N,44.18,0964455W,-96.74861,1551.0,38,,,0.321830555
6481500,10,SKUNK CR AT SIOUX FALLS SD,10170203,622.0,D,E,0,SD,SD,99,433201N,43.53361,0964726W,-96.79056,1405.0,1,,,1.148192307
6483500,10,"ROCK RIVER NEAR ROCK VALLEY, IA",10170204,1592.0,D,E,0,IA,IA,167,431252N,43.21444,0961739W,-96.29417,1222.54,0,,,0.19777585
6485500,10,BIG SIOUX R AT AKRON IA,10170203,8424.0,D,E,0,SD,IA,149,425014N,42.83722,0963341W,-96.56139,1118.0,18,,C,0.072807875
6600500,10,"FLOYD RIVER AT JAMES, IA",10230002,886.0,D,E,0,IA,IA,149,423436N,42.57667,0961843W,-96.31194,1092.59,0,,,0.356853177
6606600,10,"LITTLE SIOUX RIVER AT CORRECTIONVILLE, IA",10230003,2500.0,D,E,3,IA,IA,193,422820N,42.47222,0954749W,-95.79694,1096.49,0,,,0.091393124
6620000,10,"NORTH PLATTE RIVER NEAR NORTHGATE, CO",10180001,1431.0,D,E,4,WY,CO,57,405615N,40.9375,1062016W,-106.33778,7810.39,0,,,1.078405429
6623800,10,ENCAMPMENT RIV AB HOG PARK CR NR ENCAMPMENT WYO,10180002,72.7,D,E,0,WY,WY,7,410125N,41.02361,1064927W,-106.82417,8270.0,0,B,,8.660804474
6630000,10,N PLATTE R AB SEMINOE RES NR SINCLAIR WYO,10180002,4175.0,D,E,4,WY,WY,7,415220N,41.87222,1070325W,-107.05694,6400.75,3,,C,0.347594766
6635000,10,"MEDICINE BOW R AB SEMINOE RESERVOIR, NR HANNA, W",10180004,2338.0,D,E,6,WY,WY,7,420035N,42.00972,1063045W,-106.5125,6415.4,17,,,1.181396206
6637750,10,"ROCK CREEK ABOVE ROCK CREEK RESERVOIR, WYO.",10180006,9.2,D,E,0,WY,WY,13,423259N,42.54972,1084626W,-108.77389,8330.0,0,,,77.07889273
6658500,10,"LARAMIE RIVER NEAR JELM, WYO.",10180010,294.0,D,E,4,WY,WY,1,410008N,41.00222,1060051W,-106.01417,7683.36,0,,,3.209294832
6677500,10,"HORSE CREEK NEAR LYMAN, NE",10180012,1570.0,D,E,3,NE,NE,157,415621N,41.93917,1035913W,-103.98694,3992.84,3,,,2.014713788
6710500,10,"BEAR CREEK AT MORRISON, CO.",10190002,164.0,D,E,0,CO,CO,59,393911N,39.65306,1051143W,-105.19528,5780.43,0,,C,5.619992769
6725500,10,"MIDDLE BOULDER CREEK AT NEDERLAND, CO.",10190005,36.2,D,E,2,CO,CO,13,395742N,39.96167,1053014W,-105.50389,8186.0,0,,,10.99261592
6775900,10,"DISMAL RIVER NEAR THEDFORD, NE",10210002,960.0,D,E,0,NE,NE,171,414645N,41.77917,1003130W,-100.525,2800.13,97,B,,0.484138982
6776500,10,"DISMAL RIVER AT DUNNING, NE",10210002,2040.0,D,E,0,NE,NE,9,414923N,41.82306,1000605W,-100.10139,2606.3,98,,,0.284230464
6783500,10,"MUD CREEK NEAR SWEETWATER, NE",10210005,707.0,D,E,0,NE,NE,19,410215N,41.0375,0985935W,-98.99306,2013.69,7,,,2.042702299
6791500,10,"CEDAR RIVER NEAR SPALDING, NE",10210010,762.0,D,E,2,NE,NE,77,414241N,41.71139,0982648W,-98.44667,1896.24,93,,,0.471449048
6798500,10,"ELKHORN RIVER AT NELIGH, NE",10220001,2200.0,D,E,0,NE,NE,3,420720N,42.12222,0980140W,-98.02778,1714.0,45,,,0.257367358
6800000,10,"MAPLE CREEK NEAR NICKERSON, NE",10220003,450.0,D,E,0,NE,NE,53,413245N,41.54583,0963005W,-96.50139,1194.56,0,,,1.05320988
6800500,10,"ELKHORN RIVER AT WATERLOO, NE",10220003,6900.0,D,E,0,NE,NE,55,411725N,41.29028,0961705W,-96.28472,1104.73,15,,C,0.062805835
6808500,10,"WEST NISHNABOTNA RIVER AT RANDOLPH, IA",10240002,1326.0,D,E,0,IA,IA,71,405223N,40.87306,0953448W,-95.58,932.99,0,,,0.116577538
6809500,10,"EAST NISHNABOTNA RIVER NEAR RED OAK, IA",10240003,894.0,D,E,3,IA,IA,137,410041N,41.01139,0951407W,-95.23528,1005.45,0,,,0.156322599
6810000,10,"NISHNABOTNA RIVER ABOVE HAMBURG, IA",10240004,2806.0,D,E,0,IA,IA,71,403757N,40.6325,0953732W,-95.62556,894.17,0,,C,0.059634835
6811500,10,"LITTLE NEMAHA RIVER AT AUBURN, NE",10240006,793.0,D,E,0,NE,NE,127,402333N,40.3925,0954846W,-95.81278,889.87,0,,,0.210328057
6813000,10,TARKIO RIVER AT FAIRFAX MO,10240005,508.0,D,E,2,MO,MO,5,402020N,40.33889,0952432W,-95.40889,867.66,0,,,0.317311877
6814000,10,"TURKEY C NR SENECA, KS",10240007,276.0,D,E,0,KS,KS,131,395652N,39.94778,0960630W,-96.10833,1037.53,0,,,0.422760211
6817500,10,"NODAWAY RIVER NEAR BURLINGTON JCT, MO",10240010,1240.0,D,E,2,MO,MO,147,402642N,40.445,0950519W,-95.08861,895.17,0,,,0.107626891
6841000,10,"MEDICINE CREEK ABOVE HARRY STRUNK LAKE, NE",10250008,770.0,D,E,0,NE,NE,63,403010N,40.50278,1001920W,-100.32222,2380.94,31,,,1.185791363
6853800,10,"WHITE ROCK C NR BURR OAK, KS",10250016,227.0,D,E,0,KS,KS,89,395355N,39.89861,0981505W,-98.25139,1601.5,0,,,2.618167068
6868000,10,"SALINE R NR WILSON, KS",10260009,1900.0,D,E,0,KS,KS,167,385600N,38.93333,0983200W,-98.53333,1442.72,0,,,0.416627268
6869500,10,"SALINE R AT TESCOTT, KS",10260010,2820.0,D,P,1,KS,KS,143,390015N,39.00417,0975226W,-97.87389,1265.34,0,,,0.272985223
6876700,10,"SALT C NR ADA, KS",10260015,384.0,D,E,0,KS,KS,143,390830N,39.14167,0975010W,-97.83611,1247.18,0,,,0.885357035
6878000,10,"CHAPMAN C NR CHAPMAN, KS",10260008,300.0,D,E,0,KS,KS,41,390152N,39.03111,0970224W,-97.04,1102.41,0,,,0.575308932
6883000,10,"LITTLE BLUE RIVER NEAR DEWEESE, NE",10270206,979.0,D,E,0,NE,NE,129,401958N,40.33278,0980400W,-98.06667,1632.67,0,,,0.459802872
6884200,10,"MILL C AT WASHINGTON, KS",10270207,344.0,D,E,0,KS,KS,201,394850N,39.81389,0970220W,-97.03889,1261.56,0,,,0.511676108
6884400,10,"L BLUE R NR BARNES, KS",10270207,3324.0,D,E,5,KS,KS,201,394633N,39.77583,0965129W,-96.85806,1140.06,0,,C,0.090265384
6885500,10,"BLACK VERMILLION R NR FRANKFORT, KS",10270205,410.0,M,E,7,KS,KS,117,394103N,39.68417,0962615W,-96.4375,1106.91,0,,,0.326174068
6888500,10,"MILL C NR PAXICO, KS",10270102,316.0,D,E,0,KS,KS,197,390344N,39.06222,0961052W,-96.18111,964.92,0,,,0.305884197
6889200,10,"SOLDIER C NR DELIA, KS",10270102,157.0,D,E,0,KS,KS,177,391208N,39.20222,0955225W,-95.87361,931.34,0,,,0.494144537
6889500,10,"SOLDIER C NR TOPEKA, KS",10270102,290.0,D,E,0,KS,KS,177,390600N,39.1,0954327W,-95.72417,862.95,0,,,0.324774348
6890500,10,"DELAWARE R AT VALLEY FALLS, KS",10270103,922.0,D,E,4,KS,KS,87,392103N,39.35083,0952716W,-95.45444,885.04,0,,,0.122382237
6891500,10,"WAKARUSA R NR LAWRENCE, KS",10270104,425.0,M,P,4,KS,KS,45,385440N,38.91111,0951537W,-95.26028,799.26,0,,,0.274855481
6892000,10,"STRANGER C NR TONGANOXIE, KS",10270104,406.0,D,E,0,KS,KS,103,390659N,39.11639,0950039W,-95.01083,801.95,0,,,0.206770243
6894000,10,"LITTLE BLUE RIVER NEAR LAKE CITY, MO",10300101,184.0,D,E,0,MO,MO,95,390602N,39.10056,0941801W,-94.30028,719.15,0,,,0.328989035
6897500,10,GRAND RIVER NEAR GALLATIN MO,10280101,2250.0,D,P,2,MO,MO,61,395537N,39.92694,0935633W,-93.9425,717.56,0,,C,0.057728889
6897950,10,"ELK CREEK NEAR DECATUR CITY, IA",10280102,52.5,D,E,0,IA,IA,53,404318N,40.72167,0935619W,-93.93861,924.7,0,B,,2.116376868
6898000,10,"THOMPSON RIVER AT DAVIS CITY, IA",10280102,701.0,D,E,3,IA,IA,53,403825N,40.64028,0934829W,-93.80806,874.04,0,,,0.178528995
6899500,10,THOMPSON RIVER AT TRENTON MO,10280102,1670.0,D,E,2,MO,MO,79,400446N,40.07944,0933839W,-93.64417,721.87,0,,,0.071510777
6903700,10,"SOUTH FORK CHARITON RIVER NEAR PROMISE CITY, IA",10280201,168.0,D,E,0,IA,IA,185,404802N,40.80056,0931132W,-93.19222,913.7,0,,,0.623462893
6907000,10,"LAMINE RIVER AT CLIFTON CITY, MO.",10300103,598.0,D,E,2,MO,MO,159,384526N,38.75722,0930120W,-93.02222,621.91,0,,,0.139658136
6908000,10,"BLACKWATER RIVER AT BLUE LICK, MISSOURI",10300104,1120.0,D,E,2,MO,MO,195,385932N,38.99222,0931148W,-93.19667,593.79,0,,,0.08113121
6910500,10,"MOREAU RIVER NEAR JEFFERSON CITY, MO",10300102,561.0,D,E,0,MO,MO,51,383144N,38.52889,0921131W,-92.19194,546.33,0,,,0.150610649
6911500,10,"SALT C NR LYNDON, KS",10290101,111.0,D,E,0,KS,KS,139,383632N,38.60889,0953817W,-95.63806,955.78,0,,,0.760628934
6913500,10,"MARAIS DES CYGNES R NR OTTAWA, KS",10290101,1250.0,D,P,1,KS,KS,59,383700N,38.61667,0951525W,-95.25694,857.68,0,,,0.087343651
6914000,10,"POTTAWATOMIE C NR GARNETT, KS",10290101,334.0,D,E,0,KS,KS,3,382001N,38.33361,0951455W,-95.24861,873.23,0,,,0.21869244
6917000,10,"L OSAGE R AT FULTON, KS",10290103,295.0,D,E,0,KS,KS,11,380109N,38.01917,0944248W,-94.71333,776.37,0,,,0.239568682
6917500,10,"MARMATON R NR FORT SCOTT, KS",10290104,408.0,D,E,0,KS,KS,11,375147N,37.86306,0944036W,-94.67667,752.6,0,,,0.190830117
6928000,10,"GASCONADE RIVER NEAR HAZLEGREEN, MISSOURI",10290201,1250.0,D,E,0,MO,MO,105,374533N,37.75917,0922706W,-92.45167,844.75,0,,,0.060807626
6933500,10,GASCONADE RIVER AT JEROME MO,10290203,2840.0,D,E,0,MO,MO,161,375547N,37.92972,0915838W,-91.97722,657.64,0,,C,0.02260394
7049000,11,"WAR EAGLE CREEK NEAR HINDSVILLE, ARK.",11010001,263.0,D,E,0,AR,AR,87,361202N,36.20056,0935120W,-93.85556,1168.06,0,,,0.153268893
7050500,11,"KINGS RIVER NEAR BERRYVILLE, ARKANSAS",11010001,527.0,D,E,0,AR,AR,15,362536N,36.42667,0933715W,-93.62083,963.1,0,,,0.086975361
7056000,11,"BUFFALO RIVER NEAR ST. JOE, ARK.",11010005,829.0,D,E,0,AR,AR,129,355902N,35.98389,0924444W,-92.74556,560.35,0,,C,0.05153718
7057500,11,"NORTH FORK RIVER NEAR TECUMSEH, MO",11010006,561.0,D,E,0,MO,MO,153,363722N,36.62278,0921453W,-92.24806,584.67,0,,,0.057925153
7060710,11,NORTH SYLAMORE CREEK NR FIFTY SIX ARK,11010004,58.1,D,E,0,AR,AR,137,355943N,35.99528,0921245W,-92.2125,434.99,0,B,,1.025706607
7061500,11,"BLACK RIVER NEAR ANNAPOLIS, MO",11010007,484.0,D,E,0,MO,MO,179,372010N,37.33611,0904719W,-90.78861,569.72,0,,,0.066714249
7066500,11,"CURRENT RIVER NEAR EMINENCE, MO",11010008,1272.0,D,E,0,MO,MO,203,371102N,37.18389,0911530W,-91.25833,568.82,0,,,0.026351212
7067000,11,"CURRENT RIVER AT VAN BUREN, MO",11010008,1667.0,D,E,0,MO,MO,35,365929N,36.99139,0910053W,-91.01472,442.78,0,,,0.021449321
7068000,11,"CURRENT RIVER AT DONIPHAN, MO",11010008,2038.0,D,E,0,MO,MO,181,363719N,36.62194,0905051W,-90.8475,321.21,0,,,0.015936631
7069500,11,"SPRING RIVER AT IMBODEN, ARK.",11010010,1183.0,D,E,0,AR,AR,121,361219N,36.20528,0911019W,-91.17194,254.07,0,,,0.028048272
7071500,11,"ELEVEN POINT RIVER NEAR BARDLEY, MO",11010011,793.0,D,E,2,MO,MO,149,363855N,36.64861,0911203W,-91.20083,410.84,0,,,0.060495229
7072000,11,"ELEVENPOINT RIVER NR RAVENDEN SPRINGS, ARK.",11010011,1134.0,D,E,0,AR,AR,121,362048N,36.34667,0910648W,-91.11333,291.98,0,,,0.040887362
7074000,11,"STRAWBERRY RIVER NEAR POUGHKEEPSIE, ARK.",11010012,473.0,D,E,0,AR,AR,135,360637N,36.11028,0912659W,-91.44972,298.07,0,,,0.068400404
7075300,11,"SO FORK OF LITTLE RED RIV AT CLINTON, ARK.",11010014,148.0,D,E,0,AR,AR,141,353529N,35.59139,0922720W,-92.45556,481.11,0,,,0.248063109
7083000,11,"HALFMOON CREEK NEAR MALTA, CO.",11020001,23.6,D,E,0,CO,CO,65,391020N,39.17222,1062319W,-106.38861,9830.0,0,B,,27.4116767
7095000,11,"GRAPE CREEK NEAR WESTCLIFFE, CO.",11020001,320.0,D,E,0,CO,CO,27,381110N,38.18611,1052859W,-105.48306,7690.0,0,,,8.482571976
7141200,11,"PAWNEE R NR LARNED, KS",11030005,2148.0,D,P,6,KS,KS,145,381200N,38.2,0992050W,-99.34722,2040.9,6,,,0.636323754
7144200,11,"L ARKANSAS R AT VALLEY CENTER, KS",11030012,1327.0,D,E,4,KS,KS,173,374956N,37.83222,0972316W,-97.38778,1325.66,6,,,0.166881431
7144780,11,"NF NINNESCAH R AB CHENEY RE, KS",11030014,787.0,D,E,0,KS,KS,155,375041N,37.84472,0975609W,-97.93583,1431.75,30,,,0.339851926
7145200,11,"SF NINNESCAH R NR MURDOCK, KS",11030015,650.0,M,E,3,KS,KS,95,373351N,37.56417,0975110W,-97.85278,1357.81,16,,,0.231906267
7147070,11,"WHITEWATER R AT TOWANDA, KS",11030017,426.0,D,E,0,KS,KS,15,374745N,37.79583,0970045W,-97.0125,1231.47,0,,,0.258299453
7147800,11,"WALNUT R AT WINFIELD, KS",11030018,1880.0,D,P,1,KS,KS,35,371327N,37.22417,0965940W,-96.99444,1082.86,0,,,0.058207826
7148350,11,"SALT FORK ARKANSAS RIVER NR WINCHESTER, OK",11060002,856.0,D,E,0,OK,OK,151,365745N,36.9625,0984655W,-98.78194,1410.05,0,,,0.444950677
7149000,11,"MEDICINE LODGE R NR KIOWA, KS",11060003,903.0,D,E,0,KS,KS,7,370217N,37.03806,0982804W,-98.46778,1286.99,0,,,0.325561917
7151500,11,"CHIKASKIA R NR CORBIN, KS",11060005,794.0,D,E,0,KS,KS,191,370744N,37.12889,0973604W,-97.60111,1108.0,0,,,0.191366113
7157500,11,"CROOKED C NR NYE, KS",11040007,1157.0,D,P,4,KS,KS,119,370202N,37.03389,1001155W,-100.19861,2163.79,30,,,1.377675285
7161000,11,"CIMARRON RIVER AT PERKINS, OK",11050003,17852.0,D,E,0,OK,OK,119,355727N,35.9575,0970154W,-97.03167,814.88,28,,,0.036925882
7167500,11,"OTTER C AT CLIMAX, KS",11070102,129.0,D,E,0,KS,KS,73,374230N,37.70833,0961330W,-96.225,977.76,0,,,0.595457632
7172000,11,"CANEY R NR ELGIN, KS",11070106,445.0,D,E,0,KS,KS,19,370013N,37.00361,0961854W,-96.315,763.32,0,,,0.140067571
7180500,11,"CEDAR C NR CEDAR POINT, KS",11070202,110.0,D,E,4,KS,KS,17,381155N,38.19861,0964922W,-96.82278,1262.5,0,,,0.856436819
7183000,11,"NEOSHO R NR IOLA, KS",11070204,3818.0,D,P,1,KS,KS,1,375327N,37.89083,0952550W,-95.43056,914.77,0,,,0.029863339
7184000,11,"LIGHTNING C NR MCCUNE, KS",11070205,197.0,D,E,0,KS,KS,21,371654N,37.28167,0950156W,-95.03222,818.1,0,,,0.292249365
7186000,11,"SPRING RIVER NEAR WACO, MO",11070207,1164.0,D,E,0,MO,MO,97,371444N,37.24556,0943358W,-94.56611,833.23,0,,,0.051255669
7186400,11,"CENTER CREEK NEAR CARTERVILLE, MO",11070207,232.0,D,E,0,MO,MO,97,370826N,37.14056,0942257W,-94.3825,913.21,0,,,0.229600649
7187000,11,"SHOAL CREEK ABOVE JOPLIN, MISSOURI",11070207,427.0,D,E,0,MO,MO,145,370123N,37.02306,0943058W,-94.51611,886.87,0,,,0.120922732
7189000,11,"ELK RIVER NEAR TIFF CITY, MO",11070208,872.0,D,E,0,OK,MO,119,363753N,36.63139,0943512W,-94.58667,750.61,0,,,0.056739632
7195000,11,"OSAGE CREEK NEAR ELM SPRINGS, ARK.",11110103,130.0,D,E,0,AR,AR,7,361319N,36.22194,0941718W,-94.28833,1052.0,0,,,0.344465717
7196500,11,ILLINOIS RIVER NEAR TAHLEQUAH,11110103,959.0,D,E,0,OK,OK,21,355517N,35.92139,0945515W,-94.92083,664.14,0,,,0.042183142
7197000,11,BARON FORK AT ELDON,11110103,307.0,D,E,0,OK,OK,21,355516N,35.92111,0945018W,-94.83833,701.14,0,,,0.117091503
7203000,11,"VERMEJO RIVER NEAR DAWSON, NM",11080001,301.0,D,E,0,NM,NM,7,364050N,36.68056,1044708W,-104.78556,6365.0,0,,,11.00756388
7207500,11,"PONIL CREEK NEAR CIMARRON, N. MEX.",11080002,171.0,D,E,0,NM,NM,7,363425N,36.57361,1045646W,-104.94611,6630.0,0,,,17.28571504
7208500,11,"RAYADO CREEK AT SAUBLE RANCH NEAR CIMARRON, N.M.",11080002,65.0,D,E,0,NM,NM,7,362220N,36.37222,1045810W,-104.96944,6720.0,0,,,18.84622251
7211500,11,"CANADIAN R NR TAYLOR SPRINGS, NM",11080003,2850.0,D,E,1,NM,NM,7,361749N,36.29694,1042936W,-104.49333,5635.0,0,,,1.706500816
7216500,11,MORA RIVER NEAR GOLONDRINAS N. MEX.,11080003,267.0,D,E,1,NM,NM,33,355327N,35.89083,1050947W,-105.16306,6750.0,0,,,6.686842609
7218000,11,"COYOTE CREEK NEAR GOLONDRINAS, N. MEX.",11080004,215.0,D,E,1,NM,NM,33,355500N,35.91667,1050949W,-105.16361,6785.0,0,,,13.88201782
7221000,11,MORA RIVER NR SHOEMAKER N MEX.,11080004,1104.0,D,E,1,NM,NM,33,354801N,35.80028,1044658W,-104.78278,6145.0,6,,,2.579344296
7222500,11,"CONCHAS RIVER AT VARIADERO, N. MEX.",11080005,523.0,D,E,1,NM,NM,47,352410N,35.40278,1042635W,-104.44306,4430.0,25,,,4.043527304
7229300,11,"WALNUT CREEK AT PURCELL, OK",11090202,202.0,D,E,0,OK,OK,87,345956N,34.99889,0972200W,-97.36667,1014.57,0,,,0.360058003
7243000,11,"DRY CREEK NEAR KENDRICK, OK",11100303,69.0,D,E,0,OK,OK,81,354655N,35.78194,0965114W,-96.85389,820.0,0,,,1.327597077
7247000,11,"POTEAU RIVER AT CAUTHRON, ARK.",11110105,203.0,D,P,2,AR,AR,127,345508N,34.91889,0941755W,-94.29861,569.53,0,,,0.134637392
7247500,11,"FOURCHE MALINE NEAR RED OAK, OK",11110105,122.0,D,E,0,OK,OK,77,345445N,34.9125,0950920W,-95.15556,540.8,0,,,0.191720515
7250000,11,LEE CR NR VAN BUREN ARK,11110104,426.0,D,E,0,AR,AR,135,352940N,35.49444,0942658W,-94.44944,408.04,0,,,0.072803843
7252000,11,"MULBERRY RIVER NEAR MULBERRY, ARK.",11110201,373.0,D,E,0,AR,AR,47,353437N,35.57694,0940055W,-94.01528,432.75,0,,,0.079758052
7257000,11,"PINEY CREEK NEAR DOVER, ARK",11110202,274.0,D,E,0,AR,AR,115,353258N,35.54944,0930930W,-93.15833,487.66,0,,,0.146370032
7258500,11,"PETIT JEAN RIVER NEAR BOONEVILLE, ARK.",11110204,241.0,D,E,0,AR,AR,83,350625N,35.10694,0935525W,-93.92361,423.39,0,,,0.097963969
7261000,11,"CADRON CREEK NEAR GUY, ARK.",11110205,169.0,D,E,0,AR,AR,45,351756N,35.29889,0922410W,-92.40278,371.68,0,,,0.148932348
7261500,11,"FOURCHE LAFAVE RIVER NR GRAVELLY, ARK.",11110206,410.0,D,E,0,AR,AR,149,345221N,34.8725,0933924W,-93.65667,410.5,0,,,0.062322312
7263000,11,"SO FOURCHE LA FAVE RIV NR HOLLIS, ARK.",11110206,210.0,D,P,5,AR,AR,105,345441N,34.91139,0930321W,-93.05583,366.1,0,,,0.103008238
7299670,11,"GROESBECK CREEK AT S.H. 6 NR QUANAH, TX",11130101,303.0,D,E,0,TX,TX,197,342116N,34.35444,0994424W,-99.74,1425.69,0,,,1.837319105
7301410,11,"SWEETWATER CREEK NR KELTON, TX",11120302,287.0,D,E,0,TX,TX,483,352823N,35.47306,1000714W,-100.12056,2230.0,7,,,2.908904047
7304500,11,"ELK CREEK NEAR HOBART, OK",11120303,549.0,D,E,0,OK,OK,75,345451N,34.91417,0990649W,-99.11361,1429.4,0,,,0.361313012
7307800,11,"PEASE RIVER NR CHILDRESS, TX",11130105,2754.0,D,E,0,TX,TX,101,341339N,34.2275,1000424W,-100.07333,1492.98,20,,,0.551650649
7311200,11,"BLUE BEAVER CREEK NEAR CACHE, OK",11130203,24.6,D,E,0,OK,OK,31,343724N,34.62333,0983348W,-98.56333,1215.26,0,B,,2.457099273
7311500,11,"DEEP RED RUN NEAR RANDLETT, OK",11130203,617.0,D,E,0,OK,OK,33,341315N,34.22083,0982710W,-98.45278,924.49,0,,,0.169352979
7311700,11,"NORTH WICHITA RIVER NR TRUSCOTT, TX",11130204,937.0,D,E,0,TX,TX,275,334914N,33.82056,0994710W,-99.78611,1351.78,0,,,0.496096751
7315200,11,"EAST FORK LITTLE WICHITA RIVER NR HENRIETTA, TX",11130201,178.0,D,E,0,TX,TX,77,334846N,33.81278,0980505W,-98.08472,825.32,0,,,0.639531589
7332500,11,"BLUE RIVER NEAR BLUE, OK",11140102,476.0,D,E,0,OK,OK,13,335949N,33.99694,0961427W,-96.24083,503.36,0,,,0.081960963
7335700,11,"KIAMICHI RIVER NEAR BIG CEDAR, OK",11140105,40.1,D,E,0,OK,OK,79,343818N,34.63833,0943645W,-94.6125,886.97,0,B,,0.623595172
7339000,11,"MOUNTAIN FORK NEAR EAGLETOWN, OK",11140108,787.0,D,P,1,OK,OK,89,340230N,34.04167,0943715W,-94.62083,333.87,0,,,0.025990495
7339500,11,"ROLLING FORK NR. DE QUEEN, ARK",11140109,182.0,D,P,1,AR,AR,133,340251N,34.0475,0942447W,-94.41306,318.24,0,,,0.096343263
7340000,11,"LITTLE RIVER NEAR HORATIO, ARK.",11140109,2662.0,D,P,1,AR,AR,133,335510N,33.91944,0942315W,-94.3875,272.89,0,,,0.006878156
7340300,11,"COSSATOT RIVER NEAR VANDERVOORT, ARK.",11140109,89.6,D,E,0,AR,AR,113,342246N,34.37944,0941408W,-94.23556,771.88,0,B,,0.219544447
7340500,11,"COSSATOT RIVER NEAR DEQUEEN, ARK.",11140109,360.0,D,P,1,AR,AR,133,340245N,34.04583,0941242W,-94.21167,335.48,0,,,0.051446217
7342500,11,"SOUTH SULPHUR RIVER NR COOPER, TX",11140301,527.0,D,E,0,TX,TX,119,332120N,33.35556,0953539W,-95.59417,371.91,0,,,0.034817218
7343000,11,"NORTH SULPHUR RIVER NR COOPER, TX",11140301,276.0,D,E,0,TX,TX,277,332829N,33.47472,0953515W,-95.5875,372.42,0,,,0.067496697
7343500,11,"WHITE OAK CREEK NR TALCO, TX",11140303,494.0,D,E,0,TX,TX,449,331920N,33.32222,0950533W,-95.0925,286.45,0,,,0.025660823
7346050,11,"LITTLE CYPRESS CREEK NR ORE CITY, TX",11140307,383.0,D,E,0,TX,TX,459,324021N,32.6725,0944503W,-94.75083,232.67,0,,,0.033365325
7346070,11,"LITTLE CYPRESS CREEK NR JEFFERSON, TX",11140307,675.0,D,E,0,TX,TX,315,324250N,32.71389,0942044W,-94.34556,174.6,0,,,0.01531063
7348000,11,"TWELVEMILE BAYOU NEAR DIXIE, LA",11140304,3137.0,D,E,0,LA,LA,17,323845N,32.64583,0935240W,-93.87778,136.12,0,,,0.002898029
7349430,11,"BODCAU CREEK AT STAMPS, ARK.",11140205,236.0,D,E,0,AR,AR,73,332200N,33.36667,0933120W,-93.52222,234.36,0,,,0.054527174
7349500,11,"BODCAU BAYOU NEAR SAREPTA, LA",11140205,546.0,M,E,5,LA,LA,15,325418N,32.905,0932858W,-93.48278,173.91,0,,,0.023245254
7352000,11,"SALINE BAYOU NEAR LUCKY, LA",11140208,154.0,D,E,0,LA,LA,13,321500N,32.25,0925835W,-92.97639,152.65,0,,C,0.061761334
8025500,12,"BAYOU TORO NEAR TORO, LA",12010005,148.0,D,E,0,LA,LA,85,311825N,31.30694,0933056W,-93.51556,138.0,0,,,0.088304395
8029500,12,"BIG COW CREEK NR NEWTON, TX",12010005,128.0,D,E,0,TX,TX,351,304908N,30.81889,0934707W,-93.78528,134.69,0,,,0.059673385
8030500,12,"SABINE RIVER NR RULIFF, TX",12010005,9329.0,D,P,2,TX,TX,351,301813N,30.30361,0934437W,-93.74361,4.08,0,,,0.00119268
8032000,12,"NECHES RIVER NEAR NECHES, TEXAS",12020001,1145.0,D,E,0,TX,TX,1,315332N,31.89222,0952550W,-95.43056,264.06,0,,,0.00885973
8033500,12,"NECHES RIVER NEAR ROCKLAND, TEX.",12020003,3636.0,D,P,2,TX,TX,457,310129N,31.02472,0942355W,-94.39861,88.41,0,,C,0.001948771
8033900,12,"EAST FORK ANGELINA RIVER NEAR CUSHING, TEXAS",12020004,158.0,D,E,0,TX,TX,401,315136N,31.86,0944923W,-94.82306,275.29,0,,,0.051215546
8041000,12,"NECHES RIVER AT EVADALE, TEX.",12020003,7951.0,D,P,2,TX,TX,241,302120N,30.35556,0940535W,-94.09306,8.25,0,,,0.000854897
8041500,12,"VILLAGE CREEK NR KOUNTZE, TEX.",12020006,860.0,D,E,0,TX,TX,199,302352N,30.39778,0941548W,-94.26333,25.12,0,,,0.004056657
8041700,12,"PINE ISLAND BAYOU NR SOUR LAKE, TEX.",12020007,336.0,D,E,0,TX,TX,199,300621N,30.10583,0942004W,-94.33444,0.0,0,,,0.005964056
8042800,12,"WEST FORK TRINITY RIVER NR JACKSBORO, TX",12030101,683.0,D,E,0,TX,TX,237,331736N,33.29333,0980443W,-98.07861,869.28,0,,,0.192740466
8053500,12,"DENTON CREEK NR JUSTIN, TX",12030104,400.0,D,E,0,TX,TX,121,330708N,33.11889,0971725W,-97.29028,606.66,0,,,0.161045431
8061540,12,"ROWLETT CREEK NR SACHSE, TX",12030106,120.0,D,E,0,TX,TX,113,325735N,32.95972,0963651W,-96.61417,450.0,0,,,0.148198518
8064700,12,"TEHUACANA CREEK NR STREETMAN, TX",12030201,142.0,D,E,0,TX,TX,161,315054N,31.84833,0961723W,-96.28972,287.58,0,,,0.110227108
8064800,12,"CATFISH CREEK NR TENNESSEE COLONY, TX",12030201,207.0,D,E,0,TX,TX,1,315251N,31.88083,0955207W,-95.86861,234.93,0,,,0.050001607
8065800,12,"BEDIAS CREEK NR MADISONVILLE, TX",12030202,321.0,D,E,0,TX,TX,471,305303N,30.88417,0954639W,-95.7775,150.0,0,,,0.016399813
8066200,12,"LONG KING CREEK AT LIVINGSTON, TX",12030202,141.0,D,E,0,TX,TX,373,304258N,30.71611,0945731W,-94.95861,100.12,0,,,0.052930487
8068520,12,"SPRING CREEK AT SPRING, TX",12040102,419.0,D,E,0,TX,TX,201,300531N,30.09194,0952421W,-95.40583,62.17,0,,,0.012702939
8070000,12,"EAST FORK SAN JACINTO RIVER NR CLEVELAND, TX",12040103,325.0,D,E,0,TX,TX,291,302011N,30.33639,0950614W,-95.10389,107.98,0,,,0.023192917
8070500,12,"CANEY CREEK NR SPLENDORA, TX",12040103,105.0,D,E,0,TX,TX,339,301534N,30.25944,0951808W,-95.30222,118.44,0,,,0.054006603
8080500,12,"DMF BRAZOS RIVER NR ASPERMONT, TX",12050004,8796.0,D,E,0,TX,TX,433,330029N,33.00806,1001049W,-100.18028,1624.79,79,,,0.212053673
8080950,12,"DUCK CREEK NR GIRARD, TX",12050007,431.0,D,E,0,TX,TX,263,332122N,33.35611,1004217W,-100.70472,2006.08,35,,,3.747399433
8082000,12,"SALT FK BRAZOS R NR ASPERMONT, TX",12050007,5130.0,D,P,2,TX,TX,433,332002N,33.33389,1001416W,-100.23778,1588.7,51,,,0.216858852
8082500,12,"BRAZOS RIVER AT SEYMOUR, TX",12060101,15538.0,D,E,0,TX,TX,23,333451N,33.58083,0991602W,-99.26722,1238.97,62,,,0.086851592
8082700,12,"MILLERS CREEK NR MUNDAY, TX",12060101,104.0,D,E,0,TX,TX,447,331945N,33.32917,0992753W,-99.46472,1350.0,0,,,3.287243594
8083100,12,"CLEAR FORK BRAZOS RIVER NR ROBY, TX",12060102,228.0,D,E,0,TX,TX,151,324715N,32.7875,1002318W,-100.38833,1885.09,0,,,2.127467941
8084800,12,"CALIFORNIA CREEK NR STAMFORD, TX",12060103,478.0,D,E,0,TX,TX,253,325551N,32.93083,0993832W,-99.64222,1470.0,0,,,0.559288681
8085500,12,"CLEAR FORK BRAZOS RIVER AT FORT GRIFFIN, TX",12060104,3988.0,D,E,0,TX,TX,417,325604N,32.93444,0991327W,-99.22417,1174.09,0,,,0.091491124
8086212,12,"HUBBARD CREEK BELOW ALBANY, TX",12060105,613.0,D,E,0,TX,TX,417,324358N,32.73278,0990825W,-99.14028,1184.99,0,,,0.23604822
8088000,12,"BRAZOS RIVER NR SOUTH BEND, TX",12060201,22673.0,D,E,0,TX,TX,503,330127N,33.02417,0983837W,-98.64361,1002.98,42,,,0.034207486
8095000,12,"NORTH BOSQUE RIVER NR CLIFTON, TX",12060204,968.0,D,E,0,TX,TX,35,314709N,31.78583,0973404W,-97.56778,605.43,0,,C,0.09177197
8095300,12,"MIDDLE BOSQUE RIVER NR MCGREGOR, TX",12060203,182.0,D,E,0,TX,TX,309,313033N,31.50917,0972156W,-97.36556,530.51,0,,,0.11718365
8101000,12,"COWHOUSE CREEK AT PIDCOKE, TX",12070202,455.0,D,E,0,TX,TX,99,311705N,31.28472,0975305W,-97.88472,736.71,0,,,0.141831159
8103800,12,"LAMPASAS RIVER NR KEMPNER, TX",12060204,818.0,D,E,0,TX,TX,281,310454N,31.08167,0980059W,-98.01639,828.38,0,,,0.075311039
8104900,12,"SOUTH FORK SAN GABRIEL RIVER AT GEORGETOWN, TX",12070205,133.0,D,E,0,TX,TX,491,303732N,30.62556,0974127W,-97.69083,687.72,0,,,0.112220531
8109700,12,"MIDDLE YEGUA CREEK NR DIME BOX, TX",12070102,236.0,D,E,0,TX,TX,287,302021N,30.33917,0965416W,-96.90444,295.4,0,,,0.053191591
8109800,12,"EAST YEGUA CREEK NR DIME BOX, TX",12070101,244.0,D,E,0,TX,TX,51,302426N,30.40722,0964902W,-96.81722,284.0,0,,,0.061231233
8111700,12,"MILL CREEK NR BELLVILLE, TX",12070104,376.0,D,E,0,TX,TX,15,295251N,29.88083,0961218W,-96.205,122.82,0,,,0.006027417
8128000,12,"SOUTH CONCHO RIVER AT CHRISTOVAL, TX",12090102,413.0,D,E,0,TX,TX,451,311115N,31.1875,1003006W,-100.50167,2010.22,14,,,0.425356627
8128400,12,"MIDDLE CONCHO RIVER ABOVE TANKERSLEY, TX",12090103,2579.0,D,E,0,TX,TX,235,312538N,31.42722,1004239W,-100.71083,1986.47,38,,,0.923557918
8129300,12,"SPRING CREEK ABOVE TANKERSLEY, TX",12090102,425.0,D,E,0,TX,TX,451,311948N,31.33,1003824W,-100.64,1964.72,5,,,0.997259047
8130500,12,"DOVE CREEK AT KNICKERBOCKER, TX",12090102,229.0,D,E,0,TX,TX,451,311624N,31.27333,1003745W,-100.62917,2001.45,14,,,0.781045292
8134000,12,"NORTH CONCHO RIVER NR CARLSBAD, TX",12090104,1266.0,D,E,0,TX,TX,451,313533N,31.5925,1003812W,-100.63667,1968.02,6,,C,0.553152767
8144500,12,"SAN SABA RIVER AT MENARD, TX",12090109,1135.0,D,E,0,TX,TX,327,305508N,30.91889,0994707W,-99.78528,1863.05,1,,,0.207010976
8146000,12,"SAN SABA RIVER AT SAN SABA, TX",12090109,3046.0,D,E,0,TX,TX,411,311247N,31.21306,0984309W,-98.71917,1162.16,0,,,0.049603762
8150000,12,"LLANO RIVER NR JUNCTION, TX",12090204,1856.0,D,E,0,TX,TX,267,302951N,30.4975,0994319W,-99.72194,1636.32,0,,,0.053976451
8150700,12,"LLANO RIVER NR MASON, TX",12090204,3247.0,D,E,0,TX,TX,319,303938N,30.66056,0990632W,-99.10889,1230.36,0,,,0.031223098
8150800,12,"BEAVER CREEK NR MASON, TX",12090204,215.0,D,E,0,TX,TX,319,303836N,30.64333,0990544W,-99.09556,1253.24,0,,,0.464723354
8151500,12,"LLANO RIVER AT LLANO, TX",12090204,4197.0,D,E,0,TX,TX,299,304504N,30.75111,0984010W,-98.66944,970.01,0,,,0.027079893
8152000,12,"SANDY CREEK NR KINGSLAND, TX",12090201,346.0,D,E,0,TX,TX,299,303330N,30.55833,0982819W,-98.47194,862.31,0,,,0.105704837
8153500,12,"PEDERNALES RIVER NR JOHNSON CITY, TX",12090206,901.0,D,E,0,TX,TX,31,301730N,30.29167,0982357W,-98.39917,1096.7,0,,,0.0392246
8159000,12,"ONION CREEK AT U.S. HIGHWAY 183, AUSTIN, TX",12090205,321.0,D,E,0,TX,TX,453,301040N,30.17778,0974118W,-97.68833,442.85,0,,,0.045754257
8163500,12,"LAVACA RIVER AT HALLETTSVILLE, TX",12100101,108.0,D,E,0,TX,TX,285,292635N,29.44306,0965639W,-96.94417,186.72,0,,,0.035470264
8164000,12,"LAVACA RIVER NR EDNA, TX",12100101,817.0,D,E,0,TX,TX,239,285735N,28.95972,0964110W,-96.68611,14.1,0,,,0.004106058
8164300,12,"NAVIDAD RIVER NR HALLETTSVILLE, TX",12100102,332.0,D,E,0,TX,TX,285,292800N,29.46667,0964845W,-96.8125,159.28,0,,,0.011082908
8164500,12,"NAVIDAD RIVER NR GANADO,TEX(DISC)",12100102,826.0,D,E,0,TX,TX,239,290132N,29.02556,0963308W,-96.55222,13.62,0,,,0.002303916
8165300,12,"NORTH FORK GUADALUPE RIVER NR HUNT, TX",12100201,168.0,D,E,0,TX,TX,265,300336N,30.06,0992340W,-99.39444,1800.1,0,,,0.279307898
8165500,12,"GUADALUPE RIVER AT HUNT, TX",12100201,288.0,D,E,0,TX,TX,265,300408N,30.06889,0991923W,-99.32306,1722.7,0,,,0.147545495
8166000,12,"JOHNSON CREEK NR INGRAM, TX",12100201,114.0,D,E,0,TX,TX,265,300600N,30.1,0991658W,-99.28278,1721.3,0,,,0.525845598
8167000,12,"GUADALUPE RIVER AT COMFORT, TX",12100201,839.0,D,E,0,TX,TX,259,295810N,29.96944,0985333W,-98.8925,1369.83,0,,,0.051546576
8167500,12,"GUADALUPE RIVER NR SPRING BRANCH, TX",12100201,1315.0,D,E,0,TX,TX,91,295138N,29.86056,0982258W,-98.38278,948.1,0,C,,0.026368288
8169000,12,"COMAL RIVER AT NEW BRAUNFELS, TX",12100202,130.0,D,E,0,TX,TX,91,294221N,29.70583,0980720W,-98.12222,582.8,0,,,0.013652596
8171000,12,"BLANCO RIVER AT WIMBERLEY, TX",12100203,355.0,D,E,0,TX,TX,209,295939N,29.99417,0980519W,-98.08861,797.23,0,,,0.039730399
8171300,12,"BLANCO RIVER NR KYLE, TX",12100203,412.0,D,E,0,TX,TX,209,295845N,29.97917,0975435W,-97.90972,620.12,0,,,0.031064399
8172000,12,"SAN MARCOS RIVER AT LULING, TX",12100203,838.0,D,E,0,TX,TX,55,293954N,29.665,0973859W,-97.64972,322.05,0,,,0.010891578
8175000,12,"SANDIES CREEK NR WESTHOFF, TX",12100202,549.0,D,E,0,TX,TX,123,291254N,29.215,0972657W,-97.44917,178.27,0,,,0.014151578
8176500,12,"GUADALUPE RIVER AT VICTORIA, TX",12100204,5198.0,D,P,2,TX,TX,469,284734N,28.79278,0970046W,-97.01278,29.15,0,,,0.002476999
8179000,12,"MEDINA RIVER NR PIPE CREEK, TX",12100302,474.0,D,E,0,TX,TX,19,294031N,29.67528,0985833W,-98.97583,1067.37,0,,,0.054188796
8186500,12,"ECLETO CREEK NR RUNGE, TX",12100303,239.0,D,E,0,TX,TX,255,285512N,28.92,0974619W,-97.77194,215.03,0,,,0.040698852
8189500,12,"MISSION RIVER AT REFUGIO, TX",12100406,690.0,D,E,0,TX,TX,391,281730N,28.29167,0971644W,-97.27889,1.0,0,,,0.005144429
8190000,12,"NUECES RIVER AT LAGUNA, TX",12110101,737.0,D,E,0,TX,TX,463,292542N,29.42833,0995949W,-99.99694,1119.72,0,,,0.051047836
8190500,12,"WEST NUECES RIVER NR BRACKETTVILLE, TX",12110102,694.0,D,E,0,TX,TX,271,292821N,29.4725,1001410W,-100.23611,1326.79,0,,,0.167677381
8192000,12,"NUECES RIVER BELOW UVALDE, TX",12110103,1861.0,D,E,0,TX,TX,463,290725N,29.12361,0995340W,-99.89444,796.12,0,,,0.048879692
8194200,12,"SAN CASIMIRO CREEK NR FREER, TX",12110105,469.0,D,E,0,TX,TX,479,275753N,27.96472,0985800W,-98.96667,298.0,0,,,0.014253542
8194500,12,"NUECES RIVER NR TILDEN, TX",12110105,8093.0,D,E,0,TX,TX,311,281831N,28.30861,0983325W,-98.55694,183.5,0,,,0.00558278
8195000,12,"FRIO RIVER AT CONCAN, TX",12110106,389.0,D,E,0,TX,TX,463,292918N,29.48833,0994216W,-99.70444,1203.71,0,,,0.080382015
8196000,12,"DRY FRIO RIVER NR REAGAN WELLS, TX",12110106,126.0,D,E,0,TX,TX,463,293016N,29.50444,0994652W,-99.78111,1335.2,0,,,0.196369776
8198000,12,"SABINAL RIVER NR SABINAL, TX",12110106,206.0,D,E,0,TX,TX,463,292935N,29.49306,0992949W,-99.49694,1131.2,0,,,0.124303344
8198500,12,"SABINAL RIVER AT SABINAL, TX",12110106,241.0,D,E,0,TX,TX,463,291847N,29.31306,0992846W,-99.47944,882.17,0,,,0.192024147
8200700,12,"HONDO CREEK AT KING WATERHOLE NR HONDO, TX",12100302,149.0,D,E,0,TX,TX,325,292326N,29.39056,0990904W,-99.15111,897.87,0,,,0.302869699
8202700,12,"SECO CREEK AT ROWE RANCH NR D'HANIS, TX",12110107,168.0,D,E,0,TX,TX,325,292143N,29.36194,0991705W,-99.28472,900.88,0,,,0.507003084
8205500,12,"FRIO RIVER NR DERBY, TX",12110106,3429.0,D,E,0,TX,TX,163,284411N,28.73639,0990840W,-99.14444,449.11,0,,,0.027570612
8206700,12,"SAN MIGUEL CREEK NR TILDEN, TX",12110109,783.0,D,E,0,TX,TX,311,283514N,28.58722,0983244W,-98.54556,242.95,0,,,0.016438122
8210000,12,"NUECES RIVER NR THREE RIVERS, TX",12110111,15427.0,D,P,2,TX,TX,297,282538N,28.42722,0981040W,-98.17778,99.26,64,,,0.002798278
8267000,13,"RED RIVER AT MOUTH, NEAR QUESTA, N. MEX.",13020101,190.0,D,E,1,NM,NM,55,363853N,36.64806,1054134W,-105.69278,6600.0,0,,,4.641965862
8267500,13,"RIO HONDO NEAR VALDEZ, N. MEX.",13020101,36.2,D,E,0,NM,NM,55,363230N,36.54167,1053321W,-105.55583,7650.0,0,,,11.83973004
8269000,13,"RIO PUEBLO DE TAOS NEAR TAOS, N. MEX.",13020101,66.6,D,E,0,NM,NM,55,362622N,36.43944,1053011W,-105.50306,7380.0,0,,,12.54184676
8275500,13,"RIO GRANDE DEL RANCHO NEAR TALPA, N. MEX.",13020101,83.0,D,E,0,NM,NM,55,361752N,36.29778,1053455W,-105.58194,7238.0,0,,,21.06936876
8276500,13,"RIO GRANDE BELOW TAOS JUNCTION BRIDGE NR TAOS,NM",13020101,9730.0,D,E,6,NM,NM,55,361912N,36.32,1054514W,-105.75389,6050.3,30,,C,0.346390823
8279000,13,"EMBUDO CREEK AT DIXON, NM",13020101,305.0,D,E,1,NM,NM,39,361239N,36.21083,1055447W,-105.91306,5858.6,0,,,4.481494006
8289000,13,"RIO OJO CALIENTE AT LA MADERA, NM",13020102,419.0,D,E,1,NM,NM,39,362059N,36.34972,1060237W,-106.04361,6358.84,0,,,3.470920472
8291000,13,"SANTA CRUZ RIVER NEAR CUNDIYO, N. MEX.",13020101,86.0,D,E,1,NM,NM,49,355753N,35.96472,1055414W,-105.90389,6460.0,0,,,7.508473944
8324000,13,"JEMEZ RIVER NR JEMEZ,NM",13020202,470.0,D,E,0,NM,NM,43,353942N,35.66167,1064434W,-106.74278,5622.0,0,,,2.721934692
8374000,13,"ALAMITO CREEK NR PRESIDIO, TX",13040202,1504.0,D,E,0,TX,TX,377,293115N,29.52083,1041740W,-104.29444,2541.61,0,,,0.637468255
8377900,13,"RIO MORA NEAR TERRERO, NM",13060001,53.2,D,E,0,NM,NM,47,354638N,35.77722,1053927W,-105.6575,7890.0,0,B,,14.92560571
8378500,13,"PECOS R NR PECOS, NM",13060001,189.0,D,E,0,NM,NM,47,354230N,35.70833,1054055W,-105.68194,7502.94,0,,C,4.459689062
8380500,13,"GALLINAS CREEK NEAR MONTEZUMA, N. MEX.",13060001,84.0,D,E,0,NM,NM,47,353907N,35.65194,1051906W,-105.31833,6875.0,0,,,14.26038417
8387000,13,"RIO RUIDOSO AT HOLLYWOOD, N. MEX.",13060008,120.0,D,E,0,NM,NM,27,331936N,33.32667,1053738W,-105.62722,6420.0,0,,,5.381495106
8405500,13,"BLACK RIVER ABOVE MALAGA, N. MEX.",13060011,343.0,D,E,1,NM,NM,15,321344N,32.22889,1040902W,-104.15056,3070.0,0,,,1.930069604
8408500,13,"DELAWARE RIVER NR RED BLUFF, N M",13070002,689.0,D,E,0,NM,NM,15,320123N,32.02306,1040315W,-104.05417,2900.66,0,,C,1.721897751
8431700,13,"LIMPIA CREEK ABOVE FT DAVIS, TX",13070005,52.4,D,E,0,TX,TX,243,303648N,30.61333,1040004W,-104.00111,5175.0,0,B,,7.13350539
9112500,14,EAST RIVER AT ALMONT CO.,14020001,289.0,D,E,3,CO,CO,51,383952N,38.66444,1065051W,-106.8475,8006.29,0,,,1.919213827
9115500,14,"TOMICHI CREEK AT SARGENTS, CO.",14020003,149.0,D,E,4,CO,CO,109,382342N,38.395,1062519W,-106.42194,8416.0,0,,,7.065848288
9119000,14,"TOMICHI CREEK AT GUNNISON, CO.",14020003,1061.0,D,E,4,CO,CO,51,383118N,38.52167,1065625W,-106.94028,7628.58,0,,,1.800066489
9124500,14,"LAKE FORK AT GATEVIEW, CO.",14020002,334.0,D,E,4,CO,CO,51,381756N,38.29889,1071346W,-107.22944,7827.66,0,,,2.142295242
9128500,14,"SMITH FORK NEAR CRAWFORD, CO.",14020002,42.8,D,E,4,CO,CO,29,384340N,38.72778,1073022W,-107.50611,7091.0,0,,,9.055290525
9146200,14,"UNCOMPAHGRE RIVER NEAR RIDGWAY, CO.",14020006,149.0,D,E,0,CO,CO,91,381102N,38.18389,1074443W,-107.74528,6877.58,0,,,3.352726037
9147500,14,"UNCOMPAHGRE RIVER AT COLONA, CO.",14020006,448.0,D,P,5,CO,CO,91,381953N,38.33139,1074644W,-107.77889,6318.8,0,,,1.509674445
9165000,14,"DOLORES RIVER BELOW RICO, CO.",14030002,105.0,D,E,0,CO,CO,33,373820N,37.63889,1080335W,-108.05972,8422.23,0,,,4.362365697
9168100,14,"DISAPPOINTMENT CREEK NEAR DOVE CREEK, CO.",14030002,147.0,D,E,0,CO,CO,33,375236N,37.87667,1083457W,-108.5825,6420.0,0,,,14.05365483
9188500,14,"GREEN RIVER AT WARREN BRIDGE, NEAR DANIEL, WYOMI",14040101,468.0,D,E,0,WY,WY,35,430108N,43.01889,1100703W,-110.1175,7468.09,0,,,1.369819667
9198500,14,"POLE CREEK BELOW LITTLE HALF MOON LAKE, NEAR PIN",14040102,87.5,D,E,0,WY,WY,35,425300N,42.88333,1094300W,-109.71667,7350.0,0,,,6.501323048
9199500,14,FALL CREEK NEAR PINEDALE WYO,14040102,37.2,D,E,0,WY,WY,35,425121N,42.85583,1094312W,-109.72,7240.0,0,,,13.60414742
9203000,14,"EAST FORK RIVER NEAR BIG SANDY, WYO.",14040102,79.2,D,E,0,WY,WY,35,424000N,42.66667,1092500W,-109.41667,7800.0,0,,,7.672653561
9205500,14,"NORTH PINEY CREEK NEAR MASON, WYO.",14040101,58.0,D,P,2,WY,WY,35,423930N,42.65833,1102030W,-110.34167,7520.0,0,,,10.67811836
9210500,14,"FONTENELLE CR NR HERSCHLER RANCH, NR FONTENELLE",14040101,152.0,D,E,0,WY,WY,23,420546N,42.09611,1102457W,-110.41583,6950.0,0,,,5.739523002
9212500,14,"BIG SANDY R AT LECKIE RANCH, NR BIG SANDY, WY",14040104,94.0,D,P,2,WY,WY,35,423417N,42.57139,1091658W,-109.28278,7800.0,0,,,8.84455048
9220000,14,"EAST FORK OF SMITH FORK NR ROBERTSON, WYO.",14040107,53.0,D,P,2,WY,WY,41,410315N,41.05417,1102352W,-110.39778,8470.0,0,,,12.26557219
9223000,14,"HAMS FORK BELOW POLE CREEK, NEAR FRONTIER, WY",14040107,128.0,D,E,0,WY,WY,23,420638N,42.11056,1104232W,-110.70889,7455.0,0,,,5.035242135
9239500,14,"YAMPA RIVER AT STEAMBOAT SPRINGS, CO.",14050001,604.0,D,P,2,CO,CO,107,402901N,40.48361,1064954W,-106.83167,6695.47,0,,C,1.156377322
9241000,14,"ELK RIVER AT CLARK, CO.",14050001,216.0,D,E,4,CO,CO,107,404303N,40.7175,1065455W,-106.91528,7267.75,0,,,2.374995287
9245000,14,"ELKHEAD CREEK NEAR ELKHEAD, CO.",14050001,64.2,D,E,0,CO,CO,107,404011N,40.66972,1071704W,-107.28444,6845.0,0,,,9.335123466
9250000,14,"MILK CREEK NEAR THORNBURGH, CO.",14050002,65.0,D,E,0,CO,CO,103,401137N,40.19361,1074354W,-107.73167,6599.32,0,,,13.94539207
9251000,14,"YAMPA RIVER NEAR MAYBELL, CO.",14050002,3410.0,D,P,2,CO,CO,81,403010N,40.50278,1080145W,-108.02917,5900.23,0,,,0.262537872
9256000,14,"SAVERY CREEK NEAR SAVERY, WY",14050003,330.0,D,E,0,WY,WY,7,410546N,41.09611,1072244W,-107.37889,6680.0,0,,,5.065054399
9278500,14,"ROCK CREEK NEAR HANNA, UTAH",14060003,122.0,D,E,0,UT,UT,13,403244N,40.54556,1103920W,-110.65556,7620.0,0,,,3.488762785
9299500,14,"WHITEROCKS RIVER NEAR WHITEROCKS, UTAH",14060003,113.0,D,E,0,UT,UT,47,403513N,40.58694,1095537W,-109.92694,7160.0,0,,C,3.659922185
9304500,14,"WHITE RIVER NEAR MEEKER, CO.",14050005,755.0,D,E,4,CO,CO,103,400201N,40.03361,1075142W,-107.86167,6300.0,0,,,0.842162618
9310500,14,"FISH CREEK ABOVE RESERVOIR NEAR SCOFIELD, UTAH",14060007,60.1,D,E,0,UT,UT,7,394628N,39.77444,1111125W,-111.19028,7670.0,0,,,8.405343199
9315000,14,"GREEN RIVER AT GREEN RIVER, UTAH",14060008,44850.0,D,P,1,UT,UT,15,385910N,38.98611,1100902W,-110.15056,4040.18,9,,C,0.034444173
9330500,14,"MUDDY CREEK NEAR EMERY, UTAH",14070002,105.0,D,E,0,UT,UT,15,385855N,38.98194,1111455W,-111.24861,6400.0,0,,,7.200836846
9350500,14,"SAN JUAN RIVER AT ROSA, N. MEX.",14080101,1990.0,D,E,1,NM,CO,7,370020N,37.00556,1072410W,-107.40278,5972.0,0,,,0.390423322
9352900,14,"VALLECITO CREEK NEAR BAYFIELD, CO.",14080101,72.1,D,E,0,CO,CO,67,372839N,37.4775,1073235W,-107.54306,7906.08,0,B,,5.111284653
9361500,14,"ANIMAS RIVER AT DURANGO, CO.",14080104,692.0,D,E,0,CO,CO,67,371645N,37.27917,1075247W,-107.87972,6501.57,0,,C,0.617873676
9364500,14,"ANIMAS RIVER AT FARMINGTON, NM",14080104,1360.0,D,E,0,NM,NM,45,364317N,36.72139,1081205W,-108.20139,5280.0,0,,,0.419525411
9378700,14,COTTONWOOD WASH NR BLANDING UTAH,14080201,205.0,D,E,1,UT,UT,37,373338N,37.56056,1093441W,-109.57806,5137.73,0,,,14.33430029
9384000,15,"LITTLE COLORADO R ABV LYMAN LAKE NR ST. JOHNS, A",15020001,747.0,D,E,1,AZ,AZ,1,341852N,34.31444,1092142W,-109.36167,6010.0,6,,,5.985902616
9402000,15,"LITTLE COLORADO RIVER NEAR CAMERON, ARIZ.",15020016,26500.0,D,E,0,AZ,AZ,5,355535N,35.92639,1113400W,-111.56667,3979.2,2,,C,0.296876366
9403000,15,"BRIGHT ANGEL CREEK NEAR GRAND CANYON, ARIZ.",15010001,101.0,D,E,0,AZ,AZ,5,360611N,36.10306,1120544W,-112.09556,2494.62,0,,,6.025294537
9404450,15,"EAST FORK VIRGIN RIVER NR GLENDALE, UTAH",15010008,74.2,D,E,0,UT,UT,25,372019N,37.33861,1123613W,-112.60361,5900.0,0,,,9.627599472
9408400,15,SANTA CLARA RIVER NR PINE VALLEY UTAH,15010008,18.7,D,E,0,UT,UT,53,372300N,37.38333,1132857W,-113.4825,6640.0,0,,,22.1363841
9415000,15,"VIRGIN RIVER AT LITTLEFIELD, ARIZ.",15010010,5090.0,D,E,0,NV,AZ,15,365330N,36.89167,1135525W,-113.92361,1763.68,0,,C,0.294067543
9430500,15,"GILA RIVER NEAR GILA, NM",15040001,1864.0,D,E,0,NM,NM,17,330340N,33.06111,1083212W,-108.53667,4655.8,0,,C,0.565943465
9430600,15,"MOGOLLON CREEK NEAR CLIFF, NM",15040001,69.0,D,E,0,NM,NM,17,331000N,33.16667,1083857W,-108.64917,5440.0,0,B,,5.743668915
9431500,15,"GILA RIVER NEAR REDROCK, NM",15040002,2829.0,D,E,2,NM,NM,17,324337N,32.72694,1084030W,-108.675,4090.0,0,,,0.37036289
9442692,15,"TULAROSA RIVER ABOVE ARAGON, N. MEX.",15040004,94.0,D,E,0,NM,NM,3,335329N,33.89139,1083054W,-108.515,6750.0,0,,,27.95214498
9444500,15,"SAN FRANCISCO RIVER AT CLIFTON, ARIZ.",15040004,2766.0,D,E,0,AZ,AZ,11,330258N,33.04944,1091743W,-109.29528,3436.16,0,,,0.471734609
9471000,15,"SAN PEDRO RIVER AT CHARLESTON, ARIZ.",15050202,1219.0,D,E,0,AZ,AZ,3,313733N,31.62583,1101026W,-110.17389,3954.01,0,,C,0.265747218
9480000,15,"SANTA CRUZ RIVER NEAR LOCHIEL, ARIZ.",15050301,82.2,D,E,1,AZ,AZ,23,312119N,31.35528,1103520W,-110.58889,4620.0,0,,,5.328318144
9498500,15,"SALT RIVER NEAR ROOSEVELT, ARIZ.",15060103,4306.0,D,E,0,AZ,AZ,7,333710N,33.61944,1105515W,-110.92083,2177.14,0,,C,0.125291773
9508300,15,"WET BOTTOM CREEK NR CHILDS, ARIZ.",15060203,36.4,D,E,0,AZ,AZ,7,340939N,34.16083,1114132W,-111.69222,2320.0,0,B,,4.235921919
9508500,15,"VERDE RIVER BLW TANGLE CR AB HORSESHOE DAM, AZ",15060203,5872.0,D,E,0,AZ,AZ,25,340423N,34.07306,1114256W,-111.71556,2029.0,6,,C,0.120580844
10015700,16,"SULPHUR CREEK ABV RESERVOIR NR EVANSTON, WYOMING",16010101,64.2,D,E,0,UT,WY,41,410745N,41.12917,1104821W,-110.80583,7240.0,0,,,12.94027966
10032000,16,"SMITHS FORK NEAR BORDER, WY",16010102,165.0,D,E,0,UT,WY,23,421736N,42.29333,1105205W,-110.86806,6720.0,0,,,2.542665931
10113500,16,"BLACKSMITH FORK AB U.P.&L. CO,S DAM NR HYRUM, UT",16010203,263.0,D,E,0,UT,UT,5,413718N,41.62167,1114422W,-111.73944,5020.0,0,,,2.601725804
10128500,16,"WEBER RIVER NEAR OAKLEY, UTAH",16020101,162.0,D,E,0,UT,UT,43,404410N,40.73611,1111445W,-111.24583,6600.0,0,,C,2.255950532
10131000,16,CHALK CREEK AT COALVILLE UTAH,16020101,250.0,D,E,0,UT,UT,43,405514N,40.92056,1112403W,-111.40083,5560.6,0,,,4.715418548
10172700,16,"VERNON CREEK NEAR VERNON, UTAH",16020304,25.0,D,E,0,UT,UT,45,395846N,39.97944,1122246W,-112.37944,6200.0,0,,,63.28182351
10174500,16,SEVIER RIVER AT HATCH UTAH,16030001,340.0,D,E,0,UT,UT,17,373904N,37.65111,1122546W,-112.42944,6870.0,0,,,2.918967702
10205030,16,SALINA CREEK NEAR EMERY UTAH,16030003,51.8,D,E,0,UT,UT,41,385443N,38.91194,1113147W,-111.52972,7000.0,0,,,16.83568384
10234500,16,BEAVER RIV NR BEAVER UTAH,16030007,91.0,D,E,0,UT,UT,1,381650N,38.28056,1123425W,-112.57361,6200.0,0,,C,6.300966969
10249900,16,"CHIATOVICH C NR DYER, NV",16060010,37.3,D,E,0,NV,NV,9,375000N,37.83333,1181210W,-118.20278,6350.0,0,,,14.46312618
10296000,16,"W WALKER R BL L WALKER R NR COLEVILLE, CA",16050302,180.0,D,E,4,NV,CA,51,382247N,38.37972,1192657W,-119.44917,6591.39,0,,C,1.667869439
10296500,16,"W WALKER R NR COLEVILLE, CA",16050302,250.0,D,E,4,NV,CA,51,383055N,38.51528,1192715W,-119.45417,5520.0,0,,,1.463192616
10301500,16,"WALKER R NR WABUSKA, NV",16050303,2600.0,D,E,4,NV,NV,19,390910N,39.15278,1190550W,-119.09722,4280.0,0,,,1.045187106
10308200,16,E F CARSON R BL MARKLEEVILLE C NR MARKLEEVILLECA,16050201,276.0,D,E,4,NV,CA,3,384250N,38.71389,1194550W,-119.76389,5400.0,0,,,1.333221529
10310000,16,"W F CARSON R AT WOODFORDS, CA",16050201,65.4,D,E,4,NV,CA,3,384610N,38.76944,1194955W,-119.83194,5754.5,0,,,4.844079777
10312000,16,"CARSON R NR FORT CHURCHILL, NV",16050202,1302.0,D,E,3,NV,NV,19,391730N,39.29167,1191840W,-119.31111,4214.7,0,,,0.525155406
10322500,16,"HUMBOLDT R AT PALISADE, NV",16040101,5010.0,D,E,0,NV,NV,11,403625N,40.60694,1161205W,-116.20139,4825.55,0,,C,0.426668424
10325500,16,"REESE R NR IONE, NV",16040107,53.0,D,E,0,NV,NV,23,385100N,38.85,1172800W,-117.46667,7100.0,0,,,15.82699022
10329500,16,"MARTIN C NR PARADISE VALLEY, NV",16040109,172.0,D,E,0,NV,NV,13,413200N,41.53333,1172540W,-117.42778,4700.0,0,,,4.268008382
10336780,16,TROUT CREEK NR TAHOE VALLEY CALIF,16050101,36.7,D,E,1,CA,CA,17,385512N,38.92,1195817W,-119.97139,6241.57,0,,,9.522897371
10352500,16,"MC DERMITT C NR MC DERMITT, NV",16040201,225.0,D,E,0,NV,NV,13,415800N,41.96667,1175001W,-117.83361,4545.0,0,,,2.998844373
10353500,16,"QUINN R NR MC DERMITT, NV",16040201,1100.0,D,E,1,NV,NV,13,414630N,41.775,1174815W,-117.80417,4240.0,0,,,2.416307779
10371500,17,"DEEP CREEK ABOVE ADEL,OREG.",17120007,249.0,D,E,3,OR,OR,37,421121N,42.18917,1200002W,-120.00056,4980.34,0,,,1.648809361
10384000,17,"CHEWAUCAN RIVER NEAR PAISLEY,OREG.",17120006,275.0,D,E,3,OR,OR,37,424105N,42.68472,1203408W,-120.56889,4430.0,0,,,1.853180576
10393500,17,"SILVIES RIVER NEAR BURNS,OREG.",17120002,934.0,D,E,2,OR,OR,25,434255N,43.71528,1191035W,-119.17639,4195.0,0,,,0.831821629
10396000,17,"DONNER UND BLITZEN RIVER NR FRENCHGLEN,OREG.",17120003,200.0,D,E,0,OR,OR,25,424728N,42.79111,1185200W,-118.86667,4254.0,0,,,1.999415698
12013500,17,"WILLAPA RIVER NEAR WILLAPA, WASH.",17100106,130.0,D,E,0,WA,WA,49,463900N,46.65,1233910W,-123.65278,3.57,0,,,0.204772244
12020000,17,"CHEHALIS RIVER NEAR DOTY, WASH.",17100103,113.0,D,E,0,WA,WA,41,463703N,46.6175,1231635W,-123.27639,302.1,0,,,0.240012503
12027500,17,"CHEHALIS RIVER NEAR GRAND MOUND, WASH.",17100103,895.0,D,E,0,WA,WA,67,464634N,46.77611,1230204W,-123.03444,123.65,0,,C,0.026959643
12035000,17,"SATSOP RIVER NEAR SATSOP, WA",17100104,299.0,D,E,0,WA,WA,27,470007N,47.00194,1232937W,-123.49361,0.0,0,,,0.099466323
12048000,17,"DUNGENESS RIVER NEAR SEQUIM, WASH.",17110020,156.0,D,E,0,WA,WA,9,480052N,48.01444,1230753W,-123.13139,569.3,0,,,1.444022261
12054000,17,"DUCKABUSH RIVER NEAR BRINNON, WASH.",17110018,66.5,D,E,0,WA,WA,31,474103N,47.68417,1230037W,-123.01028,241.49,0,,,1.146009547
12189500,17,"SAUK RIVER NEAR SAUK, WASH.",17110006,714.0,D,E,0,WA,WA,57,482529N,48.42472,1213402W,-121.56722,266.0,0,,,0.19447856
12302055,17,"FISHER RIVER NEAR LIBBY, MT.",17010102,838.0,D,E,0,MT,MT,53,482120N,48.35556,1151850W,-115.31389,2134.1,0,,,0.550985211
12303100,17,"FLOWER CREEK NEAR LIBBY, MT.",17010101,11.1,D,E,0,MT,MT,53,482041N,48.34472,1153620W,-115.60556,2866.0,0,,,17.29068665
12304500,17,"YAAK RIVER NEAR TROY, MT.",17010103,766.0,D,E,0,MT,MT,53,483343N,48.56194,1155809W,-115.96917,1839.2,0,,,0.376114679
12305500,17,BOULDER CREEK NR LEONIA ID,17010104,56.0,D,E,0,ID,ID,21,483554N,48.59833,1160530W,-116.09167,2600.0,0,,,3.151565705
12321500,17,BOUNDARY CREEK NR PORTHILL ID,17010104,97.0,D,E,0,ID,ID,21,485950N,48.99722,1163405W,-116.56806,1770.0,0,,,2.456793848
12330000,17,"BOULDER CREEK AT MAXVILLE, MT.",17010202,71.3,D,E,0,MT,MT,39,462820N,46.47222,1131359W,-113.23306,4750.0,0,,,12.73093688
12332000,17,"MIDDLE FORK ROCK CREEK NEAR PHILIPSBURG, MT.",17010202,123.0,D,E,0,MT,MT,39,461142N,46.195,1133000W,-113.5,5385.84,0,,,4.511087543
12354500,17,"CLARK FORK AT ST. REGIS, MT.",17010204,10709.0,D,E,1,MT,MT,61,471807N,47.30194,1150511W,-115.08639,2600.37,0,,C,0.058347549
12355500,17,"N F FLATHEAD RIVER NEAR COLUMBIA FALLS, MT.",17070206,1548.0,D,E,0,MT,MT,29,482944N,48.49556,1140736W,-114.12667,3145.59,0,,,0.273309258
12358500,17,MIDDLE FORK FLATHEAD RIVER NEAR WEST GLACIER MT,17010207,1128.0,D,E,0,MT,MT,29,482943N,48.49528,1140033W,-114.00917,3128.72,0,,C,0.312494305
12359800,17,"S F FLATHEAD R AB TWIN C, NR HUNGRY HORSE, MT.",17010209,1160.0,D,P,2,MT,MT,29,475845N,47.97917,1133336W,-113.56,3575.0,0,,,0.446809595
12370000,17,"SWAN RIVER NEAR BIGFORK, MT.",17010211,671.0,D,E,0,MT,MT,47,480128N,48.02444,1135844W,-113.97889,3062.6,0,,,0.613419051
12390700,17,"PROSPECT CREEK AT THOMPSON FALLS, MT.",17010213,182.0,D,E,0,MT,MT,89,473510N,47.58611,1152115W,-115.35417,2382.4,0,,,1.482828059
12392300,17,PACK RIVER NR COLBURN ID,17010214,124.0,D,E,0,ID,ID,17,482512N,48.42,1163002W,-116.50056,2130.0,0,,,1.335672348
12401500,17,"KETTLE RIVER NEAR FERRY, WASH.",17020002,2220.0,D,E,0,WA,WA,19,485853N,48.98139,1184555W,-118.76528,1836.8,0,,,0.065845606
12404500,17,"KETTLE RIVER NEAR LAURIER, WASH.",17020002,3800.0,D,E,0,WA,WA,19,485904N,48.98444,1181255W,-118.21528,1425.5,0,,,0.046013232
12409000,17,"COLVILLE RIVER AT KETTLE FALLS, WASH.",17020003,1007.0,M,E,3,WA,WA,65,483540N,48.59444,1180341W,-118.06139,1400.0,0,,,0.555348184
12411000,17,"COEUR D'ALENE R AB SHOSHONE CK NR PRICHARD, IDA",17010301,335.0,D,E,0,ID,ID,79,474230N,47.70833,1155835W,-115.97639,2485.0,0,,,0.434829928
12413000,17,COEUR D'ALENE RIVER AT ENAVILLE IDAHO,17010301,895.0,D,E,0,ID,ID,79,473420N,47.57222,1161510W,-116.25278,2100.0,0,,,0.158599576
12413500,17,"COEUR D'ALENE RIVER NR CATALDO, IDAHO",17010303,1220.0,D,E,0,ID,ID,79,473350N,47.56389,1161825W,-116.30694,2100.0,0,,,0.115617352
12414500,17,"ST. JOE RIVER AT CALDER, ID",17010304,1030.0,D,E,0,ID,ID,79,471629N,47.27472,1161117W,-116.18806,2171.76,0,,,0.162895758
12414900,17,ST. MARIES RIVER NEAR SANTA IDAHO,17010304,275.0,D,E,0,ID,ID,9,471035N,47.17639,1162930W,-116.49167,2574.56,0,,,0.846543036
12415000,17,ST MARIES RIVER AT LOTUS ID,17010304,437.0,D,E,0,ID,ID,9,471440N,47.24444,1163725W,-116.62361,2143.36,0,,,0.515779993
12416000,17,"HAYDEN CK BELOW N FK, NR HAYDEN LAKE, IDAHO",17010305,22.0,D,E,0,ID,ID,55,474922N,47.82278,1163910W,-116.65278,2370.0,0,B,,11.33941967
12424000,17,"HANGMAN CREEK AT SPOKANE, WASH.",17010306,689.0,D,E,0,WA,WA,63,473910N,47.65278,1172655W,-117.44861,1717.42,0,,,0.379584072
12427000,17,"LITTLE SPOKANE RIVER AT ELK, WASH.",17010308,115.0,D,E,0,WA,WA,63,480120N,48.02222,1171619W,-117.27194,1870.0,0,,,2.800430978
12431000,17,"LITTLE SPOKANE RIVER AT DARTFORD, WASH.",17010308,665.0,D,E,0,WA,WA,63,474705N,47.78472,1172412W,-117.40333,1590.0,0,,,0.440499097
12442500,17,"SIMILKAMEEN RIVER NEAR NIGHTHAWK, WASH.",17020007,3550.0,D,E,0,WA,WA,47,485905N,48.98472,1193702W,-119.61722,1137.7,0,,,0.156598925
12447390,17,"ANDREWS CREEK NEAR MAZAMA, WASH.",17020008,22.1,D,E,0,WA,WA,47,484923N,48.82306,1200841W,-120.14472,4300.0,0,B,,11.57025164
12449500,17,"METHOW RIVER AT TWISP, WA",17020008,1301.0,D,E,0,WA,WA,47,482155N,48.36528,1200654W,-120.115,1580.0,0,,,0.289483492
12449950,17,"METHOW RIVER NR PATEROS, WASH.",17020008,1772.0,D,E,0,WA,WA,47,480439N,48.0775,1195902W,-119.98389,900.0,0,,,0.231696563
12451000,17,"STEHEKIN RIVER AT STEHEKIN, WASH.",17020009,321.0,D,E,0,WA,WA,7,481947N,48.32972,1204126W,-120.69056,1098.5,0,,,0.513866698
12452800,17,"ENTIAT RIVER NEAR ARDENVOIR, WASH.",17020010,203.0,D,E,0,WA,WA,7,474907N,47.81861,1202519W,-120.42194,1560.97,0,,,1.352531054
12457000,17,"WENATCHEE RIVER AT PLAIN, WASH.",17020011,591.0,D,E,0,WA,WA,7,474547N,47.76306,1203954W,-120.665,1805.0,0,,,0.340087305
12458000,17,"ICICLE CREEK ABV SNOW CR NR LEAVENWORTH, WASH.",17020011,193.0,D,E,0,WA,WA,7,473228N,47.54111,1204308W,-120.71889,1450.0,0,,,1.476317978
12459000,17,"WENATCHEE RIVER AT PESHASTIN, WASH.",17020011,1000.0,D,E,0,WA,WA,7,473500N,47.58333,1203646W,-120.61278,1028.04,0,,,0.217008746
12462500,17,"WENATCHEE RIVER AT MONITOR, WASH.",17020011,1301.0,D,E,0,WA,WA,7,472958N,47.49944,1202524W,-120.42333,680.0,0,,,0.182968504
12465000,17,"CRAB CREEK AT IRBY, WASH.",17020013,1042.0,D,E,0,WA,WA,43,472138N,47.36056,1185056W,-118.84889,1386.3,0,,,0.879248067
12488500,17,"AMERICAN RIVER NEAR NILE, WASH.",17030002,78.9,D,E,0,WA,WA,77,465839N,46.9775,1211005W,-121.16806,2700.0,0,,,2.732330665
12500500,17,"NORTH FORK AHTANUM CREEK NEAR TAMPICO, WASH.",17030003,68.9,D,E,0,WA,WA,77,463340N,46.56111,1205510W,-120.91944,2450.0,0,,,4.904764461
13011500,17,"PACIFIC CREEK AT MORAN, WY",17040101,169.0,D,E,0,ID,WY,39,435104N,43.85111,1103059W,-110.51639,6720.0,0,,,3.451543369
13011900,17,"BUFFALO FORK ABOVE LAVA CREEK NEAR MORAN,WY",17040101,323.0,D,E,0,ID,WY,39,435014N,43.83722,1102621W,-110.43917,6772.78,0,,,1.760866309
13018300,17,CACHE CREEK NEAR JACKSON WY,17040103,10.6,D,E,0,WY,WY,39,432708N,43.45222,1104212W,-110.70333,6750.0,0,B,,54.75970679
13023000,17,"GREYS RIVER AB RESERVOIR, NR ALPINE, WY",17040103,448.0,D,E,0,ID,WY,23,430835N,43.14306,1105834W,-110.97611,8080.0,0,,,0.758030822
13032000,17,BEAR CREEK AB RESERVOIR NR IRWIN ID,17040104,77.1,D,E,0,ID,ID,19,431700N,43.28333,1111317W,-111.22139,5640.0,0,,,3.072184639
13063000,17,BLACKFOOT RIVER AB RESERVOIR NR HENRY ID,17040207,350.0,D,E,0,ID,ID,29,424900N,42.81667,1113035W,-111.50972,6260.0,0,,,1.542206163
13073000,17,PORTNEUF RIVER AT TOPAZ ID,17040208,570.0,D,E,1,ID,ID,5,423730N,42.625,1120520W,-112.08889,4918.0,0,,,0.84697111
13075000,17,MARSH CREEK NR MCCAMMON ID,17040208,353.0,D,E,1,ID,ID,5,423748N,42.63,1121329W,-112.22472,4160.0,0,,,1.608797044
13082500,17,GOOSE CREEK AB TRAPPER CREEK NR OAKLEY ID,17040211,633.0,D,E,1,ID,ID,31,420730N,42.125,1135620W,-113.93889,4770.0,0,,,2.283537571
13092000,17,ROCK CREEK NR ROCK CREEK ID,17040212,80.0,D,E,0,ID,ID,83,422123N,42.35639,1141812W,-114.30333,4340.0,0,,,5.065977801
13113000,17,BEAVER CREEK AT SPENCER ID    12N-36E-23A,17040214,120.0,D,E,3,ID,ID,33,442120N,44.35556,1121040W,-112.17778,5850.0,0,,,4.738145376
13120000,17,N FK BIG LOST RIVER AT WILD HORSE NR CHILLY ID,17040218,114.0,D,E,0,ID,ID,37,435559N,43.93306,1140647W,-114.11306,6820.0,0,,,5.531512921
13120500,17,BIG LOST RIVER AT HOWELL RANCH NR CHILLY ID,17040218,450.0,D,E,3,ID,ID,37,435954N,43.99833,1140112W,-114.02,6621.95,0,,,1.442263843
13135500,17,BIG WOOD RIVER NR KETCHUM ID,17040219,137.0,D,E,0,ID,ID,13,434711N,43.78639,1142527W,-114.42417,6240.0,0,,,3.079422357
13139510,17,COMBINATION BIG WOOD R/SLOUGH AT HAILEY ID,17040219,640.0,D,E,0,ID,ID,13,433105N,43.51806,1141910W,-114.31944,5301.17,0,,,0.946675931
13147900,17,LITTLE WOOD RIVER AB HIGH FIVE CREEK NR CAREY ID,17040221,248.0,D,E,0,ID,ID,13,432930N,43.49167,1140330W,-114.05833,5320.0,0,,,2.001133653
13161500,17,BRUNEAU RIVER AT ROWLAND NV,17050102,382.0,D,E,0,NV,NV,7,415600N,41.93333,1154025W,-115.67361,4500.0,0,,,1.971956519
13162500,17,EF JARBIDGE RIVER NR THREE CREEK ID,17050102,84.6,D,E,0,ID,ID,73,420200N,42.03333,1152220W,-115.37222,5150.0,0,,,4.808779339
13167500,17,EF BRUNEAU RIVER NR HOT SPRING ID,17050102,620.0,D,E,0,ID,ID,73,423325N,42.55694,1153035W,-115.50972,3864.7,0,,,3.044371267
13168500,17,BRUNEAU RIVER NR HOT SPRING ID,17050102,2630.0,D,E,0,ID,ID,73,424616N,42.77111,1154310W,-115.71944,2598.5,0,,,0.307902594
13169500,17,BIG JACKS CREEK NR BRUNEAU ID,17050102,253.0,D,E,1,ID,ID,73,424706N,42.785,1155900W,-115.98333,2810.0,0,B,,10.87146564
13178000,17,JORDON CREEK AB LONE TREE CR NR JORDAN VALLEY OR,17050108,440.0,D,E,0,ID,ID,27,425227N,42.87417,1165712W,-116.95333,4499.73,0,,,0.781265668
13185000,17,BOISE RIVER NR TWIN SPRINGS ID,17050112,830.0,D,E,0,ID,ID,15,433933N,43.65917,1154334W,-115.72611,3255.7,0,,,0.318352077
13186000,17,SF BOISE RIVER NR FEATHERVILLE ID,17050113,635.0,D,E,0,ID,ID,39,432940N,43.49444,1151820W,-115.30556,4218.55,0,,,0.487354973
13200000,17,MORES CREEK AB ROBIE CREEK NR ARROWROCK DAM ID,17050112,399.0,D,E,0,ID,ID,15,433853N,43.64806,1155920W,-115.98889,3120.0,0,,,0.80768838
13200500,17,ROBIE CREEK NR ARROWROCK DAM ID,17050112,15.8,D,E,0,ID,ID,1,433749N,43.63028,1155955W,-115.99861,3080.0,0,,,19.07275562
13214000,17,"MALHEUR RIVER NEAR DREWSEY,OREG.",17050116,910.0,D,E,4,OR,OR,25,434705N,43.78472,1181950W,-118.33056,3479.13,0,,,0.741805016
13235000,17,SF PAYETTE RIVER AT LOWMAN ID,17040120,456.0,D,E,0,ID,ID,15,440507N,44.08528,1153716W,-115.62111,3790.0,0,,,0.537720956
13250600,17,BIG WILLOW CREEK NR EMMETT ID,17050122,47.4,D,E,0,ID,ID,75,440425N,44.07361,1162910W,-116.48611,2810.0,0,,,4.397307868
13251500,17,WEISER RIVER AT TAMARACK ID,17050124,36.5,D,E,0,ID,ID,3,445649N,44.94694,1162255W,-116.38194,4080.0,0,,,7.316082246
13260000,17,PINE CREEK NR CAMBRIDGE ID,17050124,54.0,D,E,0,ID,ID,87,443523N,44.58972,1164412W,-116.73667,2800.0,0,,,7.032145511
13261000,17,LITTLE WEISER RIVER NR INDIAN VALLEY ID,17050124,81.9,D,E,0,ID,ID,3,442922N,44.48944,1162324W,-116.39,3250.0,0,,,3.035579913
13267000,17,MANN CREEK NR WEISER ID,17050124,56.0,D,E,0,ID,ID,87,442330N,44.39167,1165340W,-116.89444,2830.0,0,,,6.526990005
13295000,17,VALLEY CREEK AT STANLEY ID,17060201,147.0,D,E,0,ID,ID,37,441321N,44.2225,1145549W,-114.93028,6221.81,0,,,1.957041459
13296500,17,SALMON RIVER BL YANKEE FORK NR CLAYTON ID,17060201,802.0,D,E,1,ID,ID,37,441606N,44.26833,1144355W,-114.73194,5900.0,0,,,0.469256782
13298500,17,SALMON RIVER NR CHALLIS ID,17060201,1800.0,D,E,0,ID,ID,37,442243N,44.37861,1141518W,-114.255,5163.99,0,,,0.266541867
13299000,17,CHALLIS CREEK NR CHALLIS ID,17060201,85.0,D,E,0,ID,ID,37,443420N,44.57222,1141820W,-114.30556,5369.3,0,,,6.90476129
13302500,17,SALMON RIVER AT SALMON ID,17060203,3760.0,D,E,0,ID,ID,59,451100N,45.18333,1135340W,-113.89444,3911.14,0,,,0.125794662
13305000,17,LEMHI RIVER NR LEMHI ID,17060204,895.0,D,E,0,ID,ID,59,445624N,44.94,1133816W,-113.63778,4960.0,0,,,0.697365575
13306500,17,PANTHER CREEK NR SHOUP ID,17060203,529.0,D,E,0,ID,ID,59,451822N,45.30611,1142331W,-114.39194,3264.96,0,,,1.114481729
13307000,17,SALMON RIVER NR SHOUP ID,17060203,6270.0,D,E,0,ID,ID,59,451920N,45.32222,1142623W,-114.43972,3153.7,0,,,0.085570712
13308500,17,MF SALMON RIVER NR CAPEHORN ID,17060205,138.0,D,E,0,ID,ID,37,442430N,44.40833,1151020W,-115.17222,6435.0,0,,,1.78806195
13313000,17,JOHNSON CREEK AT YELLOW PINE ID,17060208,213.0,D,E,0,ID,ID,85,445744N,44.96222,1152958W,-115.49944,4655.75,1,,,1.727680355
13316500,17,LITTLE SALMON RIVER AT RIGGINS ID,17060210,576.0,D,E,0,ID,ID,49,452447N,45.41306,1161929W,-116.32472,1760.0,0,,,0.522477516
13317000,17,SALMON RIVER AT WHITE BIRD ID,17060209,13550.0,D,E,0,ID,ID,49,454501N,45.75028,1161923W,-116.32306,1412.65,0,,C,0.032767436
13319000,17,"GRANDE RONDE R AT LA GRANDE, OREG.",17060104,678.0,D,E,5,OR,OR,61,452047N,45.34639,1180726W,-118.12389,2826.25,0,,,0.508868225
13331500,17,"MINAM RIVER AT MINAM,OREG.",17060105,240.0,D,E,0,OR,OR,63,453712N,45.62,1174332W,-117.72556,2540.48,0,B,,1.274225724
13334700,17,"ASOTIN CR BLW KEARNEY GULCH NR ASOTIN, WASH.",17060103,170.0,D,E,0,WA,WA,3,461935N,46.32639,1170906W,-117.15167,1090.0,0,,,1.736693045
13336500,17,SELWAY RIVER NR LOWELL ID,17060302,1910.0,D,E,0,ID,ID,49,460512N,46.08667,1153046W,-115.51278,1540.0,0,,,0.164010378
13337000,17,LOCHSA RIVER NR LOWELL ID,17060303,1180.0,D,E,0,ID,ID,49,460902N,46.15056,1153511W,-115.58639,1452.98,0,,,0.256543637
13337500,17,S FK CLEARWATER RIVER NR ELK CITY ID,17060305,261.0,D,E,0,ID,ID,49,454929N,45.82472,1153136W,-115.52667,3816.27,0,,,1.527626812
13338000,17,S FK CLEARWATER RIVER NR GRANGEVILLE ID,17060305,865.0,D,E,0,ID,ID,49,455449N,45.91361,1160017W,-116.00472,1830.0,0,,,0.449617738
13338500,17,S FK CLEARWATER RIVER AT STITES ID,17060305,1150.0,D,E,0,ID,ID,49,460512N,46.08667,1155832W,-115.97556,1300.0,0,,,0.29687974
13339000,17,CLEARWATER RIVER AT KAMIAH ID,17060306,4850.0,D,E,0,ID,ID,61,461400N,46.23333,1160100W,-116.01667,1162.52,0,,,0.065608699
13340000,17,CLEARWATER RIVER AT OROFINO ID,17060306,5580.0,D,E,0,ID,ID,35,462843N,46.47861,1161523W,-116.25639,990.8,0,,,0.055140639
13340500,17,N FK CLEARWATER RIVER AT BUNGALOW RANGER STA ID,17060307,996.0,D,E,0,ID,ID,35,463753N,46.63139,1153028W,-115.50778,2240.0,0,,,0.259554054
13340600,17,N FK CLEARWATER RIVER NR CANYON RANGER STA ID,17060307,1360.0,D,E,0,ID,ID,35,465026N,46.84056,1153711W,-115.61972,1660.0,0,,,0.193942263
13341000,17,NF CLEARWATER RIVER AT AHSAHKA ID,17060308,2440.0,D,E,0,ID,ID,35,460316N,46.05444,1161910W,-116.31944,969.82,0,,,0.092547047
13342500,17,"CLEARWATER RIVER AT SPALDING, ID",17060306,9570.0,D,P,1,ID,ID,69,462655N,46.44861,1164935W,-116.82639,770.49,0,,C,0.029062199
13345000,17,"PALOUSE RIVER NR POTLATCH, ID.",17060108,317.0,D,E,0,ID,ID,57,465455N,46.91528,1165700W,-116.95,2455.11,0,,,0.726615064
13348000,17,"SOUTH FORK PALOUSE RIVER AT PULLMAN, WASH.",17060108,132.0,D,E,0,WA,WA,75,464357N,46.7325,1171048W,-117.18,2326.3,0,,,3.310392253
13349210,17,"PALOUSE RIVER BELOW SOUTH FORK AT COLFAX, WASH.",17060108,796.0,D,E,0,WA,WA,75,465323N,46.88972,1172209W,-117.36917,1932.22,0,,,0.37354905
13351000,17,"PALOUSE RIVER AT HOOPER, WASH.",17060108,2500.0,D,E,0,WA,WA,75,464531N,46.75861,1180852W,-118.14778,1040.8,0,,,0.128126568
14020000,17,"UMATILLA RIVER AB MEACHAM CR NR GIBBON,OREG.",17070103,131.0,D,E,0,OR,OR,59,454311N,45.71972,1181920W,-118.32222,1854.81,0,,,1.228893394
14034500,17,"WILLOW CREEK AT HEPPNER, OREG.",17070104,96.8,D,P,4,OR,OR,49,452102N,45.35056,1193256W,-119.54889,1952.73,0,,,4.446796637
14042500,17,"CAMAS CREEK NEAR UKIAH, OREG.",17070202,121.0,D,E,3,OR,OR,59,450925N,45.15694,1184910W,-118.81944,3588.61,0,,,2.048003124
14044000,17,"M FK JOHN DAY R AT RITTER, OREG.",17070203,515.0,D,E,3,OR,OR,23,445320N,44.88889,1190825W,-119.14028,2544.56,0,,,0.746077973
14046500,17,"JOHN DAY RIVER AT SERVICE CREEK, OREG.",17070204,5090.0,D,E,5,OR,OR,69,444738N,44.79389,1200020W,-120.00556,1632.42,0,,C,0.076010123
14048000,17,"JOHN DAY R AT MCDONALD FERRY,OREG.",17070204,7580.0,D,E,3,OR,OR,55,453516N,45.58778,1202430W,-120.40833,392.27,0,,,0.05969574
14101500,17,"WHITE RIVER BELOW TYGH VALLEY,OREG.",17070306,417.0,D,E,3,OR,OR,65,451430N,45.24167,1210538W,-121.09389,870.15,0,,,0.450336789
14113000,17,"KLICKITAT RIVER NEAR PITT, WASH.",17070106,1297.0,D,E,0,WA,WA,39,454524N,45.75667,1211232W,-121.20889,288.9,0,,,0.186095003
14150300,17,"FALL CR. NEAR LOWELL, OREG.",17090001,118.0,D,E,0,OR,OR,39,435815N,43.97083,1223815W,-122.6375,844.42,0,,,0.31169402
14154500,17,"ROW RIVER ABOVE PITCHER CREEK NEAR, DORENA, OREG",17090002,211.0,D,E,2,OR,OR,39,434410N,43.73611,1225220W,-122.87222,856.16,0,,,0.236042274
14178000,17,"NO SANTIAM R BL BOULDER CR NR DETROIT,OREG.",17090005,216.0,D,E,0,OR,OR,47,444225N,44.70694,1220600W,-122.1,1590.07,0,,,0.453015716
14185000,17,"SOUTH SANTIAM RIVER BELOW CASCADIA, OREG.",17090006,174.0,D,E,0,OR,OR,43,442335N,44.39306,1223035W,-122.50972,759.88,0,,,0.327533239
14188800,17,"THOMAS CREEK NEAR SCIO,OREG.",17090006,109.0,D,E,3,OR,OR,43,444242N,44.71167,1224555W,-122.76528,380.84,0,,,0.251032482
14190500,17,"LUCKIAMUTE RIVER NEAR SUVER, OREG.",17090003,240.0,D,E,5,OR,OR,53,444700N,44.78333,1231400W,-123.23333,171.92,0,,,0.119379779
14193000,17,"WILLAMINA CREEK NEAR WILLAMINA, OR",17090008,64.7,D,E,0,OR,OR,71,450835N,45.14306,1232935W,-123.49306,315.0,0,,,0.767198287
14201000,17,"PUDDING RIVER NEAR MOUNT ANGEL, OREG.",17090009,204.0,D,E,3,OR,OR,47,450347N,45.06306,1224945W,-122.82917,119.76,0,,,0.121742498
14208000,17,"CLACKAMAS RIVER AT BIG BOTTOM, OREG.",17090011,136.0,D,E,0,OR,OR,5,450100N,45.01667,1215510W,-121.91944,2040.0,0,,,0.99092832
14222500,17,"EAST FORK LEWIS RIVER NEAR HEISSON, WASH.",17080002,125.0,D,E,0,WA,WA,11,455013N,45.83694,1222754W,-122.465,356.8,0,,,0.357692634
14232500,17,"CISPUS RIVER NEAR RANDLE, WASH.",17080004,321.0,D,E,0,WA,WA,41,462630N,46.44167,1215146W,-121.86278,1221.6,0,,,0.413922348
14233400,17,"COWLITZ RIVER NR RANDLE, WASH.",17080004,1030.0,D,E,0,WA,WA,41,462813N,46.47028,1220551W,-122.0975,799.42,0,,,0.106726145
14245000,17,"COWEMAN RIVER NEAR KELSO, WASH.",17080005,119.0,D,P,0,WA,WA,15,460857N,46.14917,1225345W,-122.89583,30.0,0,,,0.298372595
14301000,17,"NEHALEM RIVER NEAR FOSS, OREG.",17100202,667.0,D,E,3,OR,OR,57,454215N,45.70417,1234515W,-123.75417,32.6,0,,,0.089104073
14303600,17,NESTUCCA R NR BEAVER OREG,17100203,180.0,D,E,3,OR,OR,7,451600N,45.26667,1235045W,-123.84583,43.0,0,,,0.204179858
14306400,17,"FIVE RIVERS NR FISHER, OREG.",17100205,114.0,D,E,0,OR,OR,41,442015N,44.3375,1234935W,-123.82639,130.0,0,,,0.06556014
14306500,17,"ALSEA RIVER NEAR TIDEWATER, OREG.",17100205,334.0,D,E,2,OR,OR,41,442310N,44.38611,1234950W,-123.83056,48.16,0,,,0.054676367
14307620,17,"SIUSLAW R NR MAPLETON, OREG.",17100206,588.0,D,E,0,OR,OR,39,440345N,44.0625,1235255W,-123.88194,41.0,0,,,0.021577362
14307700,17,"JACKSON CREEK NEAR TILLER, OREG.",17100302,152.0,D,E,0,OR,OR,19,425715N,42.95417,1224940W,-122.82778,1240.25,0,,,0.563403397
14308000,17,"SOUTH UMPQUA RIVER AT TILLER, OREG.",17100302,449.0,D,E,3,OR,OR,19,425550N,42.93056,1225650W,-122.94722,991.8,0,,,0.160830277
14316700,17,"STEAMBOAT CREEK NEAR GLIDE,OREG.",17100301,227.0,D,E,0,OR,OR,19,432100N,43.35,1224340W,-122.72778,1128.55,0,,,0.250383116
14318000,17,"LITTLE RIVER AT PEEL, OREG.",17100301,177.0,D,E,3,OR,OR,19,431510N,43.25278,1230130W,-123.025,828.33,0,,,0.363954779
14321000,17,"UMPQUA RIVER NEAR ELKTON, OREG.",17100303,3683.0,D,E,4,OR,OR,19,433510N,43.58611,1233315W,-123.55417,90.42,0,,C,0.019167601
14325000,17,"SOUTH FORK COQUILLE RIVER AT POWERS, OREG.",17100305,169.0,D,E,3,OR,OR,11,425330N,42.89167,1240410W,-124.06944,197.42,0,,,0.154386031
14328000,17,"ROGUE RIVER ABOVE PROSPECT, OREG.",17100307,312.0,D,E,0,OR,OR,29,424630N,42.775,1222955W,-122.49861,2620.0,0,,,0.419970273
14338000,17,"ELK CREEK NEAR TRAIL, OREG.",17100307,129.0,D,E,3,OR,OR,29,424030N,42.675,1224438W,-122.74389,1493.91,0,,,0.644013675
14359000,17,"ROGUE RIVER AT RAYGOLD NR CENTRAL PT,OREG.",17100308,2053.0,D,P,4,OR,OR,29,422615N,42.4375,1225910W,-122.98611,1121.78,0,,,0.063224381
14362000,17,"APPLEGATE RIVER NEAR COPPER, OREG.",17100309,225.0,D,P,4,OR,OR,29,420330N,42.05833,1230650W,-123.11389,1747.51,0,,,0.44087501
14377000,17,"ILLINOIS RIVER AT KERBY, OREG.",17100311,364.0,D,P,2,OR,OR,33,421150N,42.19722,1233920W,-123.65556,1232.0,0,,,0.143573111
14377100,17,"ILLINOIS RIVER NEAR KERBY, OREG",17100311,380.0,D,E,3,OR,OR,33,421355N,42.23194,1233945W,-123.6625,1198.8,0,,,0.133778286
10258500,18,PALM CANYON CREEK NR PALM SPRINGS CALIF,18100200,93.1,D,E,2,CA,CA,65,334442N,33.745,1163205W,-116.53472,700.0,0,,,3.729224318
11042400,18,"TEMECULA CREEK NEAR AGUANGA, CALIF.",18070302,131.0,D,E,1,CA,CA,65,332733N,33.45917,1165522W,-116.92278,1590.0,0,,,4.14404203
11098000,18,ARROYO SECO NR PASADENA CALIF,18070105,16.0,D,E,2,CA,CA,37,341320N,34.22222,1181036W,-118.17667,1397.88,0,,C,4.837444283
11113001,18,SESPE C + FILLMORE IRR CO CA NR FILLMORE CA,18070102,251.0,D,E,2,CA,CA,111,342703N,34.45083,1185530W,-118.925,-99.0,0,,,0.435438856
11117800,18,SANTA ANA CREEK NEAR OAK VIEW CA,18070101,9.11,D,E,2,CA,CA,111,342525N,34.42361,1192025W,-119.34028,612.43,0,,,0.907091435
11124500,18,SANTA CRUZ CR NR SANTA YNEZ CA,18060010,74.0,D,E,0,CA,CA,83,343548N,34.59667,1195428W,-119.90778,783.38,0,,,2.942898608
11132500,18,SALSIPUEDES CR NR LOMPOC CA,18060010,47.1,D,E,2,CA,CA,83,343519N,34.58861,1202427W,-120.4075,220.0,0,,,0.038307021
11138500,18,"SISQUOC RIVER NEAR SISQUOC, CALIF.",18060008,281.0,D,P,3,CA,CA,83,345023N,34.83972,1201002W,-120.16722,624.3,0,,,1.102022832
11143000,18,BIG SUR RIVER NR BIG SUR CALIF,18060006,46.5,D,E,0,CA,CA,53,361445N,36.24583,1214620W,-121.77222,240.0,0,,,0.468948937
11149900,18,SAN ANTONIO RIVER NEAR LOCKWOOD CALIF,18060005,217.0,D,E,2,CA,CA,53,355348N,35.89667,1210514W,-121.08722,795.0,0,,,0.239038903
11151300,18,SAN LORENZO C BL BITTERWATER C NR KING CITY CAL,18060005,233.0,D,E,2,CA,CA,53,361605N,36.26806,1210355W,-121.06528,431.64,0,,,1.662951885
11152000,18,"ARROYO SECO NEAR SOLEDAD, CAL.",18060005,244.0,D,E,0,CA,CA,53,361650N,36.28056,1211918W,-121.32167,339.2,0,,,0.172058055
11152540,18,"EL TORO CREEK NR SPRECKELS, CA.",18060005,31.9,D,E,4,CA,CA,53,363500N,36.58333,1214250W,-121.71389,210.0,0,,,1.80106834
11160000,18,SOQUEL CR AT SOQUEL CALIF,18060001,40.2,D,E,2,CA,CA,87,365929N,36.99139,1215717W,-121.95472,21.38,0,,,0.466668662
11160500,18,SAN LORENZO R AT BIG TREES CALIF,18060001,106.0,D,E,4,CA,CA,87,370240N,37.04444,1220417W,-122.07139,227.0,0,,,0.15656477
11162500,18,PESCADERO CREEK NEAR PESCADERO CALIF,18050006,45.9,D,E,3,CA,CA,81,371539N,37.26083,1221940W,-122.32778,62.3,0,,,0.496048861
11176400,18,ARROYO VALLE BL LANG CN NR LIVERMORE CALIF,18050004,130.0,D,E,0,CA,CA,1,373341N,37.56139,1214058W,-121.68278,750.0,0,,,0.966318005
11186001,18,COMBINED FLOW OF KERN R AND KERN R NO 3 CA,18030001,846.0,D,E,4,CA,CA,107,355643N,35.94528,1182836W,-118.47667,-99.0,0,,,0.394745861
11187000,18,KERN RIVER AT KERNVILLE CALIF,18030001,1009.0,D,E,4,CA,CA,29,354516N,35.75444,1182521W,-118.4225,2621.57,0,,,0.284994989
11189500,18,SF KERN R NR ONYX CALIF,18030002,530.0,D,E,3,CA,CA,29,354415N,35.7375,1181022W,-118.17278,2900.0,0,,,1.043830838
11200800,18,DEER CREEK NEAR FOUNTAIN SPRINGS CALIF,18030005,83.3,D,E,0,CA,CA,107,355630N,35.94167,1184919W,-118.82194,980.0,0,,,0.555433202
11202001,18,NF OF MF TULE R NR SPRINGVILLE CALIF (TOTAL FLOW,18030006,39.3,D,E,4,CA,CA,107,361029N,36.17472,1184141W,-118.69472,-99.0,0,,,4.204599252
11206501,18,MF KAWEAH R NR POTWISHA CAMP CALIF (TOTAL FLOW),18030007,102.0,D,E,2,CA,CA,107,363048N,36.51333,1184727W,-118.79083,-99.0,0,,,1.805582225
11208001,18,MARBLE FK KAWEAH AT POTWISHA CP CALIF TOTAL FLOW,18030007,51.4,D,E,2,CA,CA,107,363108N,36.51889,1184803W,-118.80083,-99.0,0,,,3.435274353
11209900,18,KAWEAH RIVER AT THREE RIVERS CALIF,18030007,418.0,D,E,2,CA,CA,107,362638N,36.44389,1185409W,-118.9025,809.62,0,,,0.475463406
11210100,18,"SOUTH FORK KAWEAH RIVER AT THREE RIVERS, CALIF.",18030007,86.7,D,E,2,CA,CA,107,362500N,36.41667,1185448W,-118.91333,807.22,0,,,2.591533582
11210500,18,KAWEAH R NR THREE RIVERS CALIF,18030007,519.0,D,E,2,CA,CA,107,362424N,36.40667,1185712W,-118.95333,611.11,0,,,0.44630874
11213500,18,KINGS RIVER AB NF NR TRIMMER CALIF,18030010,952.0,D,E,0,CA,CA,19,365148N,36.86333,1190724W,-119.12333,1001.5,0,,,0.33140573
11221700,18,MILL CREEK NEAR PIEDRA CALIF,18030008,127.0,D,E,3,CA,CA,19,364907N,36.81861,1192027W,-119.34083,550.0,0,,,0.381310605
11224500,18,LOS GATOS CREEK AB NUNEZ CANYON NR COALINGA CAL,18030012,95.8,D,E,2,CA,CA,19,361253N,36.21472,1202811W,-120.46972,1065.2,0,,,1.786335913
11230500,18,BEAR CR NR LAKE T.A.EDISON CALIF,18040006,52.5,D,E,2,CA,CA,19,372018N,37.33833,1185823W,-118.97306,7366.94,0,,,6.849113299
11253310,18,CANTUA CREEK NR CANTUA CREEK CALIF,18030012,46.4,D,E,2,CA,CA,19,362408N,36.40222,1202557W,-120.4325,680.0,0,,,4.507721572
11264500,18,MERCED R AT HAPPY ISLES BRIDGE NR YOSEMITE CALIF,18040008,181.0,D,E,2,CA,CA,43,374354N,37.73167,1193328W,-119.55778,4016.58,0,B,C,1.288583298
11266500,18,"MERCED RIVER AT POHONO BRIDGE NEAR YOSEMITE, CAL",18040008,321.0,D,E,1,CA,CA,43,374301N,37.71694,1193955W,-119.66528,3861.66,0,,,0.585508779
11281000,18,SF TUOLUMNE RIVER NR OAKLAND RECREATION CAMP CAL,18040009,87.0,D,E,3,CA,CA,109,374918N,37.82167,1200043W,-120.01194,2800.0,0,,,1.774846315
11282000,18,MIDDLE TUOLUMNE R AT OAKLAND RECREATION CAMP CAL,18040009,73.5,D,E,3,CA,CA,109,374942N,37.82833,1200038W,-120.01056,2800.0,0,,,2.511851036
11283500,18,"CLAVEY RIVER NEAR BUCK MEADOWS, CALIF.",18040009,144.0,D,E,0,CA,CA,109,375402N,37.90056,1204015W,-120.67083,2374.08,0,,,0.697434058
11292500,18,"CLARK FORK STANISLAUS RIVER NEAR DARDANELLE, CAL",18040010,67.5,D,E,0,CA,CA,109,382150N,38.36389,1195213W,-119.87028,5507.3,0,,,3.877151973
11293500,18,NF STANISLAUS R BL SILVER CREEK CALIF,18040010,27.8,D,E,4,CA,CA,3,382622N,38.43944,1200053W,-120.01472,6677.3,0,,,7.524635315
11294000,18,HIGHLAND C BL SPICER MEADOWS RES CALIF,18040010,45.4,D,E,4,CA,CA,109,382324N,38.39,1200022W,-120.00611,6340.0,0,,,4.869645929
11315000,18,COLE C NR SALT SPRINGS DAM CALIF,18040012,21.0,D,E,3,CA,CA,5,383109N,38.51917,1201242W,-120.21167,5920.0,0,,,6.238938563
11342000,18,SACRAMENTO RIVER AT DELTA CALIF,18020005,425.0,D,E,3,CA,CA,89,405623N,40.93972,1222458W,-122.41611,1075.0,0,,,0.2188833
11355500,18,HAT CREEK NEAR HAT CREEK CALIF,18020003,162.0,D,E,5,CA,CA,89,404112N,40.68667,1212525W,-121.42361,4300.0,0,,,1.80219909
11367500,18,MCCLOUD RIVER NR MCCLOUD CALIF,18020004,358.0,D,E,4,CA,CA,93,411118N,41.18833,1220352W,-122.06444,2711.2,0,,,0.39756938
11368000,18,MCCLOUD RIVER AB SHASTA LAKE CALIF,18020004,604.0,D,P,4,CA,CA,89,405730N,40.95833,1221307W,-122.21861,1100.0,0,,,0.186943133
11371000,18,"CLEAR CREEK AT FRENCH GULCH, CALIF.",18020112,115.0,D,E,0,CA,CA,89,404142N,40.695,1223808W,-122.63556,1320.6,0,,,0.995635472
11372000,18,CLEAR CREEK NR IGO CALIF,18020112,228.0,D,P,2,CA,CA,89,403048N,40.51333,1223123W,-122.52306,672.99,0,,,0.413354795
11379500,18,ELDER CREEK NEAR PASKENTA CALIF,18020103,92.4,D,E,0,CA,CA,103,400129N,40.02472,1223031W,-122.50861,718.1,0,,,1.257286436
11381500,18,MILL C NR LOS MOLINOS CALIF,18020103,131.0,D,E,0,CA,CA,103,400317N,40.05472,1220123W,-122.02306,385.0,0,,,0.286295144
11382000,18,THOMES C AT PASKENTA CALIF,18020103,203.0,D,E,6,CA,CA,103,395316N,39.88778,1223141W,-122.52806,720.0,0,,,0.876617006
11383500,18,DEER CREEK NEAR VINA CALIF,18020103,208.0,D,E,0,CA,CA,103,400051N,40.01417,1215650W,-121.94722,479.2,0,,,0.818902461
11384000,18,BIG CHICO CREEK NEAR CHICO CALIF,18020119,72.4,D,E,0,CA,CA,7,394635N,39.77639,1214510W,-121.75278,300.0,0,,,0.663531531
11400000,18,BUTT C AB ALM-BUT C TU NR PRATV CAL,18020121,69.0,D,E,3,CA,CA,63,401123N,40.18972,1211123W,-121.18972,4400.0,0,,,3.632189329
11401500,18,INDIAN CREEK NR CRESCENT MILLS CALIF,18020122,739.0,D,E,4,CA,CA,63,400441N,40.07806,1205537W,-120.92694,3500.0,0,,,0.314634695
11402000,18,"SPANISH CREEK ABOVE BLACKHAWK CREEK AT KEDDIE, C",18020122,184.0,D,E,4,CA,CA,63,400011N,40.00306,1205712W,-120.95333,3129.86,0,,,0.770041247
11403000,18,EAST BRANCH OF NF FEATHER R NR RICH BAR CALIF,18020122,1025.0,D,E,3,CA,CA,63,400038N,40.01056,1211303W,-121.2175,2300.0,0,,,0.183361219
11409300,18,"OREGON CREEK AT CAMPTONVILLE, CALIF.",18020125,23.0,D,E,0,CA,CA,115,392646N,39.44611,1210243W,-121.04528,2230.0,0,,,1.91912581
11413000,18,"NORTH YUBA RIVER BELOW GOODYEARS BAR, CALIF.",18020125,250.0,D,E,2,CA,CA,91,393130N,39.525,1205613W,-120.93694,2453.0,0,,,0.298821247
11427000,18,NF AMERICAN R AT NORTH FORK DAM CALIF,18020128,342.0,D,E,4,CA,CA,61,385610N,38.93611,1210122W,-121.02278,715.0,0,,C,0.229461477
11427700,18,DUNCAN CREEK NR FRENCH MEADOWS CALIF,18020128,9.94,D,E,1,CA,CA,61,390809N,39.13583,1202839W,-120.4775,5270.0,0,,,9.452415347
11449500,18,"KELSEY CREEK NEAR KELSEYVILLE, CALIF.",18020116,36.6,D,E,1,CA,CA,33,385539N,38.9275,1225033W,-122.8425,1475.44,0,,,1.375112011
11451100,18,"NF CACHE C AT HOUGH SPRING NEAR CLEARLAKE OAKS,",18020116,60.2,D,E,0,CA,CA,33,390956N,39.16556,1223708W,-122.61889,1840.0,0,,,0.784546225
11456000,18,NAPA RIVER NEAR ST. HELENA CALIF,18050002,81.4,D,E,5,CA,CA,55,382952N,38.49778,1222537W,-122.42694,170.12,0,,,0.26764273
11461000,18,"RUSSIAN RIVER NEAR UKIAH, CALIF.",18010110,100.0,D,E,1,CA,CA,45,391144N,39.19556,1231138W,-123.19389,599.22,0,,,0.193711367
11465200,18,DRY CREEK NR GEYSERVILLE CALIF,18010110,162.0,D,P,5,CA,CA,97,384155N,38.69861,1225725W,-122.95694,158.4,0,,,0.055550053
11468000,18,"NAVARRO RIVER NEAR NAVARRO, CALIF.",18010108,303.0,D,E,0,CA,CA,45,391020N,39.17222,1234006W,-123.66833,4.79,0,,,0.042667457
11468500,18,NOYO RIVER NR FORT BRAGG CALIF,18010108,106.0,D,E,0,CA,CA,45,392542N,39.42833,1234412W,-123.73667,11.73,0,,,0.156682605
11472200,18,"OUTLET CREEK NR LONGVALE, CA.",18010103,161.0,D,E,0,CA,CA,45,393705N,39.61806,1232120W,-123.35556,1018.14,0,,,0.183213624
11473900,18,MIDDLE FORK EEL R NR DOS RIOS CALIF,18010104,745.0,D,E,0,CA,CA,45,394223N,39.70639,1231927W,-123.32417,901.58,0,,,0.136713337
11475800,18,SF EEL RIVER AT LEGGETT CALIF,18010106,248.0,D,E,0,CA,CA,45,395229N,39.87472,1234310W,-123.71944,691.32,0,,,0.149349436
11476500,18,SF EEL RIVER NR MIRANDA CALIF,18010106,537.0,D,E,3,CA,CA,23,401055N,40.18194,1234630W,-123.775,217.57,0,,,0.057666406
11476600,18,"BULL CREEK NEAR WEOTT, CALIF.",18010106,28.1,D,E,5,CA,CA,23,402105N,40.35139,1240010W,-124.00278,269.36,0,,,0.757178658
11477000,18,EEL RIVER AT SCOTIA CALIF,18010105,3113.0,D,E,5,CA,CA,23,402930N,40.49167,1240555W,-124.09861,35.5,0,,,0.02435938
11478500,18,VAN DUZEN RIVER NR BRIDGEVILLE CALIF,18010105,222.0,D,E,0,CA,CA,23,402850N,40.48056,1235323W,-123.88972,358.18,0,,,0.229663413
11481200,18,LITTLE R NR TRINIDAD CALIF,18010102,40.5,D,E,0,CA,CA,23,410040N,41.01111,1240450W,-124.08056,17.62,0,,,0.23702064
11481500,18,REDWOOD C NR BLUE LAKE CALIF,18010102,67.7,D,E,1,CA,CA,23,405422N,40.90611,1234851W,-123.81417,850.0,0,,,0.906025992
11482500,18,REDWOOD CREEK AT ORICK CALIF,18010102,277.0,D,E,1,CA,CA,23,411758N,41.29944,1240300W,-124.05,5.16,0,,,0.139726619
11497500,18,"SPRAGUE RIVER NEAR BEATTY,OREG.",18010202,513.0,D,E,3,OR,OR,35,422650N,42.44722,1211415W,-121.2375,4305.35,0,,,0.641046436
11501000,18,"SPRAGUE RIVER NEAR CHILOQUIN,OREG.",18010202,1580.0,D,E,3,OR,OR,35,423505N,42.58472,1215055W,-121.84861,4202.43,0,,,0.323267637
11519500,18,"SCOTT RIVER NEAR FORT JONES, CALIF.",18010208,653.0,D,E,1,CA,CA,93,413827N,41.64083,1230050W,-123.01389,2623.8,0,,,0.192435577
11521500,18,"INDIAN CREEK NEAR HAPPY CAMP, CALIF.",18010209,120.0,D,E,1,CA,CA,93,415007N,41.83528,1232255W,-123.38194,1198.37,0,,,0.483833957
11522500,18,SALMON RIVER AT SOMES BAR CALIF,18010210,751.0,D,E,0,CA,CA,93,412240N,41.37778,1232835W,-123.47639,482.97,0,,,0.126333054
11523200,18,TRINITY R AB COFFEE C NR TRINITY CTR CA,18010211,149.0,D,E,1,CA,CA,105,410641N,41.11139,1224216W,-122.70444,2536.93,0,,,0.607626075
11528700,18,"S F TRINITY RIVER BL HYAMPOM, CALIF.",18010212,764.0,D,E,0,CA,CA,105,403900N,40.65,1232935W,-123.49306,1211.37,0,,,0.161118865
11532500,18,"SMITH RIVER NEAR CRESCENT CITY, CALIF.",18010101,609.0,D,E,0,CA,CA,15,414722N,41.78944,1240314W,-124.05389,89.61,0,,C,0.069822688
